"ps","pobl","pmb","area","compl","nro_edif","tiposecurb","urb","ste","nro","nro_apart","tipo_via","calle","sector","cod_post","pais","x","y","lat","lon","location"
"174523","SAN JUAN","SABANA LLANA NORTE",,,,"URB","COUNTRY CLUB",,"1046",,"CALLE","LUIS CORDOVA CHIRINO",,"924","PR","245873","263379","18.4055","-65.9992","(18.4055, -65.9992)"
"174511","SAN JUAN","SABANA LLANA NORTE",,,,"URB","COUNTRY CLUB",,"1042",,"CALLE","LUIS CORDOVA CHIRINO",,"924","PR","245853","263392","18.4056","-65.9994","(18.4056, -65.9994)"
"174502","SAN JUAN","SABANA LLANA NORTE",,,,"URB","COUNTRY CLUB",,"1040",,"CALLE","LUIS CORDOVA CHIRINO",,"924","PR","245844","263401","18.4057","-65.9994","(18.4057, -65.9994)"
"174473","SAN JUAN","SABANA LLANA NORTE",,,,"URB","COUNTRY CLUB",,"1024",,"CALLE","LUIS CORDOVA CHIRINO",,"924","PR","245763","263465","18.4062","-66.0002","(18.4062, -66.0002)"
"174472","SAN JUAN","SABANA LLANA NORTE",,,,"URB","COUNTRY CLUB",,"1022",,"CALLE","LUIS CORDOVA CHIRINO",,"924","PR","245751","263473","18.4063","-66.0003","(18.4063, -66.0003)"
"174316","SAN JUAN","SABANA LLANA NORTE",,,,"URB","COUNTRY CLUB",,"1101",,"CALLE","CELIA CESTERO",,"924","PR","245879","263327","18.405","-65.9991","(18.405, -65.9991)"
"174314","SAN JUAN","SABANA LLANA NORTE",,,,"URB","VILLA PRADES",,"700",,"CALLE","FERNANDO CALLEJO",,"924","PR","243522","263410","18.4058","-66.0214","(18.4058, -66.0214)"
"174300","SAN JUAN","SABANA LLANA SUR",,,,"URB","TOWN PARK",,"A-5",,"CALLE","VOLTURNO",,"924","PR","242753","261781","18.3910943","-66.028738","(18.3910943, -66.028738)"
"174269","SAN JUAN","SABANA LLANA NORTE",,,,"URB","COUNTRY CLUB",,"1109",,"CALLE","CELIA CESTERO",,"924","PR","245914","263297","18.4047","-65.9988","(18.4047, -65.9988)"
"174251","SAN JUAN","SABANA LLANA NORTE",,,,"URB","COUNTRY CLUB",,"1110",,"CALLE","CELIA CESTERO",,"924","PR","245917","263267","18.4045","-65.9988","(18.4045, -65.9988)"
"174237","SAN JUAN","SABANA LLANA NORTE",,,,"URB","VILLA PRADES",,"709",,"CALLE","JULIO C ARTEAGA",,"924","PR","243572","263379","18.4055","-66.0209","(18.4055, -66.0209)"
"174236","SAN JUAN","SABANA LLANA NORTE",,,,"URB","VILLA PRADES",,"707",,"CALLE","JULIO C ARTEAGA",,"924","PR","243561","263380","18.4055","-66.0211","(18.4055, -66.0211)"
"174232","SAN JUAN","SABANA LLANA NORTE",,,,"URB","VILLA PRADES",,"703",,"CALLE","JULIO C ARTEAGA",,"924","PR","243535","263376","18.4055","-66.0213","(18.4055, -66.0213)"
"174231","SAN JUAN","SABANA LLANA NORTE",,,,"URB","VILLA PRADES",,"701",,"CALLE","JULIO C ARTEAGA",,"924","PR","243523","263377","18.4055","-66.0214","(18.4055, -66.0214)"
"174185","SAN JUAN","SABANA LLANA NORTE",,,,"URB","COUNTRY CLUB",,"1046",,"CALLE","CELIA CESTERO",,"924","PR","245844","263324","18.405","-65.9995","(18.405, -65.9995)"
"174152","SAN JUAN","SABANA LLANA NORTE",,,,"URB","COUNTRY CLUB",,"1038",,"CALLE","CELIA CESTERO",,"924","PR","245803","263357","18.4053","-65.9998","(18.4053, -65.9998)"
"174140","SAN JUAN","SABANA LLANA NORTE",,,,"URB","VILLA PRADES",,"695",,"CALLE","JULIO C ARTEAGA",,"924","PR","243485","263377","18.4055","-66.0218","(18.4055, -66.0218)"
"174129","SAN JUAN","SABANA LLANA NORTE",,,,"URB","VILLA PRADES",,"689",,"CALLE","JULIO C ARTEAGA",,"924","PR","243449","263374","18.4055","-66.0221","(18.4055, -66.0221)"
"174126","SAN JUAN","SABANA LLANA NORTE",,,,"URB","VILLA PRADES",,"685",,"CALLE","JULIO C ARTEAGA",,"924","PR","243424","263372","18.4055","-66.0224","(18.4055, -66.0224)"
"174029","SAN JUAN","HATO REY SUR",,,,"URB","UNIVERSITY GARDENS",,"259",,"CALLE","COLUMBIA",,"927","PR","239106","263453","18.4063","-66.0632","(18.4063, -66.0632)"
"1595231","SAN JUAN","SANTURCE",,,,"URB","OCEAN PARK",,"2072",,"CALLE","CACIQUE",,"911","PR","240469","268513","18.452","-66.0502","(18.452, -66.0502)"
"449999","SAN JUAN","SANTURCE",,,,"SECT"," ",,"1705",,"CALLE","VICTORIA",,"909","PR","238975","267307","18.4411","-66.0644","(18.4411, -66.0644)"
"446081","SAN JUAN","SANTURCE",,,,"SECT"," ",,"1657",,"CALLE","JOSE H CORA",,"909","PR","238847","267312","18.4411","-66.0656","(18.4411, -66.0656)"
"445818","SAN JUAN","SANTURCE",,,,"SECT"," ",,"1676",,"CALLE","JOSE H CORA",,"909","PR","238918","267245","18.4405","-66.0649","(18.4405, -66.0649)"
"445159","SAN JUAN","SANTURCE",,,,"SECT"," ",,"1646",,"CALLE","JOSE H CORA",,"909","PR","238724","267333","18.4413","-66.0668","(18.4413, -66.0668)"
"442100","SAN JUAN","SANTURCE",,,,"SECT"," ",,"718",,"CALLE","BOLIVAR",,"909","PR","238751","267355","18.4415","-66.0665","(18.4415, -66.0665)"
"429421","SAN JUAN","SANTURCE",,,,"SECT"," ",,"614",,"CALLE","VALPARAISO",,"915","PR","240821","266526","18.434","-66.0469","(18.434, -66.0469)"
"318034","SAN JUAN","SANTURCE",,,,"SECT"," ",,"228",,"CALLE","PESANTE",,"912","PR","239435","267945","18.4468","-66.06","(18.4468, -66.06)"
"317812","SAN JUAN","SANTURCE",,,,"SECT"," ",,"160",,"CALLE","PESANTE",,"911","PR","239502","268278","18.4499","-66.0594","(18.4499, -66.0594)"
"317673","SAN JUAN","SANTURCE",,,,"SECT"," ",,"1848",,"CALLE","MOLINA",,"911","PR","239515","268344","18.4505","-66.0593","(18.4505, -66.0593)"
"317591","SAN JUAN","SANTURCE",,,,"SECT"," ",,"263",,"CALLE","BARTOLOME DE LAS CASAS",,"915","PR","240983","267608","18.4438","-66.0454","(18.4438, -66.0454)"
"317256","SAN JUAN","SANTURCE",,,,"SECT"," ",,"854",,"CALLE","VICTOR LOPEZ",,"909","PR","238597","267321","18.4412","-66.068","(18.4412, -66.068)"
"317243","SAN JUAN","SANTURCE",,,,"SECT"," ",,"153",,"CALLE","DIEZ DE ANDINO",,"911","PR","239430","268317","18.4502","-66.0601","(18.4502, -66.0601)"
"311471","SAN JUAN","SANTURCE",,,,"SECT"," ",,"254",,"CALLE","BARTOLOME DE LAS CASAS",,"915","PR","240979","267652","18.4442","-66.0454","(18.4442, -66.0454)"
"311254","SAN JUAN","SANTURCE",,,,"SECT"," ",,"302",,"CALLE","BARTOLOME LAS CASAS",,"915","PR","240921","267480","18.4426","-66.046","(18.4426, -66.046)"
"311248","SAN JUAN","SANTURCE",,,,"SECT"," ",,"304",,"CALLE","BARTOLOME LAS CASAS",,"915","PR","240919","267469","18.4425","-66.046","(18.4425, -66.046)"
"311313","SAN JUAN","SANTURCE",,,,"SECT"," ",,"280",,"CALLE","BARTOLOME DE LAS CASAS",,"915","PR","240942","267528","18.4431","-66.0458","(18.4431, -66.0458)"
"307835","SAN JUAN","SANTURCE",,,,"SECT"," ",,"265",,"CALLE","DIEZ DE ANDINO",,"912","PR","239340.3261","267774.4421",,,
"307557","SAN JUAN","SANTURCE",,,,"URB","SAGRADO CORAZON",,"406",,"CALLE","DIEZ DE ANDINO",,"912","PR","239254","267614","18.4439","-66.0617","(18.4439, -66.0617)"
"307394","SAN JUAN","SANTURCE",,,,"SECT"," ",,"363",,"CALLE","MERHOFF",,"915","PR","240815","267225","18.4403","-66.047","(18.4403, -66.047)"
"307382","SAN JUAN","SANTURCE",,,,"SECT"," ",,"361",,"CALLE","MERHOFF",,"915","PR","240818","267233","18.4404","-66.0469","(18.4404, -66.0469)"
"306112","SAN JUAN","SANTURCE",,,,"SECT"," ",,"711",,"CALLE","CARRION MADURO",,"909","PR","238543","267506","18.4429","-66.0685","(18.4429, -66.0685)"
"306080","SAN JUAN","SANTURCE",,,,"SECT"," ",,"2279",,"CALLE","BARBOSA",,"915","PR","241046","267200","18.4401","-66.0448","(18.4401, -66.0448)"
"306033","SAN JUAN","SANTURCE",,,,"SECT"," ",,"2271",,"CALLE","BARBOSA",,"915","PR","240995","267225","18.4403","-66.0453","(18.4403, -66.0453)"
"481819","CAROLINA","BUENA VISTA",,,,"URB","VILLA CAROLINA 3RA SECC",,"111-2",,"CALLE","79",,"985","PR","249441","262590","18.3983","-65.9654","(18.3983, -65.9654)"
"481543","CAROLINA","BUENA VISTA",,,,"URB","VILLA CAROLINA 3RA SECC",,"111-47",,"CALLE","80",,"985","PR","249482","262674","18.399","-65.965","(18.399, -65.965)"
"481528","CAROLINA","BUENA VISTA",,,,"URB","VILLA CAROLINA 3RA SECC",,"111-45",,"CALLE","80",,"985","PR","249510","262674","18.399","-65.9648","(18.399, -65.9648)"
"481501","CAROLINA","BUENA VISTA",,,,"URB","VILLA CAROLINA 3RA SECC",,"111-42",,"CALLE","80",,"985","PR","249551","262674","18.399","-65.9644","(18.399, -65.9644)"
"481276","CAROLINA","BUENA VISTA",,,,"URB","VILLA CAROLINA 3RA SECC",,"111-36",,"CALLE","80",,"985","PR","249634","262677","18.399","-65.9636","(18.399, -65.9636)"
"481253","CAROLINA","BUENA VISTA",,,,"URB","VILLA CAROLINA 3RA SECC",,"111-31",,"CALLE","80",,"985","PR","249701","262679","18.3991","-65.963","(18.3991, -65.963)"
"481209","CAROLINA","BUENA VISTA",,,,"URB","VILLA CAROLINA",,"160-23",,"CALLE","423",,"985","PR","249614","263946","18.4105","-65.9638","(18.4105, -65.9638)"
"481154","CAROLINA","BUENA VISTA",,,,"URB","VILLA CAROLINA 3RA SECC",,"108-56",,"CALLE","75",,"985","PR","249769","262672","18.399","-65.9623","(18.399, -65.9623)"
"481136","CAROLINA","BUENA VISTA",,,,"URB","VILLA CAROLINA 3RA SECC",,"108-53",,"CALLE","75",,"985","PR","249767","262709","18.3993","-65.9623","(18.3993, -65.9623)"
"481358","CAROLINA","BUENA VISTA",,,,"URB","VILLA CAROLINA",,"160-19",,"CALLE","423",,"985","PR","249618","263893","18.41","-65.9637","(18.41, -65.9637)"
"481353","CAROLINA","BUENA VISTA",,,,"URB","VILLA CAROLINA 3RA SECC",,"111-39",,"CALLE","80",,"985","PR","249592","262675","18.399","-65.964","(18.399, -65.964)"
"481535","CAROLINA","BUENA VISTA",,,,"URB","VILLA CAROLINA 3RA SECC",,"111-46",,"CALLE","80",,"985","PR","249497","262673","18.399","-65.9649","(18.399, -65.9649)"
"478102","CAROLINA","BUENA VISTA",,,,"URB","VILLA CAROLINA 3RA SECC",,"110-19",,"CALLE","80",,"985","PR","249725","262701","18.3993","-65.9627","(18.3993, -65.9627)"
"478078","CAROLINA","BUENA VISTA",,,,"URB","VILLA CAROLINA 3RA SECC",,"110-16",,"CALLE","80",,"985","PR","249687","262698","18.3992","-65.9631","(18.3992, -65.9631)"
"478043","CAROLINA","BUENA VISTA",,,,"URB","VILLA CAROLINA 3RA SECC",,"110-14",,"CALLE","80",,"985","PR","249661","262698","18.3992","-65.9633","(18.3992, -65.9633)"
"478042","CAROLINA","BUENA VISTA",,,,"URB","VILLA CAROLINA 3RA SECC",,"110-13",,"CALLE","80",,"985","PR","249646","262698","18.3992","-65.9635","(18.3992, -65.9635)"
"478041","CAROLINA","BUENA VISTA",,,,"URB","VILLA CAROLINA 3RA SECC",,"110-12",,"CALLE","80",,"985","PR","249635","262697","18.3992","-65.9636","(18.3992, -65.9636)"
"478040","CAROLINA","BUENA VISTA",,,,"URB","VILLA CAROLINA 3RA SECC",,"110-11",,"CALLE","80",,"985","PR","249618","262697","18.3992","-65.9637","(18.3992, -65.9637)"
"478038","CAROLINA","BUENA VISTA",,,,"URB","VILLA CAROLINA 3RA SECC",,"110-10",,"CALLE","80",,"985","PR","249609","262698","18.3992","-65.9638","(18.3992, -65.9638)"
"477945","CAROLINA","BUENA VISTA",,,,"URB","VILLA CAROLINA 3RA SECC",,"110-4",,"CALLE","80",,"985","PR","249522","262693","18.3992","-65.9647","(18.3992, -65.9647)"
"477915","CAROLINA","BUENA VISTA",,,,"URB","VILLA CAROLINA 3RA SECC",,"110-2",,"CALLE","80",,"985","PR","249494","262694","18.3992","-65.9649","(18.3992, -65.9649)"
"477855","CAROLINA","BUENA VISTA",,,,"URB","VILLA CAROLINA",,"160-8",,"CALLE","420",,"985","PR","249583","263865","18.4098","-65.9641","(18.4098, -65.9641)"
"477806","CAROLINA","BUENA VISTA",,,,"URB","VILLA CAROLINA",,"160-9",,"CALLE","420",,"985","PR","249582","263853","18.4097","-65.9641","(18.4097, -65.9641)"
"271111","SAN JUAN","ORIENTE",,,,"URB","SAN JOSE",,"365",,"CALLE","ALMAGRO",,"923","PR","241578","265198","18.422","-66.0398","(18.422, -66.0398)"
"271077","SAN JUAN","HATO REY CENTRAL",,,,"URB","FLORAL PARK",,"129-G",,"CALLE","PARIS",,"917","PR","240465","265237","18.4224","-66.0503","(18.4224, -66.0503)"
"271066","SAN JUAN","HATO REY CENTRAL",,,,"URB","FLORAL PARK",,"129",,"CALLE","PARIS",,"917","PR","240455","265238","18.4224","-66.0504","(18.4224, -66.0504)"
"268053","SAN JUAN","PUEBLO",,,,"BDA"," ",,"41",,"CALLE","JOSE QUIONES",,"926","PR","240166","262214","18.3951","-66.0532","(18.3951, -66.0532)"
"267931","SAN JUAN","SABANA LLANA SUR",,,,"URB","EXT VILLA CAPRI",,"H-2",,"CALLE","TURIN",,"924","PR","242910","261710","18.3904","-66.0273","(18.3904, -66.0273)"
"267955","SAN JUAN","SABANA LLANA SUR",,,,"URB","EXT VILLA CAPRI",,"G-9",,"CALLE","TURIN",,"924","PR","242819","261693","18.3903","-66.0281","(18.3903, -66.0281)"
"267777","SAN JUAN","SABANA LLANA SUR",,,,"URB","EXT VILLA CAPRI",,"C-5",,"CALLE","PERUGIA",,"924","PR","243009","261691","18.3903","-66.0263","(18.3903, -66.0263)"
"267771","SAN JUAN","SABANA LLANA SUR",,,,"URB","EXT VILLA CAPRI",,"C-6",,"CALLE","PERUGIA",,"924","PR","242992","261688","18.3902","-66.0265","(18.3902, -66.0265)"
"267764","SAN JUAN","SABANA LLANA SUR",,,,"URB","EXT VILLA CAPRI",,"C-7",,"CALLE","PERUGIA",,"924","PR","242978","261686","18.3902","-66.0266","(18.3902, -66.0266)"
"278132","SAN JUAN","SABANA LLANA NORTE",,,,"URB","REPTO SEVILLA",,"934",,"CALLE","SARASATE",,"924","PR","243699","262742","18.3998","-66.0198","(18.3998, -66.0198)"
"273720","SAN JUAN","ORIENTE",,,,"URB","VILLA GRANADA",,"930",,"CALLE","ALAMEDA",,"923","PR","242422","262919","18.4014","-66.0318","(18.4014, -66.0318)"
"273316","SAN JUAN","ORIENTE",,,,"URB","VILLA GRANADA",,"973",,"CALLE","ALAMEDA",,"924","PR","242424","262691","18.3993","-66.0318","(18.3993, -66.0318)"
"273235","SAN JUAN","ORIENTE",,,,"URB","VILLA GRANADA",,"957",,"CALLE","ALAMEDA",,"923","PR","242436","262795","18.4003","-66.0317","(18.4003, -66.0317)"
"273220","SAN JUAN","ORIENTE",,,,"URB","SAN JOSE",,"379",,"CALLE","ALMAGRO",,"923","PR","241626","265132","18.4214","-66.0393","(18.4214, -66.0393)"
"273209","SAN JUAN","ORIENTE",,,,"URB","SAN JOSE",,"375",,"CALLE","ALMAGRO",,"923","PR","241614","265151","18.4216","-66.0394","(18.4216, -66.0394)"
"273127","SAN JUAN","ORIENTE",,,,"URB","SAN JOSE",,"367",,"CALLE","ALMAGRO",,"923","PR","241585","265188","18.4219","-66.0397","(18.4219, -66.0397)"
"273681","SAN JUAN","ORIENTE",,,,"URB","VILLA GRANADA",,"936",,"CALLE","ALAMEDA",,"923","PR","242419","262879","18.401","-66.0319","(18.401, -66.0319)"
"273670","SAN JUAN","EL CINCO",,,,"URB","VILLA NEVAREZ",,"1083",,"CALLE","1",,"927","PR","238297","262089","18.394","-66.0709","(18.394, -66.0709)"
"273652","SAN JUAN","ORIENTE",,,,"URB","VILLA GRANADA",,"938",,"CALLE","ALAMEDA",,"923","PR","242416","262866","18.4009","-66.0319","(18.4009, -66.0319)"
"273616","SAN JUAN","EL CINCO",,,,"URB","VILLA NEVAREZ",,"1097",,"CALLE","1",,"927","PR","238277","261990","18.3931","-66.0711","(18.3931, -66.0711)"
"273551","SAN JUAN","ORIENTE",,,,"URB","SAN JOSE",,"384",,"CALLE","ARANJUEZ",,"923","PR","241673","265127","18.4213","-66.0389","(18.4213, -66.0389)"
"273477","SAN JUAN","ORIENTE",,,,"URB","VILLA GRANADA",,"970",,"CALLE","ALAMEDA",,"923","PR","242396","262708","18.3995","-66.0321","(18.3995, -66.0321)"
"273426","SAN JUAN","ORIENTE",,,,"URB","SAN JOSE",,"387",,"CALLE","ALMAGRO",,"923","PR","241651","265097","18.4211","-66.0391","(18.4211, -66.0391)"
"221568","CAROLINA","MARTIN GONZALEZ",,,,"URB","METROPOLIS 3RA SECC",,"2D-7",,"CALLE","42",,"987","PR","247466","258906","18.365","-65.9842","(18.365, -65.9842)"
"221629","CAROLINA","MARTIN GONZALEZ",,,,"URB","METROPOLIS 3RA SECC",,"2D-14",,"CALLE","42",,"987","PR","247459","258925","18.3652","-65.9843","(18.3652, -65.9843)"
"221600","CAROLINA","MARTIN GONZALEZ",,,,"URB","EST DE SAN FERNANDO",,"I-1",,"CALLE","9",,"985","PR","248899","261436","18.3878","-65.9706","(18.3878, -65.9706)"
"221582","CAROLINA","MARTIN GONZALEZ",,,,"URB","METROPOLIS 3RA SECC",," ",,"CALLE","42",,"987","PR","247498","258907","18.365","-65.9839","(18.365, -65.9839)"
"221651","CAROLINA","TRUJILLO BAJO",,,,"PARC"," ",,"158",,"CALLE","AZUCENA",,"987","PR","252304","259661","18.3717","-65.9384","(18.3717, -65.9384)"
"221705","CAROLINA","TRUJILLO BAJO",,,,"PARC"," ",,"156",,"CALLE","AZUCENA",,"987","PR","252287","259638","18.3715","-65.9386","(18.3715, -65.9386)"
"221697","CAROLINA","MARTIN GONZALEZ",,,,"URB","METROPOLIS 3RA SECC",,"20",,"CALLE","43",,"987","PR","247436","258788","18.364","-65.9845","(18.364, -65.9845)"
"221676","CAROLINA","MARTIN GONZALEZ",,,,"URB","METROPOLIS 3RA SECC",,"2D-17",,"CALLE","42",,"987","PR","247421","258905","18.365","-65.9846","(18.365, -65.9846)"
"221737","CAROLINA","MARTIN GONZALEZ",,,,"URB","METROPOLIS 3RA SECC",,"2P-16",,"CALLE","43",,"987","PR","247458","258743","18.3635","-65.9843","(18.3635, -65.9843)"
"221790","CAROLINA","MARTIN GONZALEZ",,,,"URB","METROPOLIS 3RA SECC",,"2P-10",,"CALLE","43",,"987","PR","247494","258674","18.3629","-65.9839","(18.3629, -65.9839)"
"221851","CAROLINA","MARTIN GONZALEZ",,,,"URB","METROPOLIS 3RA SECC",,"2P-7",,"CALLE","43",,"987","PR","247514","258639","18.3626","-65.9838","(18.3626, -65.9838)"
"221847","CAROLINA","MARTIN GONZALEZ",,,,"URB","METROPOLIS 3RA SECC",,"2P-8",,"CALLE","43",,"987","PR","247507","258650","18.3627","-65.9838","(18.3627, -65.9838)"
"221884","CAROLINA","MARTIN GONZALEZ",,,,"URB","METROPOLIS 3RA SECC",,"2",,"CALLE","43",,"987","PR","247556","258582","18.3621","-65.9834","(18.3621, -65.9834)"
"221983","CAROLINA","MARTIN GONZALEZ",,,,"URB","EST DE SAN FERNANDO",,"F-17",,"CALLE","8",,"985","PR","249074","261383","18.3874","-65.9689","(18.3874, -65.9689)"
"221975","CAROLINA","TRUJILLO BAJO",,,,"PARC"," ",,"169",,"CALLE","AZUCENA",,"987","PR","252276","259588","18.3711","-65.9387","(18.3711, -65.9387)"
"221928","CAROLINA","MARTIN GONZALEZ",,,,"URB","METROPOLIS 3RA SECC",,"2P-41",,"CALLE","41",,"987","PR","247596","258598","18.3622","-65.983","(18.3622, -65.983)"
"222013","CAROLINA","TRUJILLO BAJO",,,,"URB","MANS DE CAROLINA",,"UU-2",,"CALLE","YUNQUESITO",,"987","PR","252151","259558","18.3708","-65.9399","(18.3708, -65.9399)"
"222074","CAROLINA","MARTIN GONZALEZ",,,,"URB","METROPOLIS 3RA SECC",,"2P-28",,"CALLE","41",,"987","PR","247502","258751","18.3636","-65.9839","(18.3636, -65.9839)"
"222071","CAROLINA","TRUJILLO BAJO",,,,"URB","MANS DE CAROLINA",,"UU-9",,"CALLE","YUNQUESITO",,"987","PR","252222","259503","18.3703","-65.9392","(18.3703, -65.9392)"
"222061","CAROLINA","TRUJILLO BAJO",,,,"URB","MANS DE CAROLINA",,"UU-5",,"CALLE","YUNQUESITO",,"987","PR","252180","259533","18.3706","-65.9396","(18.3706, -65.9396)"
"222058","CAROLINA","MARTIN GONZALEZ",,,,"URB","EST DE SAN FERNANDO",,"F-19",,"CALLE","8",,"985","PR","249070","261417","18.3877","-65.969","(18.3877, -65.969)"
"222118","CAROLINA","CEDRO",,,,"SECT"," ",," ",,"CARR","185 KM 14.5",,"985","PR","255010","249441","18.2793","-65.9131","(18.2793, -65.9131)"
"222110","CAROLINA","TRUJILLO BAJO",,,,"PARC"," ",,"177",,"CALLE","AZUCENA",,"987","PR","252340","259687","18.372","-65.9381","(18.372, -65.9381)"
"174003","SAN JUAN","ORIENTE",,,,"URB","SAN JOSE",,"416",,"CALLE","SACEDON",,"923","PR","241736","264320","18.4141","-66.0383","(18.4141, -66.0383)"
"173952","SAN JUAN","ORIENTE",,,,"URB","SAN JOSE",,"415",,"CALLE","RIVADAVIA",,"923","PR","241735","264280","18.4137","-66.0383","(18.4137, -66.0383)"
"173929","SAN JUAN","HATO REY SUR",,,,"URB","UNIVERSITY GARDENS",,"269",,"CALLE","COLUMBIA",,"927","PR","239006","263447","18.4062","-66.0642","(18.4062, -66.0642)"
"109647","CAROLINA","SAN ANTON",,,,"URB","VILLAS DE SAN ANTON",,"A-5",,"CALLE","ROMAN RIVERA",,"987","PR","247402","261286","18.3865","-65.9848","(18.3865, -65.9848)"
"177149","SAN JUAN","HATO REY SUR",,,,"URB","UNIVERSITY GARDENS",,"258",,"CALLE","CLEMSON",,"927","PR","239102","263495","18.4066","-66.0633","(18.4066, -66.0633)"
"177745","SAN JUAN","UNIVERSIDAD",,,,"URB","PEREZ MORRIS",,"114",,"CALLE","MAYAGUEZ",,"917","PR","240850","264084","18.4119","-66.0467","(18.4119, -66.0467)"
"177717","SAN JUAN","UNIVERSIDAD",,,,"URB","PEREZ MORRIS",,"138",,"CALLE","MAYAGUEZ",,"917","PR","240933","264070","18.4118","-66.0459","(18.4118, -66.0459)"
"177629","SAN JUAN","UNIVERSIDAD",,,,"URB","PEREZ MORRIS",,"6",,"CALLE","DEL CARMEN",,"917","PR","240972","264033","18.4115","-66.0455","(18.4115, -66.0455)"
"177556","SAN JUAN","HATO REY NORTE",,,,"URB","EL VEDADO",,"220",,"CALLE","RODRIGO DE TRIANA",,"918","PR","239444","264671","18.4173","-66.06","(18.4173, -66.06)"
"177414","SAN JUAN","HATO REY NORTE",,,,"URB","EL VEDADO",,"204",,"CALLE","RODRIGO DE TRIANA",,"918","PR","239567.1104","264752.4513",,,
"178050","SAN JUAN","HATO REY NORTE",,,,"URB","EL VEDADO",,"205",,"CALLE","RODRIGO DE TRIANA",,"918","PR","239532","264758","18.4181","-66.0592","(18.4181, -66.0592)"
"177979","SAN JUAN","UNIVERSIDAD",,,,"URB","PEREZ MORRIS",,"84",,"CALLE","MAYAGUEZ",,"917","PR","240654","264118","18.4123","-66.0486","(18.4123, -66.0486)"
"177859","SAN JUAN","ORIENTE",,,,"URB","SAN JOSE",,"412",,"CALLE","SARRIA",,"923","PR","241780","264437","18.4151","-66.0379","(18.4151, -66.0379)"
"175082","SAN JUAN","SABANA LLANA NORTE",,,,"URB","COUNTRY CLUB",,"1164",,"CALLE","TRINIDAD PADILLA",,"924","PR","246004","263139","18.4033","-65.9979","(18.4033, -65.9979)"
"175064","SAN JUAN","SABANA LLANA NORTE",,,,"URB","COUNTRY CLUB",,"1160",,"CALLE","TRINIDAD PADILLA",,"924","PR","245983","263119","18.4031","-65.9981","(18.4031, -65.9981)"
"175059","SAN JUAN","SABANA LLANA NORTE",,,,"URB","VILLA PRADES",,"711",,"CALLE","GLORIA CASTAER",,"924","PR","243580","263486","18.4065","-66.0209","(18.4065, -66.0209)"
"175053","SAN JUAN","SABANA LLANA NORTE",,,,"URB","VILLA PRADES",,"709",,"CALLE","GLORIA CASTAER",,"924","PR","243568","263486","18.4065","-66.021","(18.4065, -66.021)"
"175045","SAN JUAN","SABANA LLANA NORTE",,,,"URB","VILLA PRADES",,"705",,"CALLE","GLORIA CASTAER",,"924","PR","243544","263484","18.4065","-66.0212","(18.4065, -66.0212)"
"175033","SAN JUAN","SABANA LLANA NORTE",,,,"URB","VILLA PRADES",,"699",,"CALLE","GLORIA CASTAER",,"924","PR","243504","263485","18.4065","-66.0216","(18.4065, -66.0216)"
"181310","SAN JUAN","UNIVERSIDAD",,,,"URB","PEREZ MORRIS",,"42",,"CALLE","MAYAGUEZ",,"917","PR","240377","264101","18.4121","-66.0512","(18.4121, -66.0512)"
"181490","SAN JUAN","ORIENTE",,,,"URB","SAN JOSE",,"536",,"CALLE","ARNEDO",,"923","PR","241787","264277","18.4137","-66.0378","(18.4137, -66.0378)"
"181878","SAN JUAN","ORIENTE",,,,"URB","SAN JOSE",,"508",,"CALLE","ASTORGA",,"923","PR","241710","264538","18.416","-66.0386","(18.416, -66.0386)"
"182090","SAN JUAN","SABANA LLANA SUR",,,,"URB","AMERICA",,"510",,"CALLE","BARRANQUITAS",,"923","PR","242352","262331","18.3961","-66.0325","(18.3961, -66.0325)"
"182050","SAN JUAN","UNIVERSIDAD",,,,"URB","PEREZ MORRIS",,"69",,"CALLE","PONCE",,"917","PR","240618","264070","18.4118","-66.0489","(18.4118, -66.0489)"
"305670","SAN JUAN","SANTURCE",,,,"SECT"," ",,"341",,"CALLE","MERHOFF",,"915","PR","240848","267317","18.4411","-66.0467","(18.4411, -66.0467)"
"306058","SAN JUAN","SANTURCE",,,,"SECT"," ",,"216",,"CALLE","DIEZ DE ANDINO",,"912","PR","239350","267996","18.4473","-66.0608","(18.4473, -66.0608)"
"302111","SAN JUAN","SANTURCE",,,,"SECT"," ",,"255",,"CALLE","MERHOFF",,"915","PR","240961","267658","18.4442","-66.0456","(18.4442, -66.0456)"
"301904","SAN JUAN","SANTURCE",,,,"SECT"," ",,"158",,"CALLE","PEREZ",,"911","PR","239452","268284","18.4499","-66.0599","(18.4499, -66.0599)"
"301861","SAN JUAN","SANTURCE",,,,"SECT"," ",,"152",,"CALLE","PEREZ",,"911","PR","239458","268312","18.4502","-66.0598","(18.4502, -66.0598)"
"301820","SAN JUAN","SANTURCE",,,,"SECT"," ",,"207",,"CALLE","MERHOFF",,"915","PR","241006","267799","18.4455","-66.0452","(18.4455, -66.0452)"
"301737","SAN JUAN","SANTURCE",,,,"SECT"," ",,"201",,"CALLE","MERHOFF",,"915","PR","241016","267831","18.4458","-66.0451","(18.4458, -66.0451)"
"301943","SAN JUAN","SANTURCE",,,,"SECT"," ",,"160",,"CALLE","PEREZ",,"911","PR","239452","268276","18.4498","-66.0599","(18.4498, -66.0599)"
"301933","SAN JUAN","SANTURCE",,,,"SECT"," ",,"215",,"CALLE","MERHOFF",,"915","PR","240991","267754","18.4451","-66.0453","(18.4451, -66.0453)"
"301420","SAN JUAN","SANTURCE",,,,"SECT"," ",,"234",,"CALLE","MERHOFF",,"915","PR","240948","267663","18.4443","-66.0457","(18.4443, -66.0457)"
"301405","SAN JUAN","SANTURCE",,,,"SECT"," ",,"236",,"CALLE","MERHOFF",,"915","PR","240944","267653","18.4442","-66.0457","(18.4442, -66.0457)"
"301382","SAN JUAN","SANTURCE",,,,"SECT"," ",,"242",,"CALLE","MERHOFF",,"915","PR","240933","267625","18.4439","-66.0458","(18.4439, -66.0458)"
"299099","SAN JUAN","SANTURCE",,,,"SECT"," ",,"217",,"CALLE","DELBREY",,"912","PR","239317","268016","18.4475","-66.0611","(18.4475, -66.0611)"
"298713","SAN JUAN","SANTURCE",,,,"SECT"," ",,"271",,"CALLE","DELBREY",,"912","PR","239298","267879","18.4463","-66.0613","(18.4463, -66.0613)"
"298668","SAN JUAN","SANTURCE",,,,"SECT"," ",,"273",,"CALLE","DELBREY",,"912","PR","239296","267869","18.4462","-66.0613","(18.4462, -66.0613)"
"298613","SAN JUAN","SANTURCE",,,,"SECT"," ",,"706",,"CALLE","SANCHEZ",,"909","PR","238473","267581","18.4436","-66.0691","(18.4436, -66.0691)"
"298545","SAN JUAN","SANTURCE",,,,"SECT"," ",,"354",,"CALLE","MERHOFF",,"915","PR","240811","267268","18.4407","-66.047","(18.4407, -66.047)"
"298487","SAN JUAN","SANTURCE",,,,"SECT"," ",,"421",,"CALLE","BARTOLOME LAS CASAS",,"915","PR","240792","266930","18.4377","-66.0472","(18.4377, -66.0472)"
"298149","SAN JUAN","SANTURCE",,,,"SECT"," ",,"284",,"CALLE","DELBREY",,"912","PR","239264","267801","18.4456","-66.0616","(18.4456, -66.0616)"
"346658","SAN JUAN","SANTURCE",,,,"SECT"," ",,"214",,"CALLE","DEL PARQ",,"912","PR","239033","268080","18.4481","-66.0638","(18.4481, -66.0638)"
"346471","SAN JUAN","SANTURCE",,,,"SECT"," ",,"1073",,"AVE","FERNANDEZ JUNCOS",,"907","PR","237537","268329","18.4504","-66.078","(18.4504, -66.078)"
"346283","SAN JUAN","SANTURCE",,,,"SECT"," ",,"174",,"CALLE","POMARROSA",,"911","PR","239537","268137","18.4486","-66.059","(18.4486, -66.059)"
"346142","SAN JUAN","SANTURCE",,,,"SECT"," ",,"1074",,"CALLE","NUEVA PALMA",,"907","PR","237455","267852","18.446","-66.0788","(18.446, -66.0788)"
"343099","SAN JUAN","SANTURCE",,,,"SECT"," ",,"150",,"CALLE","POMARROSA",,"911","PR","239564","268269","18.4498","-66.0588","(18.4498, -66.0588)"
"112452","CAROLINA","PUEBLO",,,,"SECT"," ",,"55",,"CALLE","MUOZ RIVERA",,"985","PR","250364","260809","18.3821","-65.9567","(18.3821, -65.9567)"
"112440","CAROLINA","BUENA VISTA",,,,"URB","VILLA CAROLINA 3RA SECC",,"132-40",,"AVE","CENTRAL BLVD",,"985","PR","249580","262882","18.4009","-65.9641","(18.4009, -65.9641)"
"112364","CAROLINA","BUENA VISTA",,,,"URB","VILLA CAROLINA 3RA SECC",,"107-3",,"CALLE","100",,"985","PR","249656","262919","18.4012","-65.9634","(18.4012, -65.9634)"
"112353","CAROLINA","MARTIN GONZALEZ",,,,"URB","JOSE SEVERO QUINONES",,"Q-706",,"CALLE","2C",,"985","PR","250258","261101","18.3848","-65.9577","(18.3848, -65.9577)"
"112337","CAROLINA","MARTIN GONZALEZ",,,,"URB","JOSE SEVERO QUINONES",,"Q-709",,"CALLE","2C",,"985","PR","250266","261073","18.3845","-65.9577","(18.3845, -65.9577)"
"112302","CAROLINA","BUENA VISTA",,,,"URB","VILLA CAROLINA 3RA SECC",,"107-1",,"AVE","CENTRAL BLVD",,"985","PR","249660","262890","18.401","-65.9633","(18.401, -65.9633)"
"112655","CAROLINA","SAN ANTON",,,,"URB","VILLAS DE SAN ANTON",,"J-20",,"CALLE","TIBURCIO BERTY",,"987","PR","247381","261436","18.3879","-65.9849","(18.3879, -65.9849)"
"112631","CAROLINA","BUENA VISTA",,,,"URB","VILLA CAROLINA 3RA SECC",,"92-6",,"CALLE","89",,"985","PR","249706","263290","18.4046","-65.9629","(18.4046, -65.9629)"
"112613","CAROLINA","MARTIN GONZALEZ",,,,"URB","JOSE SEVERO QUINONES",,"Q-695",,"CALLE","2C",,"985","PR","250286","261086","18.3846","-65.9575","(18.3846, -65.9575)"
"112859","CAROLINA","SAN ANTON",,,,"URB","VILLAS DE SAN ANTON",,"K-2",,"CALLE","ERNESTO RODRIGUEZ",,"987","PR","247285","261470","18.3882","-65.9859","(18.3882, -65.9859)"
"112849","CAROLINA","PUEBLO",,,,"SECT"," ",,"101",,"CALLE","PEDRO ARZUAGA",,"985","PR","250419","260933","18.3833","-65.9562","(18.3833, -65.9562)"
"112833","CAROLINA","SAN ANTON",,,,"URB","VILLAS DE SAN ANTON",,"K-20",,"CALLE","ERNESTO RODRIGUEZ",,"987","PR","247340","261485","18.3883","-65.9853","(18.3883, -65.9853)"
"112819","CAROLINA","PUEBLO",,,,"SECT"," ",,"106",,"CALLE","ANDRES ARUZ",,"985","PR","250446","260972","18.3836","-65.956","(18.3836, -65.956)"
"109576","CAROLINA","CANOVANILLAS",,,,"URB","PARQ ECUESTRE",,"D-26",,"CALLE","CANARIO",,"987","PR","253468","259537","18.3706","-65.9274","(18.3706, -65.9274)"
"430991","CAROLINA","BUENA VISTA",,,,"URB","VILLA COOP",,"H-2",,"CALLE","7",,"985","PR","250513","263232","18.404","-65.9553","(18.404, -65.9553)"
"109780","CAROLINA","SAN ANTON",,,,"URB","VILLAS DE SAN ANTON",,"H-16",,"CALLE","LUIS VIGO",,"987","PR","247460","261339","18.387","-65.9842","(18.387, -65.9842)"
"109720","CAROLINA","SAN ANTON",,,,"URB","VILLAS DE SAN ANTON",,"A-10",,"CALLE","ROMAN RIVERA",,"987","PR","247479","261305","18.3867","-65.984","(18.3867, -65.984)"
"109843","CAROLINA","CANOVANILLAS",,,,"URB","PARQ ECUESTRE",,"D-21",,"CALLE","CANARIO",,"987","PR","253533","259534","18.3705","-65.9268","(18.3705, -65.9268)"
"109841","CAROLINA","BUENA VISTA",,,,"URB","VILLA CAROLINA 3RA SECC",,"132-32",,"CALLE","100",,"985","PR","249569","262924","18.4013","-65.9642","(18.4013, -65.9642)"
"109831","CAROLINA","SAN ANTON",,,,"URB","VILLAS DE SAN ANTON",,"H-3",,"CALLE","LUIS VIGO",,"987","PR","247380","261322","18.3868","-65.985","(18.3868, -65.985)"
"109823","CAROLINA","SAN ANTON",,,,"URB","VILLAS DE SAN ANTON",,"H-1",,"CALLE","LUIS VIGO",,"987","PR","247394","261298","18.3866","-65.9848","(18.3866, -65.9848)"
"109810","CAROLINA","SAN ANTON",,,,"URB","VILLAS DE SAN ANTON",,"H-19",,"CALLE","LUIS VIGO",,"987","PR","247423","261321","18.3868","-65.9846","(18.3868, -65.9846)"
"109791","CAROLINA","SAN ANTON",,,,"URB","VILLAS DE SAN ANTON",,"H-17",,"CALLE","LUIS VIGO",,"987","PR","247449","261334","18.387","-65.9843","(18.387, -65.9843)"
"86287","CAROLINA","BUENA VISTA",,,,"URB","VILLA CAROLINA 3RA SECC",,"100-17",,"CALLE","102",,"985","PR","250244","263457","18.4061","-65.9578","(18.4061, -65.9578)"
"86321","CAROLINA","BUENA VISTA",,,,"URB","VILLA CAROLINA 3RA SECC",,"122-11",,"CALLE","64",,"985","PR","249613","262012","18.393","-65.9638","(18.393, -65.9638)"
"86365","CAROLINA","TRUJILLO BAJO",,,,"URB","LOMAS DE CAROLINA",,"P-10",,"CALLE","CERRO MARAVILLA",,"987","PR","251491","259485","18.3702","-65.9461","(18.3702, -65.9461)"
"86363","CAROLINA","BUENA VISTA",,,,"URB","VILLA CAROLINA 3RA SECC",,"100-22",,"CALLE","102",,"985","PR","250317","263461","18.4061","-65.9571","(18.4061, -65.9571)"
"86358","CAROLINA","BUENA VISTA",,,,"URB","VILLA CAROLINA 3RA SECC",,"122-15",,"CALLE","63",,"985","PR","249595","261954","18.3925","-65.964","(18.3925, -65.964)"
"86355","CAROLINA","BUENA VISTA",,,,"URB","VILLA CAROLINA 3RA SECC",,"100-21",,"CALLE","102",,"985","PR","250302","263461","18.4061","-65.9573","(18.4061, -65.9573)"
"86348","CAROLINA","BUENA VISTA",,,,"URB","VILLA CAROLINA 3RA SECC",,"122-14",,"CALLE","63",,"985","PR","249596","261967","18.3926","-65.964","(18.3926, -65.964)"
"86340","CAROLINA","BUENA VISTA",,,,"URB","VILLA CAROLINA 3RA SECC",,"122-13",,"CALLE","63",,"985","PR","249597","261983","18.3928","-65.964","(18.3928, -65.964)"
"86462","CAROLINA","TRUJILLO BAJO",,,,"URB","LOMAS DE CAROLINA",,"P-13",,"CALLE","CERRO MARAVILLA",,"987","PR","251451","259507","18.3704","-65.9465","(18.3704, -65.9465)"
"86461","CAROLINA","MARTIN GONZALEZ",,,,"URB","VILLA CAROLINA 3RA SECC",,"122-19",,"CALLE","63",,"985","PR","249599","261900","18.392","-65.9639","(18.392, -65.9639)"
"86448","CAROLINA","TRUJILLO BAJO",,,,"URB","LOMAS DE CAROLINA",,"P-12",,"CALLE","CERRO MARAVILLA",,"987","PR","251468","259498","18.3703","-65.9463","(18.3703, -65.9463)"
"86403","CAROLINA","BUENA VISTA",,,,"URB","VILLA CAROLINA 3RA SECC",,"122-17",,"CALLE","63",,"985","PR","249597","261929","18.3923","-65.964","(18.3923, -65.964)"
"86509","CAROLINA","SAN ANTON",,,," "," ",,"21",,"CALLE","7",,"987","PR","246652","260702","18.3812667","-65.9918688","(18.3812667, -65.9918688)"
"86484","CAROLINA","BUENA VISTA",,,,"URB","VILLA CAROLINA 3RA SECC",,"101-2",,"CALLE","107",,"985","PR","250436","263421","18.4057","-65.956","(18.4057, -65.956)"
"86479","CAROLINA","BUENA VISTA",,,,"URB","VILLA CAROLINA 3RA SECC",,"101-1",,"CALLE","107",,"985","PR","250437","263437","18.4059","-65.956","(18.4059, -65.956)"
"86470","CAROLINA","BUENA VISTA",,,,"URB","VILLA CAROLINA 3RA SECC",,"100-31",,"CALLE","102",,"985","PR","250449","263464","18.4061","-65.9559","(18.4061, -65.9559)"
"86465","CAROLINA","BUENA VISTA",,,,"URB","VILLA CAROLINA 3RA SECC",,"100-30",,"CALLE","102",,"985","PR","250435","263465","18.4061","-65.956","(18.4061, -65.956)"
"86545","CAROLINA","TRUJILLO BAJO",,,,"URB","LOMAS DE CAROLINA",,"P-1",,"CALLE","LA TORRECILLA",,"987","PR","251483","259534","18.3706","-65.9462","(18.3706, -65.9462)"
"86668","CAROLINA","BUENA VISTA",,,,"URB","VILLA CAROLINA 3RA SECC",,"102-8",,"CALLE","106",,"985","PR","250378","263413","18.4057","-65.9565","(18.4057, -65.9565)"
"86555","CAROLINA","MARTIN GONZALEZ",,,,"URB","VILLA CAROLINA 3RA SECC",,"122-21",,"CALLE","63",,"985","PR","249604","261855","18.3916","-65.9639","(18.3916, -65.9639)"
"86603","CAROLINA","TRUJILLO BAJO",,,,"URB","LOMAS DE CAROLINA",,"P-5",,"CALLE","LA TORRECILLA",,"987","PR","251529","259507","18.3704","-65.9457","(18.3704, -65.9457)"
"86708","CAROLINA","BUENA VISTA",,,,"URB","VILLA CAROLINA 3RA SECC",,"101-12",,"CALLE","106",,"985","PR","250360","263321","18.4048","-65.9567","(18.4048, -65.9567)"
"86758","CAROLINA","BUENA VISTA",,,,"URB","VILLA CAROLINA 3RA SECC",,"101-18",,"CALLE","106",,"985","PR","250354","263416","18.4057","-65.9568","(18.4057, -65.9568)"
"477671","CAROLINA","BUENA VISTA",,,,"URB","VILLA CAROLINA",,"150-7",,"CALLE","424",,"985","PR","249594","263786","18.4091","-65.9639","(18.4091, -65.9639)"
"477611","CAROLINA","BUENA VISTA",,,,"URB","VILLA CAROLINA",,"161-12",,"CALLE","420",,"985","PR","249557","263813","18.4093","-65.9643","(18.4093, -65.9643)"
"477592","CAROLINA","BUENA VISTA",,,,"URB","VILLA CAROLINA",,"161-10",,"CALLE","420",,"985","PR","249558","263838","18.4095","-65.9643","(18.4095, -65.9643)"
"477575","CAROLINA","BUENA VISTA",,,,"URB","VILLA CAROLINA",,"161-9",,"CALLE","420",,"985","PR","249556","263851","18.4097","-65.9643","(18.4097, -65.9643)"
"477562","CAROLINA","BUENA VISTA",,,,"URB","VILLA CAROLINA",,"161-8",,"CALLE","420",,"985","PR","249556","263864","18.4098","-65.9643","(18.4098, -65.9643)"
"477510","CAROLINA","BUENA VISTA",,,,"URB","VILLA CAROLINA",,"161-2",,"CALLE","420",,"985","PR","249556","263942","18.4105","-65.9643","(18.4105, -65.9643)"
"477498","CAROLINA","BUENA VISTA",,,,"URB","VILLA CAROLINA 3RA SECC",,"110-23",,"CALLE","81",,"985","PR","249712","262740","18.3996","-65.9629","(18.3996, -65.9629)"
"477454","CAROLINA","BUENA VISTA",,,,"URB","VILLA CAROLINA",,"161-24",,"CALLE","422",,"985","PR","249516","263958","18.4106","-65.9647","(18.4106, -65.9647)"
"477443","CAROLINA","BUENA VISTA",,,,"URB","VILLA CAROLINA 3RA SECC",,"108-51",,"CALLE","75",,"985","PR","249766","262735","18.3996","-65.9623","(18.3996, -65.9623)"
"477434","CAROLINA","BUENA VISTA",,,,"URB","VILLA CAROLINA",,"161-23",,"CALLE","422",,"985","PR","249518","263943","18.4105","-65.9647","(18.4105, -65.9647)"
"477427","CAROLINA","BUENA VISTA",,,,"URB","VILLA CAROLINA",,"161-22",,"CALLE","422",,"985","PR","249517","263930","18.4104","-65.9647","(18.4104, -65.9647)"
"477419","CAROLINA","BUENA VISTA",,,,"URB","VILLA CAROLINA",,"161-21",,"CALLE","422",,"985","PR","249520","263916","18.4102","-65.9646","(18.4102, -65.9646)"
"477404","CAROLINA","BUENA VISTA",,,,"URB","VILLA CAROLINA",,"161-20",,"CALLE","422",,"985","PR","249519","263904","18.4101","-65.9647","(18.4101, -65.9647)"
"477396","CAROLINA","BUENA VISTA",,,,"URB","VILLA CAROLINA",,"161-19",,"CALLE","422",,"985","PR","249519","263890","18.41","-65.9647","(18.41, -65.9647)"
"477393","CAROLINA","BUENA VISTA",,,,"URB","VILLA CAROLINA 3RA SECC",,"108-49",,"CALLE","75",,"985","PR","249766","262762","18.3998","-65.9623","(18.3998, -65.9623)"
"477383","CAROLINA","BUENA VISTA",,,,"URB","VILLA CAROLINA",,"161-16",,"CALLE","422",,"985","PR","249518","263851","18.4097","-65.9647","(18.4097, -65.9647)"
"477241","CAROLINA","BUENA VISTA",,,,"URB","VILLA CAROLINA",,"150-4",,"CALLE","424",,"985","PR","249549","263783","18.409","-65.9644","(18.409, -65.9644)"
"477253","CAROLINA","BUENA VISTA",,,,"URB","VILLA CAROLINA",,"161-14",,"CALLE","422",,"985","PR","249521","263823","18.4094","-65.9646","(18.4094, -65.9646)"
"477130","CAROLINA","BUENA VISTA",,,,"URB","VILLA CAROLINA 3RA SECC",,"109-15",,"CALLE","81",,"985","PR","249699","262760","18.3998","-65.963","(18.3998, -65.963)"
"474090","CAROLINA","BUENA VISTA",,,,"URB","VILLA CAROLINA",,"162-3",,"CALLE","422",,"985","PR","249493","263933","18.4104","-65.9649","(18.4104, -65.9649)"
"474079","CAROLINA","BUENA VISTA",,,,"URB","VILLA CAROLINA 3RA SECC",,"109-12",,"CALLE","81",,"985","PR","249659","262762","18.3998","-65.9634","(18.3998, -65.9634)"
"474064","CAROLINA","BUENA VISTA",,,,"URB","VILLA CAROLINA 3RA SECC",,"109-10",,"CALLE","81",,"985","PR","249631","262759","18.3998","-65.9636","(18.3998, -65.9636)"
"474028","CAROLINA","BUENA VISTA",,,,"URB","VILLA CAROLINA 3RA SECC",,"109-8",,"CALLE","81",,"985","PR","249604","262760","18.3998","-65.9639","(18.3998, -65.9639)"
"474027","CAROLINA","BUENA VISTA",,,,"URB","VILLA CAROLINA 3RA SECC",,"109-7",,"CALLE","81",,"985","PR","249587","262758","18.3998","-65.964","(18.3998, -65.964)"
"273411","SAN JUAN","ORIENTE",,,,"URB","VILLA GRANADA",,"984",,"CALLE","ALAMEDA",,"923","PR","242385","262615","18.3986","-66.0322","(18.3986, -66.0322)"
"273378","SAN JUAN","ORIENTE",,,,"URB","VILLA GRANADA",,"989",,"CALLE","ALAMEDA",,"924","PR","242416","262584","18.3984","-66.0319","(18.3984, -66.0319)"
"273375","SAN JUAN","ORIENTE",,,,"URB","VILLA GRANADA",,"987",,"CALLE","ALAMEDA",,"924","PR","242413","262600","18.3985","-66.0319","(18.3985, -66.0319)"
"273347","SAN JUAN","EL CINCO",,,,"URB","VILLA NEVAREZ",,"1086",,"CALLE","1",,"927","PR","238263","262068","18.3938","-66.0712","(18.3938, -66.0712)"
"273790","SAN JUAN","HATO REY CENTRAL",,,,"URB","FLORAL PARK",,"128",,"CALLE","PARIS",,"917","PR","240504","265225","18.4222","-66.05","(18.4222, -66.05)"
"273782","SAN JUAN","ORIENTE",,,,"URB","VILLA GRANADA",,"924",,"CALLE","ALAMEDA",,"923","PR","242424","262962","18.4018","-66.0318","(18.4018, -66.0318)"
"273781","SAN JUAN","EL CINCO",,,,"URB","VILLA NEVAREZ",,"1057",,"CALLE","1",,"927","PR","238285","262280","18.3957","-66.071","(18.3957, -66.071)"
"273843","SAN JUAN","EL CINCO",,,,"URB","VILLA NEVAREZ",,"1043",,"CALLE","41",,"927","PR","238279","262397","18.3967","-66.0711","(18.3967, -66.0711)"
"275248","SAN JUAN","SABANA LLANA NORTE",,,,"URB","COUNTRY CLUB",,"955",,"CALLE","GAVIOTA",,"924","PR","245091","263427","18.4059","-66.0066","(18.4059, -66.0066)"
"274122","SAN JUAN","ORIENTE",,,,"URB","VILLA GRANADA",,"919",,"CALLE","ALCAZAR",,"923","PR","242385","263003","18.4021","-66.0322","(18.4021, -66.0322)"
"274068","SAN JUAN","HATO REY CENTRAL",,,,"URB","FLORAL PARK",,"114",,"CALLE","PARIS",,"917","PR","240268","265156","18.4216","-66.0522","(18.4216, -66.0522)"
"274039","SAN JUAN","ORIENTE",,,,"URB","VILLA GRANADA",,"907",,"CALLE","ALCAZAR",,"923","PR","242382","263081","18.4028","-66.0322","(18.4028, -66.0322)"
"273927","SAN JUAN","ORIENTE",,,,"URB","VILLA GRANADA",,"904",,"CALLE","ALAMEDA",,"923","PR","242422","263093","18.403","-66.0318","(18.403, -66.0318)"
"273922","SAN JUAN","ORIENTE",,,,"URB","VILLA GRANADA",,"908",,"CALLE","ALAMEDA",,"923","PR","242422","263069","18.4027","-66.0318","(18.4027, -66.0318)"
"273888","SAN JUAN","ORIENTE",,,,"URB","SAN JOSE",,"356",,"CALLE","ARANJUEZ",,"923","PR","241579","265250","18.4225","-66.0398","(18.4225, -66.0398)"
"275814","SAN JUAN","SABANA LLANA NORTE",,,,"URB","REPTO SEVILLA",,"921",,"CALLE","SARASATE",,"924","PR","243652","262845","18.4007","-66.0202","(18.4007, -66.0202)"
"275810","SAN JUAN","SABANA LLANA NORTE",,,,"URB","COUNTRY CLUB",,"952",,"CALLE","HALCON",,"924","PR","245101","263468","18.4063","-66.0065","(18.4063, -66.0065)"
"275472","SAN JUAN","SABANA LLANA NORTE",,,,"URB","REPTO SEVILLA",,"932",,"CALLE","PAGANINI",,"924","PR","243642","262745","18.3998","-66.0203","(18.3998, -66.0203)"
"275625","SAN JUAN","SABANA LLANA NORTE",,,,"URB","COUNTRY CLUB",,"922",,"CALLE","HALCON",,"924","PR","245008","263538","18.4069","-66.0074","(18.4069, -66.0074)"
"275421","SAN JUAN","SABANA LLANA NORTE",,,,"URB","COUNTRY CLUB",,"931",,"CALLE","GAVIOTA",,"924","PR","245024","263479","18.4064","-66.0072","(18.4064, -66.0072)"
"275414","SAN JUAN","SABANA LLANA NORTE",,,,"URB","REPTO SEVILLA",,"938",,"CALLE","PAGANINI",,"924","PR","243652","262702","18.3994","-66.0202","(18.3994, -66.0202)"
"275404","SAN JUAN","SABANA LLANA NORTE",,,,"URB","COUNTRY CLUB",,"933",,"CALLE","GAVIOTA",,"924","PR","245039","263469","18.4063","-66.0071","(18.4063, -66.0071)"
"275396","SAN JUAN","SABANA LLANA NORTE",,,,"URB","REPTO SEVILLA",,"944",,"CALLE","PAGANINI",,"924","PR","243662","262655","18.399","-66.0201","(18.399, -66.0201)"
"182047","SAN JUAN","UNIVERSIDAD",,,,"URB","PEREZ MORRIS",,"67",,"CALLE","PONCE",,"917","PR","240605","264072","18.4118","-66.049","(18.4118, -66.049)"
"180049","SAN JUAN","SABANA LLANA NORTE",,,,"URB","COUNTRY CLUB",,"1160",,"CALLE","LUIS NEC",,"924","PR","246018","263070","18.4027","-65.9978","(18.4027, -65.9978)"
"180045","SAN JUAN","SABANA LLANA NORTE",,,,"URB","COUNTRY CLUB",,"1158",,"CALLE","LUIS NEC",,"924","PR","246011","263059","18.4026","-65.9979","(18.4026, -65.9979)"
"179858","SAN JUAN","SABANA LLANA NORTE",,,,"URB","COUNTRY CLUB",,"1172",,"CALLE","ANTONIA MARTINEZ",,"924","PR","246110","263073","18.4027","-65.9969","(18.4027, -65.9969)"
"179818","SAN JUAN","SABANA LLANA NORTE",,,,"URB","COUNTRY CLUB",,"1158",,"CALLE","ANTONIA MARTINEZ",,"924","PR","246040","263002","18.4021","-65.9976","(18.4021, -65.9976)"
"179806","SAN JUAN","SABANA LLANA SUR",,,,"URB","VILLA ANDALUCIA",,"P-9",,"CALLE","ALORA",,"926","PR","242237","261125","18.3852","-66.0336","(18.3852, -66.0336)"
"179645","SAN JUAN","SABANA LLANA NORTE",,,,"URB","COUNTRY CLUB",,"1149",,"CALLE","LUIS NEC",,"924","PR","245970","263046","18.4025","-65.9983","(18.4025, -65.9983)"
"179612","SAN JUAN","SABANA LLANA NORTE",,,,"URB","COUNTRY CLUB",,"1153",,"CALLE","LUIS NEC",,"924","PR","245984","263063","18.4026","-65.9981","(18.4026, -65.9981)"
"179595","SAN JUAN","SABANA LLANA NORTE",,,,"URB","COUNTRY CLUB",,"1155",,"CALLE","LUIS NEC",,"924","PR","245991","263073","18.4027","-65.9981","(18.4027, -65.9981)"
"179539","SAN JUAN","SABANA LLANA NORTE",,,,"URB","COUNTRY CLUB",,"1169",,"CALLE","LUIS NEC",,"924","PR","246059","263137","18.4033","-65.9974","(18.4033, -65.9974)"
"179677","SAN JUAN","SABANA LLANA NORTE",,,,"URB","COUNTRY CLUB",,"1145",,"CALLE","LUIS NEC",,"924","PR","245955","263020","18.4022","-65.9984","(18.4022, -65.9984)"
"179561","SAN JUAN","SABANA LLANA NORTE",,,,"URB","COUNTRY CLUB",,"1165",,"CALLE","LUIS NEC",,"924","PR","246038","263122","18.4031","-65.9976","(18.4031, -65.9976)"
"179460","SAN JUAN","SABANA LLANA NORTE",,,,"URB","COUNTRY CLUB",,"1172",,"CALLE","OLIVIA PAOLI",,"924","PR","246020","263224","18.4041","-65.9978","(18.4041, -65.9978)"
"179435","SAN JUAN","SABANA LLANA NORTE",,,,"URB","COUNTRY CLUB",,"1168",,"CALLE","OLIVIA PAOLI",,"924","PR","245996","263209","18.4039","-65.998","(18.4039, -65.998)"
"179428","SAN JUAN","SABANA LLANA NORTE",,,,"URB","COUNTRY CLUB",,"1164",,"CALLE","OLIVIA PAOLI",,"924","PR","245977","263192","18.4038","-65.9982","(18.4038, -65.9982)"
"179416","SAN JUAN","SABANA LLANA NORTE",,,,"URB","COUNTRY CLUB",,"1156",,"CALLE","OLIVIA PAOLI",,"924","PR","245936","263155","18.4034","-65.9986","(18.4034, -65.9986)"
"179409","SAN JUAN","SABANA LLANA NORTE",,,,"URB","COUNTRY CLUB",,"1154",,"CALLE","OLIVIA PAOLI",,"924","PR","245928","263144","18.4033","-65.9987","(18.4033, -65.9987)"
"179377","SAN JUAN","SABANA LLANA NORTE",,,,"URB","COUNTRY CLUB",,"1146",,"CALLE","OLIVIA PAOLI",,"924","PR","245896","263103","18.403","-65.999","(18.403, -65.999)"
"179191","SAN JUAN","SABANA LLANA NORTE",,,,"URB","COUNTRY CLUB",,"1173",,"CALLE","TRINIDAD PADILLA",,"924","PR","246036","263193","18.4038","-65.9976","(18.4038, -65.9976)"
"179212","SAN JUAN","SABANA LLANA NORTE",,,,"URB","COUNTRY CLUB",,"1169",,"CALLE","TRINIDAD PADILLA",,"924","PR","246015","263177","18.4036","-65.9978","(18.4036, -65.9978)"
"380150","SAN JUAN","SABANA LLANA NORTE",,,,"URB","COUNTRY CLUB",,"770",,"CALLE","MERCEDES SOLA",,"924","PR","245882","263742","18.4087","-65.9991","(18.4087, -65.9991)"
"222098","CAROLINA","TRUJILLO BAJO",,,,"URB","MANS DE CAROLINA",,"UU-11",,"CALLE","YUNQUESITO",,"987","PR","252243","259487","18.3702","-65.939","(18.3702, -65.939)"
"222090","CAROLINA","TRUJILLO BAJO",,,,"URB","MANS DE CAROLINA",,"UU-10",,"CALLE","YUNQUESITO",,"987","PR","252231","259495","18.3702","-65.9391","(18.3702, -65.9391)"
"224130","CAROLINA","MARTIN GONZALEZ",,,,"URB","EST DE SAN FERNANDO",,"G-10",,"CALLE","9",,"985","PR","249010","261415","18.3876","-65.9695","(18.3876, -65.9695)"
"224126","CAROLINA","TRUJILLO BAJO",,,,"PARC"," ",,"179",,"CALLE","AZUCENA",,"987","PR","252360","259712","18.3722","-65.9379","(18.3722, -65.9379)"
"224134","CAROLINA","TRUJILLO BAJO",,,,"PARC"," ",,"180",,"CALLE","AZUCENA",,"987","PR","252380","259718","18.3722","-65.9377","(18.3722, -65.9377)"
"222589","CAROLINA","SABANA ABAJO",,,,"URB","EDUARDO J SALDANA",,"C-10",,"CALLE","RODRIGUEZ EMMA",,"983","PR","247201","265264","18.4225","-65.9866","(18.4225, -65.9866)"
"222520","CAROLINA","SABANA ABAJO",,,,"URB","EDUARDO J SALDANA",,"C-6",,"CALLE","RODRIGUEZ EMMA",,"983","PR","247161","265253","18.4224","-65.9869","(18.4224, -65.9869)"
"222470","CAROLINA","CEDRO",,,,"SECT"," ",," ",,"CARR","185 KM 13.4",,"985","PR","254541","249984","18.2842","-65.9175","(18.2842, -65.9175)"
"222313","CAROLINA","SABANA ABAJO",,,,"URB","EDUARDO J SALDANA",,"C-48",,"CALLE","ROBLES",,"983","PR","247192","265214","18.422","-65.9867","(18.422, -65.9867)"
"222228","CAROLINA","SABANA ABAJO",,,,"URB","EDUARDO J SALDANA",,"C-43",,"CALLE","ROBLES",,"983","PR","247240","265226","18.4221","-65.9862","(18.4221, -65.9862)"
"223121","CAROLINA","SABANA ABAJO",,,,"URB","CASTELLANA GARDENS",,"G-2",,"CALLE","7",,"983","PR","247915","264886","18.419","-65.9798","(18.419, -65.9798)"
"223070","CAROLINA","SABANA ABAJO",,,,"URB","CASTELLANA GARDENS",,"G-7",,"CALLE","7",,"983","PR","247903","264954","18.4196","-65.9799","(18.4196, -65.9799)"
"222926","CAROLINA","SABANA ABAJO",,,,"URB","CASTELLANA GARDENS",,"G-18",,"CALLE","8",,"983","PR","247878","265104","18.421","-65.9802","(18.421, -65.9802)"
"222866","CAROLINA","SABANA ABAJO",,,,"URB","CASTELLANA GARDENS",,"G-23",,"CALLE","9",,"983","PR","247868","265166","18.4216","-65.9802","(18.4216, -65.9802)"
"222855","CAROLINA","SABANA ABAJO",,,,"URB","CASTELLANA GARDENS",,"G-24",,"CALLE","9",,"983","PR","247860","265183","18.4217","-65.9803","(18.4217, -65.9803)"
"222754","CAROLINA","SABANA ABAJO",,,,"URB","EDUARDO J SALDANA",,"C-24",,"CALLE","RODRIGUEZ EMMA",,"983","PR","247340","265294","18.4227","-65.9852","(18.4227, -65.9852)"
"222700","CAROLINA","MARTIN GONZALEZ",,,,"URB","VILLAS DEL SOL",,"314",,"CALLE","TORREMOLINOS",,"985","PR","249370","261274","18.3864","-65.9661","(18.3864, -65.9661)"
"222639","CAROLINA","CANOVANILLAS",,,,"URB","CIUDAD JARD",,"133",,"CALLE","AZUCENA",,"987","PR","253338","259917","18.374","-65.9286","(18.374, -65.9286)"
"224160","CAROLINA","TRUJILLO BAJO",,,,"URB","MANS DE CAROLINA",,"UU-14",,"CALLE","YUNQUESITO",,"987","PR","252274","259465","18.37","-65.9387","(18.37, -65.9387)"
"224159","CAROLINA","MARTIN GONZALEZ",,,,"URB","METROPOLIS 3RA SECC",,"2P-24",,"CALLE","41",,"987","PR","247478","258796","18.364","-65.9841","(18.364, -65.9841)"
"224178","CAROLINA","TRUJILLO BAJO",,,,"URB","MANS DE CAROLINA",,"UU-15",,"CALLE","YUNQUESITO",,"987","PR","252283","259459","18.3699","-65.9386","(18.3699, -65.9386)"
"224219","CAROLINA","MARTIN GONZALEZ",,,,"URB","EST DE SAN FERNANDO",,"G-14",,"CALLE","9",,"985","PR","248938","261432","18.3878","-65.9702","(18.3878, -65.9702)"
"224223","CAROLINA","MARTIN GONZALEZ",,,,"URB","METROPOLIS 3RA SECC",,"2P-23",,"CALLE","41",,"987","PR","247473","258806","18.3641","-65.9841","(18.3641, -65.9841)"
"88271","CAROLINA","SABANA ABAJO",,,,"URB","VISTAMAR",,"X-1166",,"AVE","PONTEZUELA",,"983","PR","248240","265830","18.4276","-65.9767","(18.4276, -65.9767)"
"88216","CAROLINA","SABANA ABAJO",,,,"URB","VILLA FONTANA",,"4DN-20",,"CALLE","VIA 30",,"983","PR","248776","262560","18.398","-65.9717","(18.398, -65.9717)"
"88211","CAROLINA","CANGREJO ARRIBA",,,,"URB","LOS ANGELES",,"86",,"CALLE","PERSEO",,"979","PR","245195","266116","18.4302","-66.0055","(18.4302, -66.0055)"
"88169","CAROLINA","SABANA ABAJO",,,,"URB","VILLA FONTANA",,"4DN-13",,"CALLE","VIA FABIANA",,"983","PR","248754","262655","18.3989","-65.9719","(18.3989, -65.9719)"
"88163","CAROLINA","SABANA ABAJO",,,,"URB","COUNTRY CLUB",,"JK-18",,"CALLE","241",,"983","PR","247217","263897","18.4101","-65.9864","(18.4101, -65.9864)"
"86844","CAROLINA","BUENA VISTA",,,,"URB","VILLA CAROLINA 3RA SECC",,"103-5",,"CALLE","105",,"985","PR","250318","263378","18.4054","-65.9571","(18.4054, -65.9571)"
"86834","CAROLINA","BUENA VISTA",,,,"URB","VILLA CAROLINA 3RA SECC",,"103-4",,"CALLE","105",,"985","PR","250316","263388","18.4055","-65.9571","(18.4055, -65.9571)"
"87104","CAROLINA","BUENA VISTA",,,,"URB","VILLA CAROLINA 3RA SECC",,"122A-16",,"CALLE","A",,"985","PR","249908","262021","18.3931","-65.961","(18.3931, -65.961)"
"82226","CAROLINA","BUENA VISTA",,,,"URB","VILLA CAROLINA",,"168-2",,"CALLE","401",,"985","PR","250164","263552","18.4069","-65.9586","(18.4069, -65.9586)"
"82233","CAROLINA","BUENA VISTA",,,,"URB","VILLA CAROLINA",,"167-1",,"CALLE","401",,"985","PR","250126","263542","18.4068","-65.9589","(18.4068, -65.9589)"
"82309","CAROLINA","BUENA VISTA",,,,"URB","VILLA CAROLINA",,"167-6",,"CALLE","401",,"985","PR","250134","263623","18.4076","-65.9588","(18.4076, -65.9588)"
"82289","CAROLINA","TRUJILLO BAJO",,,,"URB","LOMAS DE CAROLINA",,"S-10",,"CALLE","CERRO LA SANTA",,"987","PR","251684","259477","18.3701","-65.9443","(18.3701, -65.9443)"
"82328","CAROLINA","BUENA VISTA",,,,"URB","VILLA CAROLINA",,"167-9",,"CALLE","401",,"985","PR","250130","263661","18.4079","-65.9589","(18.4079, -65.9589)"
"82360","CAROLINA","TRUJILLO BAJO",,,,"URB","LOMAS DE CAROLINA",,"S-1",,"CALLE","CERRO TAITA",,"987","PR","251655","259439","18.3697","-65.9446","(18.3697, -65.9446)"
"82530","CAROLINA","SAN ANTON",,,," "," ",,"23-D",,"CALLE","7",,"976","PR","246680","260542","18.3798179","-65.9916079","(18.3798179, -65.9916079)"
"82475","CAROLINA","SAN ANTON",,,," "," ",,"23",,"CALLE","7",,"976","PR","246658","260540","18.3797992","-65.9918082","(18.3797992, -65.9918082)"
"82472","CAROLINA","BUENA VISTA",,,,"URB","VILLA CAROLINA",,"173-26",,"CALLE","401",,"985","PR","250199","263761","18.4088","-65.9582","(18.4088, -65.9582)"
"82453","CAROLINA","TRUJILLO BAJO",,,,"URB","LOMAS DE CAROLINA",,"Q-13",,"CALLE","CERRO MORALES",,"987","PR","251658","259541","18.3707","-65.9445","(18.3707, -65.9445)"
"82448","CAROLINA","BUENA VISTA",,,,"URB","VILLA CAROLINA",,"173-28",,"CALLE","401",,"985","PR","250175","263759","18.4088","-65.9585","(18.4088, -65.9585)"
"82435","CAROLINA","BUENA VISTA",,,,"URB","VILLA CAROLINA 4TA SECC",,"167-15",,"CALLE","401",,"985","PR","250127","263744","18.4087","-65.9589","(18.4087, -65.9589)"
"82599","CAROLINA","SAN ANTON",,,," "," ",,"25",,"CALLE","7",,"976","PR","246703","260475","18.37921","-65.9913911","(18.37921, -65.9913911)"
"82598","CAROLINA","TRUJILLO BAJO",,,,"URB","LOMAS DE CAROLINA",,"T-1",,"CALLE","LA TORRECILLA",,"987","PR","251594","259425","18.3696","-65.9451","(18.3696, -65.9451)"
"82591","CAROLINA","SAN ANTON",,,," "," ",,"25",,"CALLE","7",,"976","PR","246718","260478","18.379241","-65.9912493","(18.379241, -65.9912493)"
"82579","CAROLINA","TRUJILLO BAJO",,,,"URB","LOMAS DE CAROLINA",,"T-12",,"CALLE","CERRO TAITA",,"987","PR","251615","259497","18.3703","-65.9449","(18.3703, -65.9449)"
"109886","CAROLINA","MARTIN GONZALEZ",,,,"URB","JOSE SEVERO QUINONES",,"728",,"CALLE","QUIONES",,"985","PR","250207","261189","18.3856","-65.9582","(18.3856, -65.9582)"
"109980","CAROLINA","BUENA VISTA",,,,"URB","VILLA CAROLINA 3RA SECC",,"107-4",,"CALLE","100",,"985","PR","249676","262916","18.4012","-65.9632","(18.4012, -65.9632)"
"109997","CAROLINA","BUENA VISTA",,,,"URB","VILLA CAROLINA 3RA SECC",,"107-5",,"CALLE","100",,"985","PR","249689","262925","18.4013","-65.9631","(18.4013, -65.9631)"
"109922","CAROLINA","BUENA VISTA",,,,"URB","VILLA CAROLINA 3RA SECC",,"132-35",,"CALLE","100",,"985","PR","249608","262922","18.4012","-65.9638","(18.4012, -65.9638)"
"109909","CAROLINA","SAN ANTON",,,,"URB","VILLAS DE SAN ANTON",,"H-11",,"CALLE","LUIS VIGO",,"987","PR","247472","261370","18.3873","-65.9841","(18.3873, -65.9841)"
"110075","CAROLINA","BUENA VISTA",,,,"URB","VILLA CAROLINA 3RA SECC",,"107-11",,"CALLE","100",,"985","PR","249772","262919","18.4012","-65.9623","(18.4012, -65.9623)"
"110072","CAROLINA","PUEBLO",,,,"SECT"," ",,"104",,"CALLE","MUOZ RIVERA",,"985","PR","250337","260855","18.3826","-65.957","(18.3826, -65.957)"
"110116","CAROLINA","BUENA VISTA",,,,"URB","VILLA CAROLINA 3RA SECC",,"107-14",,"AVE","CENTRAL BLVD",,"985","PR","249745","262893","18.401","-65.9625","(18.401, -65.9625)"
"110114","CAROLINA","MARTIN GONZALEZ",,,,"URB","JOSE SEVERO QUINONES",,"1",,"CALLE","JOSE DE DIEGO",,"985","PR","250216","261073","18.3845","-65.9581","(18.3845, -65.9581)"
"110067","CAROLINA","MARTIN GONZALEZ",,,,"URB","JOSE SEVERO QUINONES",,"5",,"CALLE","JOSE DE DIEGO",,"985","PR","250208","261097","18.3848","-65.9582","(18.3848, -65.9582)"
"110064","CAROLINA","CANOVANILLAS",,,,"URB","PARQ ECUESTRE",,"D-17",,"CALLE","CANARIO",,"987","PR","253588","259534","18.3705","-65.9263","(18.3705, -65.9263)"
"110054","CAROLINA","BUENA VISTA",,,,"URB","VILLA CAROLINA 3RA SECC",,"107-10",,"CALLE","100",,"985","PR","249758","262920","18.4012","-65.9624","(18.4012, -65.9624)"
"110041","CAROLINA","BUENA VISTA",,,,"URB","VILLA CAROLINA 3RA SECC",,"107-9",,"CALLE","100",,"985","PR","249744","262926","18.4013","-65.9626","(18.4013, -65.9626)"
"111338","CAROLINA","SABANA ABAJO",,,,"URB","VISTAMAR",,"J-677",,"AVE","GALICIA",,"983","PR","248021","265828","18.4275","-65.9788","(18.4275, -65.9788)"
"111331","CAROLINA","SABANA ABAJO",,,,"URB","VISTAMAR",,"J-681",,"AVE","GALICIA",,"983","PR","248013","265883","18.428","-65.9789","(18.428, -65.9789)"
"111313","CAROLINA","SABANA ABAJO",,,,"URB","VISTAMAR",,"J-683",,"CALLE","SANTANDER",,"983","PR","247975","265888","18.4281","-65.9792","(18.4281, -65.9792)"
"111291","CAROLINA","SABANA ABAJO",,,,"URB","VALLE ARRIBA HEIGHT",,"D-14",,"CALLE","CEDRO",,"983","PR","249130","264019","18.4112","-65.9683","(18.4112, -65.9683)"
"111257","CAROLINA","SABANA ABAJO",,,,"URB","COUNTRY CLUB",,"PB-47",,"CALLE","246",,"982","PR","246825","264299","18.4138","-65.9901","(18.4138, -65.9901)"
"111232","CAROLINA","SABANA ABAJO",,,,"URB","VALLE ARRIBA HEIGHT",,"D-10",,"CALLE","CEDRO",,"983","PR","249078","264014","18.4111","-65.9688","(18.4111, -65.9688)"
"111223","CAROLINA","SABANA ABAJO",,,,"URB","VISTAMAR",,"J-690",,"CALLE","SEGOVIA",,"983","PR","247950","265833","18.4276","-65.9795","(18.4276, -65.9795)"
"111218","CAROLINA","CEDRO",,,," "," ",," ",,"CARR","185 KM 13.1",,"985","PR","254222","250612","18.2899244","-65.9204974","(18.2899244, -65.9204974)"
"111214","CAROLINA","SABANA ABAJO",,,,"URB","VISTAMAR",,"J-691",,"CALLE","SEGOVIA",,"983","PR","247935","265832","18.4276","-65.9796","(18.4276, -65.9796)"
"111207","CAROLINA","SABANA ABAJO",,,,"URB","COUNTRY CLUB",,"PB-42",,"CALLE","220",,"982","PR","246781","264254","18.4133","-65.9906","(18.4133, -65.9906)"
"338795","SAN JUAN","SANTURCE",,,,"SECT"," ",,"955",,"CALLE","VERDEJO",,"907","PR","237315","267873","18.4462","-66.0801","(18.4462, -66.0801)"
"336075","SAN JUAN","SANTURCE",,,,"SECT"," ",,"617",,"CALLE","ARECIBO",,"907","PR","236643","268900","18.4555","-66.0864","(18.4555, -66.0864)"
"335529","SAN JUAN","SANTURCE",,,,"SECT"," ",,"1062",,"CALLE","LA ROSA",,"907","PR","237391","267822","18.4458","-66.0794","(18.4458, -66.0794)"
"335351","SAN JUAN","SANTURCE",,,,"SECT"," ",,"969",,"CALLE","VERDEJO",,"907","PR","237310","267790","18.4455","-66.0801","(18.4455, -66.0801)"
"335240","SAN JUAN","SANTURCE",,,,"SECT"," ",,"964",,"CALLE","VERDEJO",,"907","PR","237291","267800","18.4456","-66.0803","(18.4456, -66.0803)"
"332017","SAN JUAN","SANTURCE",,,,"SECT"," ",,"1006",,"CALLE","LA ROSA",,"907","PR","237198","267859","18.4461","-66.0812","(18.4461, -66.0812)"
"327608","SAN JUAN","SANTURCE",,,,"SECT"," ",,"955",,"CALLE","CERRA ANDINO",,"907","PR","237215","267894","18.4464","-66.081","(18.4464, -66.081)"
"328013","SAN JUAN","SANTURCE",,,,"SECT"," ",,"320",,"CALLE","LAGUNA",,"915","PR","240958","267390","18.4418","-66.0456","(18.4418, -66.0456)"
"325077","SAN JUAN","SANTURCE",,,,"SECT"," ",,"115",,"CALLE","JEFFERSON",,"911","PR","239571.1066","268352.6385",,,
"321082","SAN JUAN","SANTURCE",,,,"SECT"," ",,"249",,"CALLE","PESANTE",,"912","PR","239408","267829","18.4458","-66.0603","(18.4458, -66.0603)"
"321056","SAN JUAN","SANTURCE",,,,"SECT"," ",,"259",,"CALLE","PESANTE",,"912","PR","239398","267779","18.4453","-66.0604","(18.4453, -66.0604)"
"320150","SAN JUAN","SANTURCE",,,,"SECT"," ",,"909",,"CALLE","ARUZ",,"909","PR","238435","267343","18.4414","-66.0695","(18.4414, -66.0695)"
"415833","SAN JUAN","SANTURCE",,,,"SECT"," ",,"367",,"CALLE","BOLIVAR",,"912","PR","238927","267784","18.4454","-66.0648","(18.4454, -66.0648)"
"415956","SAN JUAN","SANTURCE",,,,"SECT"," ",,"356",,"CALLE","SALDAA",,"912","PR","239000","267768","18.4453","-66.0641","(18.4453, -66.0641)"
"410799","SAN JUAN","SANTURCE",,,,"SECT"," ",,"113",,"CALLE","CASTRO VIAS",,"911","PR","239901","268329","18.4503","-66.0556","(18.4503, -66.0556)"
"406811","SAN JUAN","SANTURCE",,,,"SECT"," ",,"663",,"CALLE","ESTADO",,"907","PR","236950","268624","18.453","-66.0835","(18.453, -66.0835)"
"406517","SAN JUAN","SANTURCE",,,,"SECT"," ",,"1976",,"CALLE","ESQUILIN",,"912","PR","239869","267964","18.447","-66.0559","(18.447, -66.0559)"
"406489","SAN JUAN","SANTURCE",,,,"SECT"," ",,"1972",,"CALLE","ESQUILIN",,"912","PR","239841","267969","18.4471","-66.0562","(18.4471, -66.0562)"
"406457","SAN JUAN","SANTURCE",,,,"SECT"," ",,"1962",,"CALLE","ESQUILIN",,"912","PR","239788","267978","18.4471","-66.0567","(18.4471, -66.0567)"
"406450","SAN JUAN","SANTURCE",,,,"SECT"," ",,"705",,"CALLE","ESTADO",,"907","PR","236901","268508","18.452","-66.084","(18.452, -66.084)"
"406273","SAN JUAN","SANTURCE",,,,"SECT"," ",,"164",,"CALLE","CASTRO VIAS",,"911","PR","239869","268121","18.4484","-66.0559","(18.4484, -66.0559)"
"406414","SAN JUAN","SANTURCE",,,,"SECT"," ",,"1958",,"CALLE","ESQUILIN",,"912","PR","239769","267981","18.4472","-66.0569","(18.4472, -66.0569)"
"404099","SAN JUAN","SANTURCE",,,,"SECT"," ",,"108",,"CALLE","CASTRO VIAS",,"911","PR","239883","268342","18.4504","-66.0558","(18.4504, -66.0558)"
"403681","SAN JUAN","SANTURCE",,,,"SECT"," ",,"125",,"CALLE","MARIA MOCZO",,"911","PR","239855","268266","18.4497","-66.056","(18.4497, -66.056)"
"403543","SAN JUAN","SANTURCE",,,,"SECT"," ",,"624",,"CALLE","BRAZIL",,"915","PR","239640","266815","18.4366","-66.0581","(18.4366, -66.0581)"
"269488","CAROLINA","SABANA ABAJO",,,,"URB","JARDS DE COUNTRY CLUB",,"AF-15",,"CALLE","35",,"983","PR","248728","265862","18.4278","-65.9721","(18.4278, -65.9721)"
"269479","CAROLINA","SABANA ABAJO",,,,"URB","COUNTRY CLUB",,"MF-9",,"CALLE","482",,"982","PR","245366","264258","18.4134","-66.004","(18.4134, -66.004)"
"269597","CAROLINA","SABANA ABAJO",,,,"URB","JARDS DE COUNTRY CLUB",,"Q-9",,"CALLE","24",,"983","PR","248741","265936","18.4285","-65.972","(18.4285, -65.972)"
"269472","CAROLINA","SABANA ABAJO",,,,"URB","VILLA FONTANA",,"UL-3",,"CALLE","VIA 23",,"983","PR","248922","263197","18.4038","-65.9703","(18.4038, -65.9703)"
"269464","CAROLINA","SABANA ABAJO",,,,"URB","COUNTRY CLUB",,"MF-10",,"CALLE","482",,"982","PR","245375","264269","18.4135","-66.0039","(18.4135, -66.0039)"
"269453","CAROLINA","SABANA ABAJO",,,,"URB","VILLA FONTANA",,"UL-5",,"CALLE","VIA 23",,"983","PR","248923","263170","18.4035","-65.9703","(18.4035, -65.9703)"
"269449","CAROLINA","SABANA ABAJO",,,,"URB","COUNTRY CLUB",,"MF-12",,"CALLE","482",,"982","PR","245389","264289","18.4137","-66.0037","(18.4137, -66.0037)"
"269401","CAROLINA","CANOVANILLAS",,,,"SECT"," ",," ",,"CARR","857 KM 3.2",,"985","PR","254096","257704","18.354","-65.9215","(18.354, -65.9215)"
"269354","CAROLINA","SABANA ABAJO",,,,"URB","VILLA FONTANA",,"LL-19",,"CALLE","VIA 23",,"983","PR","248986","263191","18.4037","-65.9697","(18.4037, -65.9697)"
"269319","CAROLINA","SABANA ABAJO",,,,"URB","COUNTRY CLUB",,"MA-13",,"CALLE","401",,"982","PR","245161","264209","18.413","-66.0059","(18.413, -66.0059)"
"269295","CAROLINA","CANOVANILLAS",,,,"URB","CIUDAD JARD",,"223",,"CALLE","AMAPOLA",,"987","PR","253534","259789","18.3728","-65.9268","(18.3728, -65.9268)"
"269284","CAROLINA","SABANA ABAJO",,,,"URB","JARDS DE COUNTRY CLUB",,"AF-2",,"CALLE","37",,"983","PR","248671","265791","18.4272","-65.9726","(18.4272, -65.9726)"
"269282","CAROLINA","SABANA ABAJO",,,,"URB","VILLA FONTANA",,"LL-25",,"CALLE","VIA 23",,"983","PR","249068","263189","18.4037","-65.9689","(18.4037, -65.9689)"
"269250","CAROLINA","SABANA ABAJO",,,,"URB","JARDS DE COUNTRY CLUB",,"AF-5",,"CALLE","37",,"983","PR","248680","265830","18.4275","-65.9726","(18.4275, -65.9726)"
"269174","CAROLINA","SABANA ABAJO",,,,"URB","JARDS DE COUNTRY CLUB",,"AF-11",,"CALLE","37",,"983","PR","248701","265912","18.4283","-65.9723","(18.4283, -65.9723)"
"269172","CAROLINA","CACAO",,,,"URB","HNDA REAL",,"K-5",,"CALLE","FLOR DE SIERRA",,"985","PR","249699","257963","18.3565","-65.9631","(18.3565, -65.9631)"
"269163","CAROLINA","SABANA ABAJO",,,,"URB","JARDS DE COUNTRY CLUB",,"AF-11-A",,"CALLE","37",,"983","PR","248705","265923","18.4284","-65.9723","(18.4284, -65.9723)"
"269129","CAROLINA","SABANA ABAJO",,,,"URB","JARDS DE COUNTRY CLUB",,"AH-9",,"CALLE","37",,"983","PR","248688","265929","18.4284","-65.9725","(18.4284, -65.9725)"
"269239","CAROLINA","SABANA ABAJO",,,,"URB","VILLA FONTANA",,"LL-27",,"CALLE","VIA 23",,"983","PR","249094","263185","18.4036","-65.9687","(18.4036, -65.9687)"
"269238","CAROLINA","SABANA ABAJO",,,,"URB","COUNTRY CLUB",,"MA-6",,"CALLE","401",,"982","PR","245071","264280","18.4136","-66.0067","(18.4136, -66.0067)"
"269191","CAROLINA","SABANA ABAJO",,,,"URB","JARDS DE COUNTRY CLUB",,"AF-10",,"CALLE","37",,"983","PR","248697","265894","18.4281","-65.9724","(18.4281, -65.9724)"
"145165","CAROLINA","BUENA VISTA",,,,"URB","JARDS DE BORINQUEN",,"M7",,"CALLE","LIRIO",,"985","PR","250681","263055","18.4024","-65.9537","(18.4024, -65.9537)"
"145161","CAROLINA","MARTIN GONZALEZ",,,,"URB","ROLLING HILLS",,"V-452",,"CALLE","OKLAHOMA",,"987","PR","247726","260931","18.3833","-65.9817","(18.3833, -65.9817)"
"145224","CAROLINA","MARTIN GONZALEZ",,,,"URB","ROLLING HILLS",,"V-450",,"CALLE","OKLAHOMA",,"987","PR","247735","260921","18.3832","-65.9816","(18.3832, -65.9816)"
"275240","SAN JUAN","PUEBLO",,,,"BDA"," ",,"24",,"CALLE","PRINCIPAL",,"926","PR","240064","262192","18.3949","-66.0542","(18.3949, -66.0542)"
"275154","SAN JUAN","SABANA LLANA NORTE",,,,"URB","COUNTRY CLUB",,"961",,"CALLE","GAVIOTA",,"924","PR","245123","263403","18.4057","-66.0063","(18.4057, -66.0063)"
"272058","SAN JUAN","SABANA LLANA NORTE",,,,"URB","COUNTRY CLUB",,"954",,"CALLE","GAVIOTA",,"924","PR","245076","263412","18.4058","-66.0067","(18.4058, -66.0067)"
"271748","SAN JUAN","SABANA LLANA NORTE",,,,"URB","COUNTRY CLUB",,"927",,"CALLE","ESTORNINO",,"924","PR","244971","263446","18.4061","-66.0077","(18.4061, -66.0077)"
"271706","SAN JUAN","SABANA LLANA NORTE",,,,"URB","COUNTRY CLUB",,"935",,"CALLE","ESTORNINO",,"924","PR","245011","263414","18.4058","-66.0073","(18.4058, -66.0073)"
"271700","SAN JUAN","SABANA LLANA NORTE",,,,"URB","COUNTRY CLUB",,"937",,"CALLE","ESTORNINO",,"924","PR","245022","263406","18.4057","-66.0072","(18.4057, -66.0072)"
"277310","SAN JUAN","ORIENTE",,,,"URB","VILLA GRANADA",,"955",,"CALLE","ALCAZAR",,"923","PR","242372","262815","18.4004","-66.0323","(18.4004, -66.0323)"
"278192","SAN JUAN","SABANA LLANA NORTE",,,,"URB","REPTO SEVILLA",,"930",,"CALLE","SARASATE",,"924","PR","243695","262772","18.4","-66.0198","(18.4, -66.0198)"
"277283","SAN JUAN","ORIENTE",,,,"URB","VILLA GRANADA",,"939",,"CALLE","ALCAZAR",,"923","PR","242380","262870","18.4009","-66.0322","(18.4009, -66.0322)"
"277259","SAN JUAN","HATO REY CENTRAL",,,,"URB","FLORAL PARK",,"165",,"CALLE","DUARTE",,"917","PR","240471","265172","18.4218","-66.0503","(18.4218, -66.0503)"
"277204","SAN JUAN","EL CINCO",,,,"URB","VILLA NEVAREZ",,"300",,"CALLE","4",,"927","PR","238843","261887","18.3921","-66.0657","(18.3921, -66.0657)"
"277184","SAN JUAN","HATO REY CENTRAL",,,,"URB","FLORAL PARK",,"117",,"CALLE","DUARTE",,"917","PR","240292","265118","18.4213","-66.052","(18.4213, -66.052)"
"277476","SAN JUAN","ORIENTE",,,,"URB","VILLA GRANADA",,"985",,"CALLE","ALCAZAR",,"923","PR","242348","262621","18.3987","-66.0326","(18.3987, -66.0326)"
"277475","SAN JUAN","ORIENTE",,,,"URB","VILLA GRANADA",,"983",,"CALLE","ALCAZAR",,"923","PR","242349","262634","18.3988","-66.0325","(18.3988, -66.0325)"
"277424","SAN JUAN","ORIENTE",,,,"URB","VILLA GRANADA",,"969",,"CALLE","ALCAZAR",,"923","PR","242361","262726","18.3996","-66.0324","(18.3996, -66.0324)"
"277635","SAN JUAN","EL CINCO",,,,"URB","VILLA NEVAREZ",,"1133",,"CALLE","9",,"927","PR","238665","261808","18.3914","-66.0674","(18.3914, -66.0674)"
"277590","SAN JUAN","ORIENTE",,,,"URB","SAN JOSE",,"358",,"CALLE","VILLALBA",,"923","PR","241453","265334","18.4232","-66.041","(18.4232, -66.041)"
"277589","SAN JUAN","ORIENTE",,,,"URB","SAN JOSE",,"356",,"CALLE","VILLALBA",,"923","PR","241447","265323","18.4231","-66.041","(18.4231, -66.041)"
"277544","SAN JUAN","ORIENTE",,,,"URB","VILLA GRANADA",,"987",,"CALLE","ALCAZAR",,"923","PR","242346","262610","18.3986","-66.0326","(18.3986, -66.0326)"
"276124","SAN JUAN","SABANA LLANA NORTE",,,,"URB","REPTO SEVILLA",,"936",,"CALLE","SARASATE",,"924","PR","243702","262726","18.3996","-66.0197","(18.3996, -66.0197)"
"276103","SAN JUAN","SABANA LLANA NORTE",,,,"URB","REPTO SEVILLA",,"942",,"CALLE","SARASATE",,"924","PR","243710","262682","18.3992","-66.0197","(18.3992, -66.0197)"
"276099","SAN JUAN","SABANA LLANA SUR",,,,"URB","CLUB MANOR",,"1215",,"CALLE","RAFAEL ARCELAY",,"924","PR","244987","262178","18.3946","-66.0076","(18.3946, -66.0076)"
"224325","CAROLINA","MARTIN GONZALEZ",,,,"URB","EST DE SAN FERNANDO",,"F-21",,"CALLE","8",,"985","PR","249066","261443","18.3879","-65.969","(18.3879, -65.969)"
"224338","CAROLINA","MARTIN GONZALEZ",,,,"URB","METROPOLIS 3RA SECC",,"2.00E-05",,"AVE","C",,"987","PR","247535","258857","18.3646","-65.9836","(18.3646, -65.9836)"
"224374","CAROLINA","MARTIN GONZALEZ",,,,"URB","EST DE SAN FERNANDO",,"F-2",,"CALLE","7",,"985","PR","249109","261449","18.388","-65.9686","(18.388, -65.9686)"
"224372","CAROLINA","MARTIN GONZALEZ",,,,"URB","METROPOLIS 3RA SECC",,"2.00E-06",,"AVE","C",,"987","PR","247546","258864","18.3646","-65.9834","(18.3646, -65.9834)"
"224412","CAROLINA","MARTIN GONZALEZ",,,,"URB","EST DE SAN FERNANDO",,"F-6",,"CALLE","7",,"985","PR","249115","261390","18.3874","-65.9685","(18.3874, -65.9685)"
"224427","CAROLINA","MARTIN GONZALEZ",,,,"URB","METROPOLIS 3RA SECC",,"2.00E-10",,"AVE","C",,"987","PR","247594","258889","18.3649","-65.983","(18.3649, -65.983)"
"224416","CAROLINA","TRUJILLO BAJO",,,,"URB","MANS DE CAROLINA",,"UU-23",,"CALLE","YUNQUESITO",,"987","PR","252368","259396","18.3693","-65.9378","(18.3693, -65.9378)"
"224436","CAROLINA","MARTIN GONZALEZ",,,,"URB","METROPOLIS 3RA SECC",,"2.00E-11",,"AVE","C",,"987","PR","247604","258894","18.3649","-65.9829","(18.3649, -65.9829)"
"224434","CAROLINA","MARTIN GONZALEZ",,,,"URB","EST DE SAN FERNANDO",,"F-7",,"CALLE","7",,"985","PR","249116","261378","18.3873","-65.9685","(18.3873, -65.9685)"
"224468","CAROLINA","TRUJILLO BAJO",,,,"URB","MANS DE CAROLINA",,"UU-24",,"CALLE","YUNQUESITO",,"987","PR","252380","259390","18.3693","-65.9377","(18.3693, -65.9377)"
"224503","CAROLINA","TRUJILLO BAJO",,,,"URB","MANS DE CAROLINA",,"25",,"CALLE","YUNQUESITO",,"987","PR","252390","259383","18.3692","-65.9376","(18.3692, -65.9376)"
"224494","CAROLINA","MARTIN GONZALEZ",,,,"URB","METROPOLIS 3RA SECC",,"2.00E-15",,"CALLE","35",,"987","PR","247671","258878","18.3648","-65.9823","(18.3648, -65.9823)"
"224520","CAROLINA","MARTIN GONZALEZ",,,,"URB","METROPOLIS 3RA SECC",,"2.00E-16",,"CALLE","35",,"987","PR","247661","258871","18.3647","-65.9824","(18.3647, -65.9824)"
"224516","CAROLINA","MARTIN GONZALEZ",,,,"URB","EST DE SAN FERNANDO",,"E-12",,"CALLE","7",,"985","PR","249141","261376","18.3873","-65.9683","(18.3873, -65.9683)"
"224549","CAROLINA","MARTIN GONZALEZ",,,,"URB","EST DE SAN FERNANDO",,"E-16",,"CALLE","7",,"985","PR","249134","261434","18.3878","-65.9684","(18.3878, -65.9684)"
"224648","CAROLINA","MARTIN GONZALEZ",,,,"URB","METROPOLIS 3RA SECC",,"2.00E-20",,"CALLE","35",,"987","PR","247602","258841","18.3644","-65.9829","(18.3644, -65.9829)"
"224618","CAROLINA","MARTIN GONZALEZ",,,,"URB","METROPOLIS 3RA SECC",,"2.00E-18",,"CALLE","35",,"987","PR","247626","258854","18.3645","-65.9827","(18.3645, -65.9827)"
"224603","CAROLINA","MARTIN GONZALEZ",,,,"URB","METROPOLIS 3RA SECC",,"2E-16A",,"CALLE","35",,"987","PR","247649","258866","18.3647","-65.9825","(18.3647, -65.9825)"
"224681","CAROLINA","TRUJILLO BAJO",,,,"PARC"," ",,"193",,"CALLE","NARANJO",,"987","PR","252367","259615","18.3713","-65.9378","(18.3713, -65.9378)"
"224662","CAROLINA","MARTIN GONZALEZ",,,,"URB","EST DE SAN FERNANDO",,"D-14",,"CALLE","6",,"985","PR","249164","261322","18.3868","-65.9681","(18.3868, -65.9681)"
"224691","CAROLINA","MARTIN GONZALEZ",,,,"URB","EST DE SAN FERNANDO",,"D-9",,"CALLE","6",,"985","PR","249212","261356","18.3871","-65.9676","(18.3871, -65.9676)"
"224864","CAROLINA","MARTIN GONZALEZ",,,,"URB","METROPOLIS 3RA SECC",,"2G-7",,"CALLE","35",,"987","PR","247587","258811","18.3642","-65.9831","(18.3642, -65.9831)"
"224713","CAROLINA","MARTIN GONZALEZ",,,,"URB","EST DE SAN FERNANDO",,"D-5",,"CALLE","6",,"985","PR","249204","261413","18.3876","-65.9677","(18.3876, -65.9677)"
"380143","SAN JUAN","SABANA LLANA NORTE",,,,"URB","COUNTRY CLUB",,"772",,"CALLE","MERCEDES SOLA",,"924","PR","245874","263727","18.4086","-65.9992","(18.4086, -65.9992)"
"380264","SAN JUAN","SABANA LLANA NORTE",,,,"URB","COUNTRY CLUB",,"759",,"CALLE","FRAY ANGEL VAZQUEZ",,"924","PR","245893","263827","18.4095","-65.999","(18.4095, -65.999)"
"380260","SAN JUAN","SABANA LLANA NORTE",,,,"URB","COUNTRY CLUB",,"757",,"CALLE","FRAY ANGEL VAZQUEZ",,"924","PR","245902","263838","18.4096","-65.9989","(18.4096, -65.9989)"
"380177","SAN JUAN","SABANA LLANA NORTE",,,,"URB","COUNTRY CLUB",,"766",,"CALLE","MERCEDES SOLA",,"924","PR","245899","263764","18.4089","-65.9989","(18.4089, -65.9989)"
"380610","SAN JUAN","SABANA LLANA NORTE",,,,"URB","COUNTRY CLUB",,"758",,"CALLE","FRAY ANGEL VAZQUEZ",,"924","PR","245870","263836","18.4096","-65.9992","(18.4096, -65.9992)"
"387866","SAN JUAN","SABANA LLANA NORTE",,,,"URB","COUNTRY CLUB",,"1027",,"CALLE","LUIS CORDOVA CHIRINO",,"924","PR","245775","263484","18.4064","-66.0001","(18.4064, -66.0001)"
"387712","SAN JUAN","SABANA LLANA NORTE",,,,"URB","COUNTRY CLUB",,"760",,"CALLE","PAMPERO",,"924","PR","245685","263903","18.4102","-66.0009","(18.4102, -66.0009)"
"387660","SAN JUAN","SABANA LLANA NORTE",,,,"URB","COUNTRY CLUB",,"766",,"CALLE","PAMPERO",,"924","PR","245663","263866","18.4099","-66.0012","(18.4099, -66.0012)"
"387604","SAN JUAN","SABANA LLANA NORTE",,,,"URB","COUNTRY CLUB",,"768",,"CALLE","PAMPERO",,"924","PR","245655","263854","18.4098","-66.0012","(18.4098, -66.0012)"
"387520","SAN JUAN","SABANA LLANA NORTE",,,,"URB","COUNTRY CLUB",,"780",,"CALLE","PAMPERO",,"924","PR","245613","263782","18.4091","-66.0016","(18.4091, -66.0016)"
"387461","SAN JUAN","SABANA LLANA NORTE",,,,"URB","COUNTRY CLUB",,"992",,"CALLE","NEBLIN",,"924","PR","245579","263688","18.4083","-66.002","(18.4083, -66.002)"
"387457","SAN JUAN","SABANA LLANA NORTE",,,,"URB","COUNTRY CLUB",,"793",,"CALLE","PAMPERO",,"924","PR","245590","263698","18.4084","-66.0019","(18.4084, -66.0019)"
"387332","SAN JUAN","SABANA LLANA NORTE",,,,"URB","COUNTRY CLUB",,"769",,"CALLE","PAMPERO",,"924","PR","245681","263844","18.4097","-66.001","(18.4097, -66.001)"
"391735","SAN JUAN","SABANA LLANA NORTE",,,,"URB","COUNTRY CLUB",,"1125",,"CALLE","LUIS CORDOVA CHIRINO",,"924","PR","246029","263264","18.4044","-65.9977","(18.4044, -65.9977)"
"391631","SAN JUAN","SABANA LLANA NORTE",,,,"URB","COUNTRY CLUB",,"1119",,"CALLE","LUIS CORDOVA CHIRINO",,"924","PR","246005","263298","18.4047","-65.9979","(18.4047, -65.9979)"
"394339","SAN JUAN","SABANA LLANA NORTE",,,,"URB","COUNTRY CLUB",,"1152",,"CALLE","ANTONIO LUCIANO",,"924","PR","246067","262927","18.4014","-65.9973","(18.4014, -65.9973)"
"394279","SAN JUAN","SABANA LLANA NORTE",,,,"URB","COUNTRY CLUB",,"1150",,"CALLE","ANTONIO LUCIANO",,"924","PR","246059","262918","18.4013","-65.9974","(18.4013, -65.9974)"
"99062","SAN JUAN","SABANA LLANA SUR",,,,"URB","PARK GARDENS",,"N-15",,"CALLE","EL MORRO",,"926","PR","242162","261483","18.3884","-66.0343","(18.3884, -66.0343)"
"99060","SAN JUAN","SABANA LLANA SUR",,,,"URB","HIGHLAND PARK",,"722",,"CALLE","ANON",,"924","PR","243721","261873","18.3919","-66.0196","(18.3919, -66.0196)"
"99056","SAN JUAN","SABANA LLANA NORTE",,,,"URB","COUNTRY CLUB",,"1030",,"CALLE","ANA DE CAUZOS",,"924","PR","245923","263637","18.4078","-65.9987","(18.4078, -65.9987)"
"99049","SAN JUAN","SABANA LLANA SUR",,,,"URB","PARK GARDENS",,"N-14",,"CALLE","EL MORRO",,"926","PR","242168","261469","18.3883","-66.0343","(18.3883, -66.0343)"
"82577","CAROLINA","SAN ANTON",,,," "," ",,"23",,"CALLE","7",,"976","PR","246709","260546","18.3798496","-65.991333","(18.3798496, -65.991333)"
"82566","CAROLINA","BUENA VISTA",,,,"URB","VILLA CAROLINA",,"173-19",,"CALLE","401",,"985","PR","250302","263762","18.4088","-65.9572","(18.4088, -65.9572)"
"82555","CAROLINA","SAN ANTON",,,,"COMU"," ",,"23",,"CALLE","9",,"976","PR","246695","260542","18.3798","-65.9915","(18.3798, -65.9915)"
"82648","CAROLINA","TRUJILLO BAJO",,,,"URB","LOMAS DE CAROLINA",,"T-4",,"CALLE","LA TORRECILLA",,"987","PR","251583","259465","18.37","-65.9452","(18.37, -65.9452)"
"82646","CAROLINA","BUENA VISTA",,,,"URB","VILLA CAROLINA",,"173-17",,"CALLE","401",,"985","PR","250332","263764","18.4088","-65.957","(18.4088, -65.957)"
"82633","CAROLINA","TRUJILLO BAJO",,,,"URB","LOMAS DE CAROLINA",,"T-2",,"CALLE","LA TORRECILLA",,"987","PR","251588","259439","18.3697","-65.9452","(18.3697, -65.9452)"
"82625","CAROLINA","BUENA VISTA",,,,"URB","VILLA CAROLINA",,"173-18",,"CALLE","401",,"985","PR","250317","263763","18.4088","-65.9571","(18.4088, -65.9571)"
"82661","CAROLINA","BUENA VISTA",,,,"URB","VILLA CAROLINA",,"173-15",,"CALLE","439",,"985","PR","250339","263800","18.4092","-65.9569","(18.4092, -65.9569)"
"82656","CAROLINA","BUENA VISTA",,,,"URB","VILLA CAROLINA",,"173-16",,"CALLE","401",,"985","PR","250346","263764","18.4088","-65.9568","(18.4088, -65.9568)"
"82668","CAROLINA","BUENA VISTA",,,,"URB","VILLA CAROLINA",,"173-14",,"CALLE","439",,"985","PR","250325","263800","18.4092","-65.957","(18.4092, -65.957)"
"82695","CAROLINA","BUENA VISTA",,,,"URB","VILLA CAROLINA",,"173-13",,"CALLE","439",,"985","PR","250311","263799","18.4092","-65.9572","(18.4092, -65.9572)"
"82686","CAROLINA","TRUJILLO BAJO",,,,"URB","LOMAS DE CAROLINA",,"T-8",,"CALLE","LA TORRECILLA",,"987","PR","251564","259513","18.3704","-65.9454","(18.3704, -65.9454)"
"82761","CAROLINA","BUENA VISTA",,,,"URB","VILLA CAROLINA",,"173-11",,"CALLE","439",,"985","PR","250283","263801","18.4092","-65.9574","(18.4092, -65.9574)"
"82891","CAROLINA","TRUJILLO BAJO",,,,"URB","LOMAS DE CAROLINA",,"J-25",,"CALLE","LA TORRECILLA",,"987","PR","251495","259555","18.3708","-65.9461","(18.3708, -65.9461)"
"82833","CAROLINA","TRUJILLO BAJO",,,,"URB","LOMAS DE CAROLINA",,"J-23",,"CALLE","LA TORRECILLA",,"987","PR","251518","259543","18.3707","-65.9458","(18.3707, -65.9458)"
"83065","CAROLINA","BUENA VISTA",,,,"URB","VILLA CAROLINA 3RA SECC",,"100-8",,"CALLE","102",,"985","PR","250107","263442","18.4059","-65.9591","(18.4059, -65.9591)"
"82922","CAROLINA","TRUJILLO BAJO",,,,"URB","LOMAS DE CAROLINA",,"J-30",,"CALLE","LA TORRECILLA",,"987","PR","251430","259543","18.3707","-65.9467","(18.3707, -65.9467)"
"82916","CAROLINA","TRUJILLO BAJO",,,,"URB","LOMAS DE CAROLINA",,"J-27",,"CALLE","LA TORRECILLA",,"987","PR","251468","259554","18.3708","-65.9463","(18.3708, -65.9463)"
"82915","CAROLINA","BUENA VISTA",,,,"URB","VILLA CAROLINA 3RA SECC",,"121-14",,"CALLE","64",,"985","PR","249659","262036","18.3932","-65.9634","(18.3932, -65.9634)"
"82908","CAROLINA","BUENA VISTA",,,,"URB","VILLA CAROLINA 3RA SECC",,"121-13",,"CALLE","64",,"985","PR","249645","262035","18.3932","-65.9635","(18.3932, -65.9635)"
"83050","CAROLINA","TRUJILLO BAJO",,,,"URB","LOMAS DE CAROLINA",,"J-34",,"CALLE","LA TORRECILLA",,"987","PR","251400","259499","18.3703","-65.947","(18.3703, -65.947)"
"83047","CAROLINA","BUENA VISTA",,,,"URB","VILLA CAROLINA 3RA SECC",,"121-16",,"CALLE","64",,"985","PR","249686","262036","18.3932","-65.9631","(18.3932, -65.9631)"
"83034","CAROLINA","CACAO",,,,"SECT"," ",,"6",,"CARR","858 KM 3.3",,"985","PR","249221","256777","18.3457","-65.9676","(18.3457, -65.9676)"
"145316","CAROLINA","MARTIN GONZALEZ",,,,"URB","ROLLING HILLS",,"V-443",,"CALLE","OKLAHOMA",,"987","PR","247691","260862","18.3827","-65.982","(18.3827, -65.982)"
"145312","CAROLINA","MARTIN GONZALEZ",,,,"URB","ROLLING HILLS",,"V-444",,"CALLE","OKLAHOMA",,"987","PR","247698","260872","18.3828","-65.982","(18.3828, -65.982)"
"145333","CAROLINA","BUENA VISTA",,,,"URB","VILLA CAROLINA 5TA SECC",,"215-32",,"CALLE","505",,"985","PR","249648","264657","18.4169","-65.9634","(18.4169, -65.9634)"
"145353","CAROLINA","BUENA VISTA",,,,"URB","VILLA CAROLINA 5TA SECC",,"215-33",,"CALLE","505",,"985","PR","249648","264642","18.4168","-65.9634","(18.4168, -65.9634)"
"145441","CAROLINA","BUENA VISTA",,,,"URB","JARDS DE BORINQUEN",,"N-22",,"CALLE","TRINITARIA",,"985","PR","250675","262883","18.4009","-65.9537","(18.4009, -65.9537)"
"145432","CAROLINA","BUENA VISTA",,,,"URB","VILLA CAROLINA 5TA SECC",,"215-36",,"CALLE","505",,"985","PR","249646","264604","18.4164","-65.9634","(18.4164, -65.9634)"
"145415","CAROLINA","BUENA VISTA",,,,"URB","VILLA CAROLINA 5TA SECC",,"215-35",,"CALLE","505",,"985","PR","249647","264619","18.4166","-65.9634","(18.4166, -65.9634)"
"145406","CAROLINA","MARTIN GONZALEZ",,,,"URB","ROLLING HILLS",,"U-433",,"CALLE","NICARAGUA",,"987","PR","247654","260753","18.3817","-65.9824","(18.3817, -65.9824)"
"145502","CAROLINA","BUENA VISTA",,,,"URB","JARDS DE BORINQUEN",,"N-27",,"CALLE","TRINITARIA",,"985","PR","250713","262836","18.4004","-65.9534","(18.4004, -65.9534)"
"146121","CAROLINA","BUENA VISTA",,,,"URB","VILLA CAROLINA 5TA SECC",,"217-24",,"CALLE","502",,"985","PR","249479","264570","18.4161","-65.965","(18.4161, -65.965)"
"146119","CAROLINA","MARTIN GONZALEZ",,,,"URB","ROLLING HILLS",,"U-406",,"CALLE","NICARAGUA",,"987","PR","247646","260716","18.3814","-65.9825","(18.3814, -65.9825)"
"145562","CAROLINA","MARTIN GONZALEZ",,,,"URB","ROLLING HILLS",,"U-426",,"CALLE","NICARAGUA",,"987","PR","247697","260791","18.382","-65.982","(18.382, -65.982)"
"145542","CAROLINA","BUENA VISTA",,,,"URB","VILLA CAROLINA 5TA SECC",,"212-3",,"CALLE","505",,"985","PR","249656","264537","18.4158","-65.9633","(18.4158, -65.9633)"
"145615","CAROLINA","MARTIN GONZALEZ",,,,"URB","ROLLING HILLS",,"U-425",,"CALLE","NICARAGUA",,"987","PR","247714","260807","18.3822","-65.9818","(18.3822, -65.9818)"
"145695","CAROLINA","MARTIN GONZALEZ",,,,"URB","ROLLING HILLS",,"U-423",,"CALLE","NICARAGUA",,"987","PR","247726","260815","18.3823","-65.9817","(18.3823, -65.9817)"
"145686","CAROLINA","BUENA VISTA",,,,"URB","VILLA CAROLINA 5TA SECC",,"217-14",,"CALLE","505",,"985","PR","249616","264574","18.4162","-65.9637","(18.4162, -65.9637)"
"145899","CAROLINA","MARTIN GONZALEZ",,,,"URB","ROLLING HILLS",,"U-418",,"CALLE","NICARAGUA",,"987","PR","247764","260819","18.3823","-65.9813","(18.3823, -65.9813)"
"145847","CAROLINA","MARTIN GONZALEZ",,,,"URB","ROLLING HILLS",,"V-509",,"CALLE","NICARAGUA",,"987","PR","247768","260850","18.3826","-65.9813","(18.3826, -65.9813)"
"146046","CAROLINA","MARTIN GONZALEZ",,,,"URB","ROLLING HILLS",,"U-412",,"CALLE","NICARAGUA",,"987","PR","247706","260767","18.3818","-65.9819","(18.3818, -65.9819)"
"146029","CAROLINA","MARTIN GONZALEZ",,,,"URB","ROLLING HILLS",,"U-414",,"CALLE","NICARAGUA",,"987","PR","247724","260784","18.382","-65.9817","(18.382, -65.9817)"
"146017","CAROLINA","MARTIN GONZALEZ",,,,"URB","VILLA CAROLINA 1RA SECC",,"A-11",,"CALLE","1",,"985","PR","249651","260834","18.3824","-65.9635","(18.3824, -65.9635)"
"146013","CAROLINA","BUENA VISTA",,,,"URB","VILLA CAROLINA 5TA SECC",,"217-20",,"CALLE","502",,"985","PR","249533","264572","18.4162","-65.9645","(18.4162, -65.9645)"
"146088","CAROLINA","BUENA VISTA",,,,"URB","VILLA CAROLINA 5TA SECC",,"217-22",,"CALLE","502",,"985","PR","249506","264573","18.4162","-65.9648","(18.4162, -65.9648)"
"224833","CAROLINA","MARTIN GONZALEZ",,,,"URB","METROPOLIS 3RA SECC",,"2G-5",,"CALLE","35",,"987","PR","247566","258796","18.364","-65.9833","(18.364, -65.9833)"
"224967","CAROLINA","MARTIN GONZALEZ",,,,"URB","EST DE SAN FERNANDO",,"C-14",,"CALLE","1",,"985","PR","249015","261529","18.3887","-65.9695","(18.3887, -65.9695)"
"224963","CAROLINA","MARTIN GONZALEZ",,,,"URB","METROPOLIS 3RA SECC",,"2G-15",,"CALLE","35",,"987","PR","247684","258856","18.3646","-65.9821","(18.3646, -65.9821)"
"224953","CAROLINA","MARTIN GONZALEZ",,,,"URB","METROPOLIS 3RA SECC",,"2G-13",,"CALLE","35",,"987","PR","247659","258845","18.3645","-65.9824","(18.3645, -65.9824)"
"224894","CAROLINA","MARTIN GONZALEZ",,,,"URB","METROPOLIS 3RA SECC",,"2G-8",,"CALLE","35",,"987","PR","247600","258816","18.3642","-65.9829","(18.3642, -65.9829)"
"224980","CAROLINA","TRUJILLO BAJO",,,,"URB","MANS DE CAROLINA",,"UU-38",,"CALLE","YUNQUESITO",,"987","PR","252528","259282","18.3683","-65.9363","(18.3683, -65.9363)"
"225073","CAROLINA","TRUJILLO BAJO",,,,"URB","MANS DE CAROLINA",,"UU-40",,"CALLE","YUNQUESITO",,"987","PR","252548","259268","18.3682","-65.9361","(18.3682, -65.9361)"
"225106","CAROLINA","TRUJILLO BAJO",,,,"PARC"," ",,"151",,"CALLE","CLAVEL",,"987","PR","252217.6572","259582.0879",,,
"225733","CAROLINA","CANOVANILLAS",,,,"URB","CIUDAD JARD",,"214",,"CALLE","AMAPOLA",,"987","PR","253473","259922","18.3741","-65.9273","(18.3741, -65.9273)"
"225726","CAROLINA","SABANA ABAJO",,,,"URB","CASTELLANA GARDENS",,"B-1",,"CALLE","1",,"983","PR","247940","264930","18.4194","-65.9796","(18.4194, -65.9796)"
"225653","CAROLINA","MARTIN GONZALEZ",,,"408","URB","VILLAS DEL SOL",,"408",,"CALLE","TORREMOLINOS",,"985","PR","249386","261242","18.3861","-65.966","(18.3861, -65.966)"
"225628","CAROLINA","SABANA ABAJO",,,,"URB","CASTELLANA GARDENS",,"B-4",,"CALLE","1",,"983","PR","247976","264934","18.4195","-65.9792","(18.4195, -65.9792)"
"225268","CAROLINA","SABANA ABAJO",,,,"URB","CASTELLANA GARDENS",,"A-8",,"CALLE","1",,"983","PR","248030","264915","18.4193","-65.9787","(18.4193, -65.9787)"
"227176","CAROLINA","MARTIN GONZALEZ",,,,"URB","METROPOLIS 3RA SECC",,"2G-8-A",,"CALLE","35",,"987","PR","247728","258884","18.3648","-65.9817","(18.3648, -65.9817)"
"227170","CAROLINA","TRUJILLO BAJO",,,,"PARC"," ",,"282",,"CALLE","CLAVEL",,"987","PR","252127","259624","18.3714","-65.9401","(18.3714, -65.9401)"
"227168","CAROLINA","MARTIN GONZALEZ",,,,"URB","METROPOLIS 3RA SECC",,"2G-18",,"CALLE","35",,"987","PR","247718","258880","18.3648","-65.9818","(18.3648, -65.9818)"
"226113","CAROLINA","SABANA ABAJO",,,,"URB","CASTELLANA GARDENS",,"C-2",,"CALLE","2",,"983","PR","247939","264989","18.42","-65.9796","(18.42, -65.9796)"
"226097","CAROLINA","MARTIN GONZALEZ",,,,"URB","PASEO DEL PRADO",,"112",,"CALLE","ALBORADA",,"985","PR","248411","261140","18.3852","-65.9752","(18.3852, -65.9752)"
"226090","CAROLINA","MARTIN GONZALEZ",,,,"URB","PASEO DEL PRADO",,"127",,"CALLE","ALBORADA",,"985","PR","248407","261105","18.3849","-65.9752","(18.3849, -65.9752)"
"226085","CAROLINA","MARTIN GONZALEZ",,,,"URB","PASEO DEL PRADO",,"118",,"CALLE","ALBORADA",,"985","PR","248368","261215","18.3859","-65.9756","(18.3859, -65.9756)"
"227183","CAROLINA","MARTIN GONZALEZ",,,,"URB","METROPOLIS 3RA SECC",,"2G-19",,"CALLE","35",,"987","PR","247740","258890","18.3649","-65.9816","(18.3649, -65.9816)"
"227207","CAROLINA","TRUJILLO BAJO",,,,"PARC"," ",,"280-A",,"CALLE","CLAVEL",,"987","PR","252156","259602","18.3712","-65.9398","(18.3712, -65.9398)"
"227195","CAROLINA","MARTIN GONZALEZ",,,,"URB","METROPOLIS 3RA SECC",,"2G-20",,"CALLE","35",,"987","PR","247752","258898","18.3649","-65.9815","(18.3649, -65.9815)"
"82974","CAROLINA","BUENA VISTA",,,,"URB","VILLA CAROLINA 3RA SECC",,"100-7",,"CALLE","102",,"985","PR","250109","263430","18.4058","-65.9591","(18.4058, -65.9591)"
"84349","CAROLINA","SABANA ABAJO",,,,"URB","COUNTRY CLUB",,"JG-21",,"CALLE","243",,"982","PR","247168","263861","18.4098","-65.9869","(18.4098, -65.9869)"
"84342","CAROLINA","SABANA ABAJO",,,,"URB","COUNTRY CLUB",,"JG-20",,"CALLE","243",,"982","PR","247175","263850","18.4097","-65.9868","(18.4097, -65.9868)"
"84336","CAROLINA","SABANA ABAJO",,,,"URB","COUNTRY CLUB",,"JG-19",,"CALLE","241",,"982","PR","247196","263833","18.4095","-65.9866","(18.4095, -65.9866)"
"84298","CAROLINA","SABANA ABAJO",,,,"URB","VILLA FONTANA",,"4KN-5",,"CALLE","VIA FABIANA",,"983","PR","248989","262680","18.3991","-65.9697","(18.3991, -65.9697)"
"84272","CAROLINA","SABANA ABAJO",,,,"URB","JARDS DE COUNTRY CLUB",,"CY-3",,"CALLE","163",,"983","PR","248894","265164","18.4215","-65.9705","(18.4215, -65.9705)"
"84242","CAROLINA","SABANA ABAJO",,,,"URB","JARDS DE COUNTRY CLUB",,"CX-6",,"CALLE","163",,"983","PR","248892","265202","18.4219","-65.9706","(18.4219, -65.9706)"
"84238","CAROLINA","CANGREJO ARRIBA",,,,"URB","LOS ANGELES",,"21",,"CALLE","SAGITARIO",,"979","PR","245278","266202","18.431","-66.0047","(18.431, -66.0047)"
"84399","CAROLINA","SABANA ABAJO",,,,"URB","COUNTRY CLUB",,"JG-25",,"CALLE","243",,"982","PR","247133","263907","18.4102","-65.9872","(18.4102, -65.9872)"
"84224","CAROLINA","SABANA ABAJO",,,,"URB","JARDS DE COUNTRY CLUB",,"CY-7",,"CALLE","163",,"983","PR","248888","265219","18.422","-65.9706","(18.422, -65.9706)"
"84216","CAROLINA","SABANA ABAJO",,,,"URB","JARDS DE COUNTRY CLUB",,"CY-9",,"CALLE","163",,"983","PR","248886","265245","18.4223","-65.9706","(18.4223, -65.9706)"
"84164","CAROLINA","SABANA ABAJO",,,,"URB","COUNTRY CLUB",,"JG-7",,"CALLE","232",,"982","PR","247111","263943","18.4105","-65.9874","(18.4105, -65.9874)"
"84135","CAROLINA","SABANA ABAJO",,,,"URB","JARDS DE COUNTRY CLUB",,"CX-17",,"CALLE","163",,"983","PR","248863","265296","18.4227","-65.9708","(18.4227, -65.9708)"
"83112","CAROLINA","BUENA VISTA",,,,"URB","VILLA CAROLINA 3RA SECC",,"100-9",,"CALLE","102",,"985","PR","250118","263455","18.4061","-65.959","(18.4061, -65.959)"
"83070","CAROLINA","BUENA VISTA",,,,"URB","VILLA CAROLINA 3RA SECC",,"122-1",,"CALLE","64",,"985","PR","249712","262066","18.3935","-65.9629","(18.3935, -65.9629)"
"84835","CAROLINA","SABANA ABAJO",,,,"URB","JARDS DE COUNTRY CLUB",,"CZ-11",,"CALLE","126",,"983","PR","248918","265113","18.4211","-65.9703","(18.4211, -65.9703)"
"84818","CAROLINA","SABANA ABAJO",,,,"URB","COUNTRY CLUB",,"JJ-5",,"CALLE","243",,"982","PR","247160","263835","18.4096","-65.987","(18.4096, -65.987)"
"84808","CAROLINA","SABANA ABAJO",,,,"URB","COUNTRY CLUB",,"JJ-3",,"CALLE","243",,"982","PR","247143","263860","18.4098","-65.9871","(18.4098, -65.9871)"
"84673","CAROLINA","SABANA ABAJO",,,,"URB","VILLA FONTANA",,"4BN-4",,"CALLE","VIA 31",,"983","PR","248680","262577","18.3982","-65.9726","(18.3982, -65.9726)"
"84671","CAROLINA","SABANA ABAJO",,,,"URB","VILLA FONTANA",,"4-BN-3",,"CALLE","VIA 31",,"983","PR","248680","262562","18.398","-65.9726","(18.398, -65.9726)"
"84665","CAROLINA","SABANA ABAJO",,,,"URB","JARDS DE COUNTRY CLUB",,"DA-19",,"CALLE","167",,"983","PR","248991","265177","18.4216","-65.9696","(18.4216, -65.9696)"
"84662","CAROLINA","SABANA ABAJO",,,,"URB","JARDS DE COUNTRY CLUB",,"DA-20",,"CALLE","167",,"983","PR","248993","265160","18.4215","-65.9696","(18.4215, -65.9696)"
"84656","CAROLINA","SABANA ABAJO",,,,"URB","VILLA FONTANA",,"4BN-31",,"CALLE","VIA 31",,"983","PR","248714","262568","18.3981","-65.9723","(18.3981, -65.9723)"
"84973","CAROLINA","SABANA ABAJO",,,,"URB","COUNTRY CLUB",,"JK-2",,"CALLE","241",,"983","PR","247116","263754","18.4088","-65.9874","(18.4088, -65.9874)"
"474005","CAROLINA","BUENA VISTA",,,,"URB","VILLA CAROLINA",,"163-9",,"CALLE","421",,"985","PR","249524","263985","18.4109","-65.9646","(18.4109, -65.9646)"
"473979","CAROLINA","BUENA VISTA",,,,"URB","VILLA CAROLINA 3RA SECC",,"109-3",,"CALLE","81",,"985","PR","249527","262756","18.3998","-65.9646","(18.3998, -65.9646)"
"473961","CAROLINA","BUENA VISTA",,,,"URB","VILLA CAROLINA 3RA SECC",,"109-1",,"CALLE","81",,"985","PR","249502","262754","18.3997","-65.9648","(18.3997, -65.9648)"
"473948","CAROLINA","BUENA VISTA",,,,"URB","VILLA CAROLINA",,"163-5",,"CALLE","419",,"985","PR","249535","264019","18.4112","-65.9645","(18.4112, -65.9645)"
"473908","CAROLINA","BUENA VISTA",,,,"URB","VILLA CAROLINA",,"163-4",,"CALLE","419",,"985","PR","249519","264021","18.4112","-65.9647","(18.4112, -65.9647)"
"473891","CAROLINA","BUENA VISTA",,,,"URB","VILLA CAROLINA",,"163-3",,"CALLE","419",,"985","PR","249510","264024","18.4112","-65.9647","(18.4112, -65.9647)"
"473732","CAROLINA","BUENA VISTA",,,,"URB","VILLA CAROLINA 3RA SECC",,"109-29",,"CALLE","82",,"985","PR","249604","262798","18.4001","-65.9639","(18.4001, -65.9639)"
"473669","CAROLINA","BUENA VISTA",,,,"URB","VILLA CAROLINA 3RA SECC",,"109-28",,"CALLE","82",,"985","PR","249617","262799","18.4001","-65.9638","(18.4001, -65.9638)"
"473275","CAROLINA","BUENA VISTA",,,,"URB","VILLA CAROLINA 3RA SECC",,"108-44",,"CALLE","82",,"985","PR","249748","262823","18.4004","-65.9625","(18.4004, -65.9625)"
"473204","CAROLINA","BUENA VISTA",,,,"URB","VILLA ESPERANZA",,"B-94",,"CALLE","IGLESIA",,"985","PR","251050","261991","18.3928","-65.9502","(18.3928, -65.9502)"
"473198","CAROLINA","BUENA VISTA",,,,"URB","VILLA CAROLINA 3RA SECC",,"108-42",,"CALLE","82",,"985","PR","249720","262825","18.4004","-65.9628","(18.4004, -65.9628)"
"473173","CAROLINA","BUENA VISTA",,,,"URB","VILLA CAROLINA 3RA SECC",,"108-40",,"CALLE","82",,"985","PR","249694","262823","18.4004","-65.963","(18.4004, -65.963)"
"473139","CAROLINA","BUENA VISTA",,,,"URB","VILLA CAROLINA 3RA SECC",,"108-38",,"CALLE","82",,"985","PR","249665","262821","18.4003","-65.9633","(18.4003, -65.9633)"
"470972","CAROLINA","BUENA VISTA",,,,"URB","VILLA CAROLINA 3RA SECC",,"108-34",,"CALLE","82",,"985","PR","249610","262820","18.4003","-65.9638","(18.4003, -65.9638)"
"470968","CAROLINA","BUENA VISTA",,,,"URB","VILLA CAROLINA 3RA SECC",,"108-33",,"CALLE","82",,"985","PR","249595","262819","18.4003","-65.964","(18.4003, -65.964)"
"470943","CAROLINA","BUENA VISTA",,,,"URB","VILLA CAROLINA 3RA SECC",,"108-29",,"CALLE","82",,"985","PR","249540","262816","18.4003","-65.9645","(18.4003, -65.9645)"
"470680","CAROLINA","BUENA VISTA",,,,"URB","VILLA CAROLINA 3RA SECC",,"108-18",,"AVE","CENTRAL BLVD",,"985","PR","249538","262857","18.4007","-65.9645","(18.4007, -65.9645)"
"470675","CAROLINA","BUENA VISTA",,,,"URB","VILLA CAROLINA 3RA SECC",,"108-17",,"AVE","CENTRAL BLVD",,"985","PR","249551","262860","18.4007","-65.9644","(18.4007, -65.9644)"
"470533","CAROLINA","BUENA VISTA",,,,"URB","VILLA CAROLINA 3RA SECC",,"108-16",,"AVE","CENTRAL BLVD",,"985","PR","249567","262857","18.4007","-65.9642","(18.4007, -65.9642)"
"470451","CAROLINA","BUENA VISTA",,,,"URB","VILLA CAROLINA 3RA SECC",,"108-10",,"AVE","CENTRAL BLVD",,"985","PR","249649","262861","18.4007","-65.9634","(18.4007, -65.9634)"
"470440","CAROLINA","BUENA VISTA",,,,"URB","VILLA CAROLINA 3RA SECC",,"108-9",,"AVE","CENTRAL BLVD",,"985","PR","249665","262858","18.4007","-65.9633","(18.4007, -65.9633)"
"470388","CAROLINA","BUENA VISTA",,,,"URB","VILLA CAROLINA 3RA SECC",,"108-5",,"AVE","CENTRAL BLVD",,"985","PR","249720","262864","18.4007","-65.9628","(18.4007, -65.9628)"
"470307","CAROLINA","BUENA VISTA",,,,"URB","VILLA CAROLINA 3RA SECC",,"108-2",,"AVE","CENTRAL BLVD",,"985","PR","249760","262865","18.4007","-65.9624","(18.4007, -65.9624)"
"146085","CAROLINA","MARTIN GONZALEZ",,,,"URB","VILLA CAROLINA 1RA SECC",,"A-5",,"CALLE","1",,"985","PR","249730","260844","18.3825","-65.9627","(18.3825, -65.9627)"
"146056","CAROLINA","MARTIN GONZALEZ",,,,"URB","ROLLING HILLS",,"U-411",,"CALLE","NICARAGUA",,"987","PR","247694","260760","18.3818","-65.982","(18.3818, -65.982)"
"146930","CAROLINA","SABANA ABAJO",,,,"URB","JARDS DE COUNTRY CLUB",,"BT-5",,"CALLE","123",,"983","PR","248492","265101","18.421","-65.9743","(18.421, -65.9743)"
"146911","CAROLINA","SABANA ABAJO",,,,"URB","VALLE ARRIBA HEIGHT",,"AH-8",,"CALLE","PINO",,"983","PR","248805","263745","18.4087","-65.9714","(18.4087, -65.9714)"
"146876","CAROLINA","CANOVANILLAS",,,,"URB","LOS COLOBOS PARK",,"FF-23",,"CALLE","LOS ALMENDROS",,"987","PR","253968","258880","18.3646","-65.9227","(18.3646, -65.9227)"
"146830","CAROLINA","SABANA ABAJO",,,,"URB","VALLE ARRIBA HEIGHT",,"AG-8",,"CALLE","PINO",,"983","PR","248827","263734","18.4086","-65.9712","(18.4086, -65.9712)"
"146826","CAROLINA","SABANA ABAJO",,,,"URB","EL COMANDANTE",,"709",,"CALLE","CALAIS",,"982","PR","247518","262724","18.3995","-65.9836","(18.3995, -65.9836)"
"146772","CAROLINA","SABANA ABAJO",,,,"URB","EL COMANDANTE",,"707",,"CALLE","CALAIS",,"982","PR","247509","262751","18.3998","-65.9837","(18.3998, -65.9837)"
"146755","CAROLINA","SABANA ABAJO",,,,"URB","JARDS DE COUNTRY CLUB",,"BT-15",,"CALLE","123",,"983","PR","248482","265212","18.422","-65.9744","(18.422, -65.9744)"
"146733","CAROLINA","SABANA ABAJO",,,,"URB","EL COMANDANTE",,"690",,"CALLE","PRINCESA",,"982","PR","247489","262729","18.3996","-65.9839","(18.3996, -65.9839)"
"146532","CAROLINA","SABANA ABAJO",,,,"URB","VALLE ARRIBA HEIGHT",,"AF-11",,"CALLE","NISPERO",,"983","PR","248895","263787","18.4091","-65.9706","(18.4091, -65.9706)"
"146519","CAROLINA","SABANA ABAJO",,,,"URB","VALLE ARRIBA HEIGHT",,"AF-8",,"CALLE","NISPERO",,"983","PR","248890","263735","18.4086","-65.9706","(18.4086, -65.9706)"
"146508","CAROLINA","SABANA ABAJO",,,,"URB","JARDS DE COUNTRY CLUB",,"BS-3",,"CALLE","121",,"983","PR","248435","265078","18.4208","-65.9749","(18.4208, -65.9749)"
"146491","CAROLINA","SABANA ABAJO",,,,"URB","JARDS DE COUNTRY CLUB",,"BS-4",,"CALLE","121",,"983","PR","248435","265088","18.4208","-65.9749","(18.4208, -65.9749)"
"146472","CAROLINA","SABANA ABAJO",,,,"URB","JARDS DE COUNTRY CLUB",,"BS-9",,"CALLE","121",,"983","PR","248429","265151","18.4214","-65.9749","(18.4214, -65.9749)"
"146454","CAROLINA","SABANA ABAJO",,,,"URB","JARDS DE COUNTRY CLUB",,"BS-11",,"CALLE","121",,"983","PR","248427","265181","18.4217","-65.975","(18.4217, -65.975)"
"146446","CAROLINA","SABANA ABAJO",,,,"URB","JARDS DE COUNTRY CLUB",,"BS-12",,"CALLE","121",,"983","PR","248427","265194","18.4218","-65.975","(18.4218, -65.975)"
"146422","CAROLINA","SABANA ABAJO",,,,"URB","VALLE ARRIBA HEIGHT",,"X-8",,"CALLE","YAGRUMO",,"983","PR","248937","263603","18.4074","-65.9702","(18.4074, -65.9702)"
"146407","CAROLINA","SABANA ABAJO",,,,"URB","VALLE ARRIBA HEIGHT",,"X-6",,"CALLE","YAGRUMO",,"983","PR","248970","263595","18.4074","-65.9699","(18.4074, -65.9699)"
"146403","CAROLINA","SABANA ABAJO",,,,"URB","JARDS DE COUNTRY CLUB",,"BR-17",,"CALLE","119",,"983","PR","248369","265190","18.4218","-65.9755","(18.4218, -65.9755)"
"146865","CAROLINA","SABANA ABAJO",,,,"URB","JARDS DE COUNTRY CLUB",,"BT-7",,"CALLE","123",,"983","PR","248489","265122","18.4212","-65.9744","(18.4212, -65.9744)"
"146636","CAROLINA","SABANA ABAJO",,,,"URB","VALLE ARRIBA HEIGHT",,"AG-14",,"CALLE","NISPERO",,"983","PR","248870","263720","18.4085","-65.9708","(18.4085, -65.9708)"
"146578","CAROLINA","SABANA ABAJO",,,,"URB","JARDS DE COUNTRY CLUB",,"BS-26",,"CALLE","123",,"983","PR","248473","265083","18.4208","-65.9745","(18.4208, -65.9745)"
"111202","CAROLINA","SABANA ABAJO",,,,"URB","COUNTRY CLUB",,"PB-41",,"CALLE","220",,"982","PR","246766","264251","18.4133","-65.9907","(18.4133, -65.9907)"
"111177","CAROLINA","SABANA ABAJO",,,,"URB","VISTAMAR",,"J-693",,"CALLE","SEGOVIA",,"983","PR","247909","265827","18.4275","-65.9798","(18.4275, -65.9798)"
"111168","CAROLINA","SABANA ABAJO",,,,"URB","VISTAMAR",,"J-694",,"CALLE","SEGOVIA",,"983","PR","247896","265825","18.4275","-65.98","(18.4275, -65.98)"
"111160","CAROLINA","SABANA ABAJO",,,,"URB","VALLE ARRIBA HEIGHT",,"D-8",,"CALLE","CEDRO",,"983","PR","249049","264034","18.4113","-65.9691","(18.4113, -65.9691)"
"109197","CAROLINA","CANOVANILLAS",,,,"URB","PARQ ECUESTRE",,"D-42",,"CALLE","AGUILA",,"987","PR","253382","259388","18.3692","-65.9282","(18.3692, -65.9282)"
"109179","CAROLINA","SAN ANTON",,,,"URB","PASEO DE LA ALHAMBRA",,"17",,"CALLE","CORDOVA",,"987","PR","247513","261674","18.39","-65.9837","(18.39, -65.9837)"
"109167","CAROLINA","SAN ANTON",,,,"URB","PASEO DE LA ALHAMBRA",,"13",,"CALLE","CORDOVA",,"987","PR","247536","261653","18.3898","-65.9835","(18.3898, -65.9835)"
"109165","CAROLINA","SAN ANTON",,,,"URB","PASEO DE LA ALHAMBRA",,"12",,"CALLE","CORDOVA",,"987","PR","247522","261647","18.3898","-65.9836","(18.3898, -65.9836)"
"109148","CAROLINA","SAN ANTON",,,,"URB","PASEO DE LA ALHAMBRA",,"11",,"CALLE","CORDOVA",,"987","PR","247508","261640","18.3897","-65.9837","(18.3897, -65.9837)"
"109147","CAROLINA","BUENA VISTA",,,,"URB","JARDS DE BORINQUEN",,"U-44",,"CALLE","GRANADA",,"985","PR","250708","262793","18.4001","-65.9534","(18.4001, -65.9534)"
"109132","CAROLINA","SAN ANTON",,,,"URB","PASEO DE LA ALHAMBRA",,"10",,"CALLE","CORDOVA",,"987","PR","247493","261633","18.3897","-65.9839","(18.3897, -65.9839)"
"109125","CAROLINA","SABANA ABAJO",,,,"URB","COUNTRY CLUB",,"PB-36",,"CALLE","220",,"982","PR","246698","264235","18.4132","-65.9913","(18.4132, -65.9913)"
"109104","CAROLINA","SABANA ABAJO",,,,"URB","VISTAMAR",,"J-698",,"CALLE","SEGOVIA",,"983","PR","247844","265821","18.4275","-65.9805","(18.4275, -65.9805)"
"109099","CAROLINA","SABANA ABAJO",,,,"URB","VISTAMAR",,"J-699",,"CALLE","SEGOVIA",,"983","PR","247831","265817","18.4274","-65.9806","(18.4274, -65.9806)"
"109092","CAROLINA","CANOVANILLAS",,,,"URB","PARAISO DE CAROLINA",,"B-6",,"CALLE","BESO DE MAR",,"987","PR","253177","259964","18.3744","-65.9301","(18.3744, -65.9301)"
"109227","CAROLINA","CANOVANILLAS",,,,"URB","PARQ ECUESTRE",,"D-39",,"CALLE","COLABORADOR",,"987","PR","253419","259381","18.3692","-65.9279","(18.3692, -65.9279)"
"109327","CAROLINA","BUENA VISTA",,,,"URB","JARDS DE BORINQUEN",,"U-27",,"CALLE","GRANADA",,"985","PR","250520","262715","18.3994","-65.9552","(18.3994, -65.9552)"
"109321","CAROLINA","BUENA VISTA",,,,"URB","JARDS DE BORINQUEN",,"U-28",,"CALLE","GRANADA",,"985","PR","250531","262720","18.3994","-65.9551","(18.3994, -65.9551)"
"109262","CAROLINA","SAN ANTON",,,,"URB","PASEO DE LA ALHAMBRA",,"26",,"CALLE","GENERALIFE",,"987","PR","247449","261689","18.3902","-65.9843","(18.3902, -65.9843)"
"109259","CAROLINA","BUENA VISTA",,,,"URB","JARDS DE BORINQUEN",,"U-37",,"CALLE","GRANADA",,"985","PR","250631","262760","18.3998","-65.9542","(18.3998, -65.9542)"
"109250","CAROLINA","SAN ANTON",,,,"URB","PASEO DE LA ALHAMBRA",,"25",,"CALLE","GENERALIFE",,"987","PR","247436","261683","18.3901","-65.9844","(18.3901, -65.9844)"
"109240","CAROLINA","BUENA VISTA",,,,"URB","JARDS DE BORINQUEN",,"U-39",,"CALLE","GRANADA",,"985","PR","250654","262771","18.3999","-65.9539","(18.3999, -65.9539)"
"108997","CAROLINA","SABANA ABAJO",,,,"URB","COUNTRY CLUB",,"PC-4",,"CALLE","274",,"982","PR","246648","264329","18.414","-65.9918","(18.414, -65.9918)"
"108957","CAROLINA","SABANA ABAJO",,,,"URB","COUNTRY CLUB",,"PC-8",,"CALLE","274",,"982","PR","246703","264342","18.4141","-65.9913","(18.4141, -65.9913)"
"470200","CAROLINA","BUENA VISTA",,,,"URB","VILLA CAROLINA",,"149-11",,"CALLE","408",,"985","PR","249648","263748","18.4087","-65.9634","(18.4087, -65.9634)"
"470183","CAROLINA","BUENA VISTA",,,,"URB","VILLA CAROLINA",,"149-14",,"CALLE","408",,"985","PR","249696","263750","18.4087","-65.963","(18.4087, -65.963)"
"470154","CAROLINA","BUENA VISTA",,,,"URB","VILLA CAROLINA",,"149-15",,"CALLE","408",,"985","PR","249711","263751","18.4087","-65.9628","(18.4087, -65.9628)"
"466954","CAROLINA","CANOVANILLAS",,,,"URB","EST DEL PARQ",,"F-13",,"CALLE","4",,"985","PR","252994","259035","18.3661","-65.9319","(18.3661, -65.9319)"
"466939","CAROLINA","CANOVANILLAS",,,,"URB","EST DEL PARQ",,"E-10",,"CALLE","4",,"985","PR","252963","258894","18.3648","-65.9322","(18.3648, -65.9322)"
"466713","CAROLINA","BUENA VISTA",,,,"URB","VILLA CAROLINA",,"140-2",,"CALLE","407",,"985","PR","249709","263590","18.4073","-65.9629","(18.4073, -65.9629)"
"466661","CAROLINA","BUENA VISTA",,,,"URB","VILLA CAROLINA",,"140-1",,"CALLE","407",,"985","PR","249711","263576","18.4072","-65.9628","(18.4072, -65.9628)"
"466638","CAROLINA","BUENA VISTA",,,,"URB","VILLA CAROLINA",,"139-20",,"CALLE","404",,"985","PR","249711","263551","18.4069","-65.9628","(18.4069, -65.9628)"
"466555","CAROLINA","BUENA VISTA",,,,"URB","VILLA CAROLINA",,"139-24",,"CALLE","404",,"985","PR","249658","263551","18.4069","-65.9634","(18.4069, -65.9634)"
"466548","CAROLINA","BUENA VISTA",,,,"URB","VILLA CAROLINA",,"139-2",,"CALLE","401",,"985","PR","249671","263512","18.4066","-65.9632","(18.4066, -65.9632)"
"466765","CAROLINA","CANOVANILLAS",,,,"URB","EST DEL PARQ",,"D-9",,"CALLE","3",,"985","PR","252937","258901","18.3648","-65.9324","(18.3648, -65.9324)"
"466140","CAROLINA","BUENA VISTA",,,,"URB","VILLA CAROLINA",,"140-24",,"CALLE","411",,"985","PR","249749","263578","18.4072","-65.9625","(18.4072, -65.9625)"
"463105","CAROLINA","CARRUZOS",,,,"SECT"," ",," ",,"CARR","857 KM 9.5",,"985","PR","253736","252503","18.307","-65.925","(18.307, -65.925)"
"462995","CAROLINA","BUENA VISTA",,,,"URB","VILLA CAROLINA",,"140-17",,"CALLE","411",,"985","PR","249744","263673","18.408","-65.9625","(18.408, -65.9625)"
"462841","CAROLINA","BUENA VISTA",,,,"URB","VILLA CAROLINA",,"149-17",,"CALLE","413",,"985","PR","249740","263749","18.4087","-65.9626","(18.4087, -65.9626)"
"462679","CAROLINA","BUENA VISTA",,,,"URB","VILLA CAROLINA",,"141-14",,"CALLE","411",,"985","PR","249769","263712","18.4084","-65.9623","(18.4084, -65.9623)"
"462591","CAROLINA","BUENA VISTA",,,,"URB","VILLA CAROLINA",,"141-21",,"CALLE","411",,"985","PR","249771","263620","18.4076","-65.9623","(18.4076, -65.9623)"
"462510","CAROLINA","BUENA VISTA",,,,"URB","VILLA CAROLINA",,"141-23",,"CALLE","411",,"985","PR","249772","263593","18.4073","-65.9623","(18.4073, -65.9623)"
"462452","CAROLINA","BUENA VISTA",,,,"URB","VILLA CAROLINA",,"141-4",,"CALLE","409",,"985","PR","249808","263619","18.4075","-65.9619","(18.4075, -65.9619)"
"462185","CAROLINA","BUENA VISTA",,,,"URB","VILLA CAROLINA",,"149-27",,"CALLE","413",,"985","PR","249874","263757","18.4088","-65.9613","(18.4088, -65.9613)"
"462611","CAROLINA","BUENA VISTA",,,,"URB","VILLA CAROLINA",,"141-18",,"CALLE","411",,"985","PR","249767","263659","18.4079","-65.9623","(18.4079, -65.9623)"
"460093","CAROLINA","BUENA VISTA",,,,"URB","VILLA CAROLINA",,"142-7",,"CALLE","409",,"985","PR","249833","263660","18.4079","-65.9617","(18.4079, -65.9617)"
"460033","CAROLINA","BUENA VISTA",,,,"URB","VILLA CAROLINA",,"142-22",,"CALLE","412",,"985","PR","249870","263608","18.4074","-65.9613","(18.4074, -65.9613)"
"460004","CAROLINA","BUENA VISTA",,,,"URB","VILLA CAROLINA",,"142-18",,"CALLE","412",,"985","PR","249868","263663","18.4079","-65.9614","(18.4079, -65.9614)"
"84596","CAROLINA","SABANA ABAJO",,,,"URB","MANS DE VISTAMAR MARINA",,"1412",,"CALLE","MARBELLA",,"983","PR","248208","267080","18.4389","-65.977","(18.4389, -65.977)"
"84572","CAROLINA","SABANA ABAJO",,,,"URB","VILLA FONTANA",,"4BN-22",,"CALLE","VIA 31",,"983","PR","248716","262645","18.3988","-65.9723","(18.3988, -65.9723)"
"84559","CAROLINA","SABANA ABAJO",,,,"URB","VILLA FONTANA",,"4BN-20",,"CALLE","VIA 31",,"983","PR","248718","262666","18.399","-65.9723","(18.399, -65.9723)"
"84550","CAROLINA","SABANA ABAJO",,,,"URB","VILLA FONTANA",,"4BN-19",,"CALLE","VIA 31",,"983","PR","248719","262684","18.3991","-65.9723","(18.3991, -65.9723)"
"84514","CAROLINA","SABANA ABAJO",,,,"URB","VILLA FONTANA",,"4BN-16",,"CALLE","VIA 31",,"983","PR","248720","262718","18.3994","-65.9722","(18.3994, -65.9722)"
"84496","CAROLINA","SABANA ABAJO",,,,"URB","COUNTRY CLUB",,"JG-29",,"CALLE","243",,"982","PR","247078","263897","18.4101","-65.9878","(18.4101, -65.9878)"
"84474","CAROLINA","SABANA ABAJO",,,,"URB","JARDS DE COUNTRY CLUB",,"CY-16",,"CALLE","165",,"983","PR","248923","265264","18.4224","-65.9703","(18.4224, -65.9703)"
"84435","CAROLINA","SABANA ABAJO",,,,"URB","VILLA FONTANA",,"4EN-5",,"CALLE","VIA FABIANA",,"983","PR","248791","262676","18.3991","-65.9716","(18.3991, -65.9716)"
"84374","CAROLINA","SABANA ABAJO",,,,"URB","COUNTRY CLUB",,"JG-23",,"CALLE","243",,"982","PR","247154","263885","18.41","-65.987","(18.41, -65.987)"
"82114","CAROLINA","SABANA ABAJO",,,,"URB","JARDS DE COUNTRY CLUB",,"CX-19",,"CALLE","163",,"983","PR","248866","265270","18.4225","-65.9708","(18.4225, -65.9708)"
"82111","CAROLINA","SABANA ABAJO",,,,"URB","COUNTRY CLUB",,"JG-3",,"CALLE","232",,"982","PR","247053","263930","18.4104","-65.988","(18.4104, -65.988)"
"82098","CAROLINA","SABANA ABAJO",,,,"URB","JARDS DE COUNTRY CLUB",,"CX-21",,"CALLE","163",,"983","PR","248867","265240","18.4222","-65.9708","(18.4222, -65.9708)"
"82085","CAROLINA","SABANA ABAJO",,,,"URB","COUNTRY CLUB",,"JG-52",,"CALLE","245",,"982","PR","247001","263907","18.4102","-65.9885","(18.4102, -65.9885)"
"82078","CAROLINA","SABANA ABAJO",,,,"URB","COUNTRY CLUB",,"JG-51",,"CALLE","245",,"982","PR","247004","263899","18.4101","-65.9885","(18.4101, -65.9885)"
"82142","CAROLINA","BUENA VISTA",,,,"URB","VILLA CAROLINA",,"168-8",,"CALLE","401",,"985","PR","250160","263634","18.4077","-65.9586","(18.4077, -65.9586)"
"82219","CAROLINA","TRUJILLO BAJO",,,,"URB","LOMAS DE CAROLINA",,"Q-12",,"CALLE","CERRO MORALES",,"987","PR","251671","259552","18.3708","-65.9444","(18.3708, -65.9444)"
"82217","CAROLINA","BUENA VISTA",,,,"URB","VILLA CAROLINA 3RA SECC",,"121-25",,"CALLE","64",,"985","PR","249578","262071","18.3936","-65.9641","(18.3936, -65.9641)"
"82162","CAROLINA","SAN ANTON",,,," "," ",,"17",,"CALLE","7",,"976","PR","246792","260400","18.3785329","-65.990548","(18.3785329, -65.990548)"
"82025","CAROLINA","SABANA ABAJO",,,,"URB","JARDS DE COUNTRY CLUB",,"CX-27",,"CALLE","163",,"983","PR","248874","265165","18.4215","-65.9707","(18.4215, -65.9707)"
"82022","CAROLINA","SABANA ABAJO",,,,"URB","JARDS DE COUNTRY CLUB",,"CX-28",,"CALLE","163",,"983","PR","248875","265152","18.4214","-65.9707","(18.4214, -65.9707)"
"82008","CAROLINA","SABANA ABAJO",,,,"URB","JARDS DE COUNTRY CLUB",,"CX-2",,"CALLE","161",,"983","PR","248839","265117","18.4211","-65.9711","(18.4211, -65.9711)"
"82040","CAROLINA","SABANA ABAJO",,,,"URB","COUNTRY CLUB",,"JG-48",,"CALLE","245",,"982","PR","247026","263860","18.4098","-65.9883","(18.4098, -65.9883)"
"82003","CAROLINA","SABANA ABAJO",,,,"URB","JARDS DE COUNTRY CLUB",,"CX-2",,"CALLE","161",,"983","PR","248838","265131","18.4212","-65.9711","(18.4212, -65.9711)"
"146560","CAROLINA","SABANA ABAJO",,,,"URB","JARDS DE COUNTRY CLUB",,"BS-29",,"CALLE","123",,"983","PR","248475","265052","18.4205","-65.9745","(18.4205, -65.9745)"
"146556","CAROLINA","SABANA ABAJO",,,,"URB","VALLE ARRIBA HEIGHT",,"AG-12",,"CALLE","NISPERO",,"983","PR","248870","263749","18.4087","-65.9708","(18.4087, -65.9708)"
"146551","CAROLINA","SABANA ABAJO",,,,"URB","VALLE ARRIBA HEIGHT",,"AG-11",,"CALLE","NISPERO",,"983","PR","248870","263763","18.4089","-65.9708","(18.4089, -65.9708)"
"146385","CAROLINA","SABANA ABAJO",,,,"URB","JARDS DE COUNTRY CLUB",,"BR-21",,"CALLE","121",,"983","PR","248404","265223","18.4221","-65.9752","(18.4221, -65.9752)"
"146381","CAROLINA","SABANA ABAJO",,,,"URB","JARDS DE COUNTRY CLUB",,"BR-22",,"CALLE","121",,"983","PR","248405","265214","18.422","-65.9752","(18.422, -65.9752)"
"146377","CAROLINA","SABANA ABAJO",,,,"URB","JARDS DE COUNTRY CLUB",,"BR-23",,"CALLE","121",,"983","PR","248406","265199","18.4219","-65.9752","(18.4219, -65.9752)"
"146344","CAROLINA","CANOVANILLAS",,,,"URB","CIUDAD JARD",,"386",,"CALLE","JACINTO",,"987","PR","253887","259937","18.3742","-65.9234","(18.3742, -65.9234)"
"146321","CAROLINA","SABANA ABAJO",,,,"URB","JARDS DE COUNTRY CLUB",,"BR-25",,"CALLE","121",,"983","PR","248408","265182","18.4217","-65.9751","(18.4217, -65.9751)"
"146286","CAROLINA","SABANA ABAJO",,,,"URB","VALLE ARRIBA HEIGHT",,"W-13",,"CALLE","JOBOS",,"983","PR","248969","263640","18.4078","-65.9699","(18.4078, -65.9699)"
"146368","CAROLINA","SABANA ABAJO",,,,"URB","VALLE ARRIBA HEIGHT",,"X-5",,"CALLE","YAGRUMO",,"983","PR","248988","263601","18.4074","-65.9697","(18.4074, -65.9697)"
"146275","CAROLINA","SABANA ABAJO",,,,"URB","JARDS DE COUNTRY CLUB",,"BR-28",,"CALLE","121",,"983","PR","248410","265149","18.4214","-65.9751","(18.4214, -65.9751)"
"146219","CAROLINA","SABANA ABAJO",,,,"URB","VALLE ARRIBA HEIGHT",,"W-9",,"CALLE","JOBOS",,"983","PR","248930","263666","18.408","-65.9702","(18.408, -65.9702)"
"146215","CAROLINA","TRUJILLO BAJO",,,,"URB","CIUDAD CENTRO",,"128",,"CALLE","CASIMAR",,"987","PR","250951","259171","18.3673","-65.9512","(18.3673, -65.9512)"
"146268","CAROLINA","SABANA ABAJO",,,,"URB","JARDS DE COUNTRY CLUB",,"BR-30",,"CALLE","121",,"983","PR","248414","265126","18.4212","-65.9751","(18.4212, -65.9751)"
"146210","CAROLINA","SABANA ABAJO",,,,"URB","VALLE ARRIBA HEIGHT",,"W-8",,"CALLE","JOBOS",,"983","PR","248955","263664","18.408","-65.97","(18.408, -65.97)"
"146183","CAROLINA","TRUJILLO BAJO",,,,"URB","MANS DE CAROLINA",,"UU-6",,"CALLE","YUNQUESITO",,"987","PR","252191","259525","18.3705","-65.9395","(18.3705, -65.9395)"
"148335","CAROLINA","MARTIN GONZALEZ",,,,"URB","ROLLING HILLS",,"T-393",,"CALLE","MEXICO",,"987","PR","247765","260757","18.3817","-65.9813","(18.3817, -65.9813)"
"148326","CAROLINA","MARTIN GONZALEZ",,,,"URB","VILLA CAROLINA 1RA SECC",,"F-23",,"CALLE","3",,"985","PR","249671","261086","18.3847","-65.9633","(18.3847, -65.9633)"
"148321","CAROLINA","BUENA VISTA",,,,"URB","VILLA CAROLINA 5TA SECC",,"218-14",,"CALLE","502",,"985","PR","249505","264593","18.4164","-65.9648","(18.4164, -65.9648)"
"148311","CAROLINA","MARTIN GONZALEZ",,,,"URB","VILLA CAROLINA 1RA SECC",,"F-21",,"CALLE","3",,"985","PR","249673","261059","18.3844","-65.9633","(18.3844, -65.9633)"
"148309","CAROLINA","MARTIN GONZALEZ",,,,"URB","VILLA CAROLINA 1RA SECC",,"F-20",,"CALLE","3",,"985","PR","249675","261046","18.3843","-65.9633","(18.3843, -65.9633)"
"148307","CAROLINA","MARTIN GONZALEZ",,,,"URB","ROLLING HILLS",,"T-396",,"CALLE","MEXICO",,"987","PR","247734","260732","18.3815","-65.9816","(18.3815, -65.9816)"
"148298","CAROLINA","MARTIN GONZALEZ",,,,"URB","VILLA CAROLINA 1RA SECC",,"F-18",,"CALLE","3",,"985","PR","249679","261023","18.3841","-65.9632","(18.3841, -65.9632)"
"276061","SAN JUAN","SABANA LLANA NORTE",,,,"URB","REPTO SEVILLA",,"944",,"CALLE","SARASATE",,"924","PR","243714","262667","18.3991","-66.0196","(18.3991, -66.0196)"
"275923","SAN JUAN","SABANA LLANA NORTE",,,,"URB","COUNTRY CLUB",,"960",,"CALLE","HALCON",,"924","PR","245144","263432","18.406","-66.0061","(18.406, -66.0061)"
"275902","SAN JUAN","SABANA LLANA SUR",,,,"URB","CLUB MANOR",,"1221",,"CALLE","MARIANO ABRIL",,"924","PR","244835","262130","18.3942","-66.009","(18.3942, -66.009)"
"275866","SAN JUAN","SABANA LLANA NORTE",,,,"URB","REPTO SEVILLA",,"939",,"CALLE","SARASATE",,"924","PR","243680","262709","18.3995","-66.0199","(18.3995, -66.0199)"
"275837","SAN JUAN","SABANA LLANA NORTE",,,,"URB","COUNTRY CLUB",,"954",,"CALLE","HALCON",,"924","PR","245114","263455","18.4062","-66.0064","(18.4062, -66.0064)"
"275822","SAN JUAN","SABANA LLANA NORTE",,,,"URB","REPTO SEVILLA",,"923",,"CALLE","SARASATE",,"924","PR","243657","262829","18.4005","-66.0202","(18.4005, -66.0202)"
"275786","SAN JUAN","SABANA LLANA NORTE",,,,"URB","COUNTRY CLUB",,"936",,"CALLE","HALCON",,"924","PR","245082","263482","18.4064","-66.0067","(18.4064, -66.0067)"
"277672","SAN JUAN","EL CINCO",,,,"URB","VILLA NEVAREZ",,"1130",,"CALLE","9",,"927","PR","238624","261822","18.3915","-66.0678","(18.3915, -66.0678)"
"277665","SAN JUAN","ORIENTE",,,,"URB","VILLA GRANADA",,"978",,"CALLE","ALCAZAR",,"923","PR","242326","262663","18.3991","-66.0328","(18.3991, -66.0328)"
"277656","SAN JUAN","ORIENTE",,,,"URB","VILLA GRANADA",,"980",,"CALLE","ALCAZAR",,"923","PR","242324","262651","18.399","-66.0328","(18.399, -66.0328)"
"278075","SAN JUAN","EL CINCO",,,,"URB","VILLA NEVAREZ",,"1120",,"CALLE","7",,"927","PR","238491","261878","18.392","-66.0691","(18.392, -66.0691)"
"277959","SAN JUAN","ORIENTE",,,,"URB","VILLA GRANADA",,"950",,"CALLE","ALCAZAR",,"923","PR","242348","262843","18.4007","-66.0325","(18.4007, -66.0325)"
"277803","SAN JUAN","ORIENTE",,,,"URB","SAN JOSE",,"384",,"CALLE","VILLALBA",,"923","PR","241537","265465","18.4244","-66.0402","(18.4244, -66.0402)"
"277767","SAN JUAN","ORIENTE",,,,"URB","VILLA GRANADA",,"966",,"CALLE","ALCAZAR",,"923","PR","242335","262742","18.3998","-66.0327","(18.3998, -66.0327)"
"278414","SAN JUAN","SABANA LLANA NORTE",,,,"URB","REPTO SEVILLA",,"948",,"CALLE","VERDI",,"924","PR","243774","262644","18.3989","-66.0191","(18.3989, -66.0191)"
"278261","SAN JUAN","SABANA LLANA NORTE",,,,"URB","REPTO SEVILLA",,"933",,"CALLE","VERDI",,"924","PR","243725","262763","18.3999","-66.0195","(18.3999, -66.0195)"
"278237","SAN JUAN","SABANA LLANA NORTE",,,,"URB","COUNTRY CLUB",,"965",,"CALLE","ESPIONCELA",,"924","PR","245177","263351","18.4052","-66.0058","(18.4052, -66.0058)"
"278630","SAN JUAN","SABANA LLANA NORTE",,,,"URB","COUNTRY CLUB",,"984",,"CALLE","EIDER",,"924","PR","245314","263256","18.4044","-66.0045","(18.4044, -66.0045)"
"278559","SAN JUAN","SABANA LLANA NORTE",,,,"URB","REPTO SEVILLA",,"942",,"CALLE","VERDI",,"924","PR","243765","262690","18.3993","-66.0191","(18.3993, -66.0191)"
"278429","SAN JUAN","SABANA LLANA NORTE",,,,"URB","REPTO SEVILLA",,"946",,"CALLE","VERDI",,"924","PR","243771","262660","18.399","-66.0191","(18.399, -66.0191)"
"278378","SAN JUAN","SABANA LLANA NORTE",,,,"URB","COUNTRY CLUB",,"962",,"CALLE","ESPIONCELA",,"924","PR","245146","263332","18.4051","-66.0061","(18.4051, -66.0061)"
"278359","SAN JUAN","SABANA LLANA SUR",,,,"URB","CLUB MANOR",,"1210",,"CALLE","RAFAEL ARCELAY",,"924","PR","244959","262234","18.3951","-66.0078","(18.3951, -66.0078)"
"227227","CAROLINA","TRUJILLO BAJO",,,,"PARC"," ",,"278",,"CALLE","CLAVEL",,"987","PR","252209","259568","18.3709","-65.9393","(18.3709, -65.9393)"
"227212","CAROLINA","TRUJILLO BAJO",,,,"URB","MANS DE CAROLINA",,"UU-46",,"CALLE","YUNQUESITO",,"987","PR","252628","259214","18.3677","-65.9354","(18.3677, -65.9354)"
"227314","CAROLINA","MARTIN GONZALEZ",,,,"URB","METROPOLIS 3RA SECC",,"2G-24",,"CALLE","37",,"987","PR","247745","258844","18.3645","-65.9816","(18.3645, -65.9816)"
"226044","CAROLINA","SABANA ABAJO",,,,"URB","CASTELLANA GARDENS",,"C-4",,"CALLE","2",,"983","PR","247970","264991","18.42","-65.9793","(18.42, -65.9793)"
"226026","CAROLINA","SABANA ABAJO",,,,"URB","CASTELLANA GARDENS",,"C-6",,"CALLE","2",,"983","PR","247996","264994","18.42","-65.979","(18.42, -65.979)"
"226025","CAROLINA","MARTIN GONZALEZ",,,,"URB","PASEO DEL PRADO",,"111",,"CALLE","ALBORADA",,"985","PR","248421","261130","18.3851","-65.9751","(18.3851, -65.9751)"
"225993","CAROLINA","SABANA ABAJO",,,,"URB","CASTELLANA GARDENS",,"C-8",,"CALLE","2",,"983","PR","248024","264996","18.42","-65.9788","(18.42, -65.9788)"
"225984","CAROLINA","SABANA ABAJO",,,,"URB","CASTELLANA GARDENS",,"C-9",,"CALLE","2",,"983","PR","248037","264997","18.42","-65.9787","(18.42, -65.9787)"
"225952","CAROLINA","SABANA ABAJO",,,,"URB","CASTELLANA GARDENS",,"B-12",,"CALLE","2",,"983","PR","248040","264975","18.4198","-65.9786","(18.4198, -65.9786)"
"226066","CAROLINA","MARTIN GONZALEZ",,,,"URB","VILLAS DEL SOL",,"316",,"CALLE","TORREMOLINOS",,"985","PR","249357","261274","18.3864","-65.9663","(18.3864, -65.9663)"
"225793","CAROLINA","SABANA ABAJO",,,,"URB","CASTELLANA GARDENS",,"B-18",,"CALLE","2",,"983","PR","247959","264971","18.4198","-65.9794","(18.4198, -65.9794)"
"225784","CAROLINA","SABANA ABAJO",,,,"URB","CASTELLANA GARDENS",,"B-19",,"CALLE","2",,"983","PR","247948","264968","18.4198","-65.9795","(18.4198, -65.9795)"
"227296","CAROLINA","MARTIN GONZALEZ",,,,"URB","METROPOLIS 3RA SECC",,"2G-23-A",,"CALLE","37",,"987","PR","247755","258850","18.3645","-65.9815","(18.3645, -65.9815)"
"227286","CAROLINA","TRUJILLO BAJO",,,,"PARC"," ",,"273-A",,"CALLE","CLAVEL",,"987","PR","252329","259490","18.3702","-65.9382","(18.3702, -65.9382)"
"227262","CAROLINA","TRUJILLO BAJO",,,,"PARC"," ",,"276",,"CALLE","CLAVEL",,"987","PR","252248","259544","18.3707","-65.9389","(18.3707, -65.9389)"
"227336","CAROLINA","TRUJILLO BAJO",,,,"PARC"," ",,"268",,"CALLE","CLAVEL",,"987","PR","252425","259423","18.3696","-65.9373","(18.3696, -65.9373)"
"227335","CAROLINA","MARTIN GONZALEZ",,,,"URB","EST DE SAN FERNANDO",,"C-1",,"CALLE","1",,"985","PR","249202","261548","18.3889","-65.9677","(18.3889, -65.9677)"
"227326","CAROLINA","MARTIN GONZALEZ",,,,"URB","METROPOLIS 3RA SECC",,"2G-25",,"CALLE","37",,"987","PR","247735","258835","18.3644","-65.9817","(18.3644, -65.9817)"
"227352","CAROLINA","MARTIN GONZALEZ",,,,"URB","METROPOLIS 3RA SECC",,"2G-27",,"CALLE","37",,"987","PR","247710","258824","18.3643","-65.9819","(18.3643, -65.9819)"
"227389","CAROLINA","MARTIN GONZALEZ",,,,"URB","METROPOLIS 3RA SECC",,"2G-29",,"CALLE","37",,"987","PR","247688","258811","18.3642","-65.9821","(18.3642, -65.9821)"
"227571","CAROLINA","MARTIN GONZALEZ",,,,"URB","METROPOLIS 3RA SECC",,"2H-5",,"CALLE","41",,"987","PR","247568","258676","18.3629","-65.9832","(18.3629, -65.9832)"
"227560","CAROLINA","MARTIN GONZALEZ",,,,"URB","METROPOLIS 3RA SECC",,"2H-4",,"CALLE","41",,"987","PR","247576","258667","18.3629","-65.9832","(18.3629, -65.9832)"
"227554","CAROLINA","MARTIN GONZALEZ",,,,"URB","METROPOLIS 3RA SECC",,"2H-3",,"CALLE","41",,"987","PR","247582","258654","18.3627","-65.9831","(18.3627, -65.9831)"
"100123","SAN JUAN","ORIENTE",,,,"URB","ROSENDO MATIENZO CINTRON",,"508",,"CALLE","PRUNA",,"923","PR","242380","264052","18.4116","-66.0322","(18.4116, -66.0322)"
"100090","SAN JUAN","ORIENTE",,,,"URB","ROSENDO MATIENZO CINTRON",,"512",,"CALLE","PRUNA",,"923","PR","242408","264044","18.4115","-66.032","(18.4115, -66.032)"
"99103","SAN JUAN","SABANA LLANA NORTE",,,,"URB","COUNTRY CLUB",,"1026",,"CALLE","ANA DE CAUZOS",,"924","PR","245902","263655","18.408","-65.9989","(18.408, -65.9989)"
"98972","SAN JUAN","SABANA LLANA SUR",,,,"URB","PARK GARDENS",,"T-17",,"CALLE","HOT SPRINGS",,"926","PR","242031","261469","18.3883","-66.0356","(18.3883, -66.0356)"
"98876","SAN JUAN","SABANA LLANA SUR",,,,"URB","PARK GARDENS",,"T-3",,"CALLE","GETTYSBURG",,"926","PR","242090","261467","18.3883","-66.035","(18.3883, -66.035)"
"98870","SAN JUAN","SABANA LLANA NORTE",,,,"URB","COUNTRY CLUB",,"1046",,"CALLE","ANA DE CAUZOS",,"924","PR","246005","263574","18.4072","-65.9979","(18.4072, -65.9979)"
"98866","SAN JUAN","SABANA LLANA SUR",,,,"URB","PARK GARDENS",,"T-2",,"CALLE","GETTYSBURG",,"926","PR","242096","261454","18.3881","-66.035","(18.3881, -66.035)"
"98855","SAN JUAN","SABANA LLANA SUR",,,,"URB","PARK GARDENS",,"N-12",,"CALLE","GETTYSBURG",,"926","PR","242122","261466","18.3883","-66.0347","(18.3883, -66.0347)"
"98854","SAN JUAN","SABANA LLANA NORTE",,,,"URB","COUNTRY CLUB",,"1043",,"CALLE","FELIX DE AZARA",,"924","PR","245964","263564","18.4071","-65.9983","(18.4071, -65.9983)"
"98845","SAN JUAN","SABANA LLANA NORTE",,,,"URB","COUNTRY CLUB",,"1041",,"CALLE","FELIX DE AZARA",,"924","PR","245953","263571","18.4072","-65.9984","(18.4072, -65.9984)"
"98752","SAN JUAN","SABANA LLANA SUR",,,,"URB","PARK GARDENS",,"N-7",,"CALLE","GETTYSBURG",,"926","PR","242067","261532","18.3889","-66.0352","(18.3889, -66.0352)"
"98737","SAN JUAN","SABANA LLANA SUR",,,,"URB","HIGHLAND PARK",,"696",,"CALLE","CACTUS",,"924","PR","243555","261711","18.3904","-66.0211","(18.3904, -66.0211)"
"98729","SAN JUAN","SABANA LLANA SUR",,,,"URB","HIGHLAND PARK",,"700",,"CALLE","CACTUS",,"924","PR","243581","261734","18.3907","-66.0209","(18.3907, -66.0209)"
"98721","SAN JUAN","SABANA LLANA SUR",,,,"URB","HIGHLAND PARK",,"702",,"CALLE","CACTUS",,"924","PR","243597","261739","18.3907","-66.0208","(18.3907, -66.0208)"
"98665","SAN JUAN","SABANA LLANA SUR",,,,"URB","PARK GARDENS",,"U-16",,"CALLE","HOT SPRINGS",,"926","PR","241949","261491","18.3885","-66.0364","(18.3885, -66.0364)"
"98662","SAN JUAN","SABANA LLANA NORTE",,,,"URB","COUNTRY CLUB",,"1031",,"CALLE","FELIX DE AZARA",,"924","PR","245901","263612","18.4076","-65.9989","(18.4076, -65.9989)"
"98640","SAN JUAN","SABANA LLANA NORTE",,,,"URB","COUNTRY CLUB",,"1029",,"CALLE","FELIX DE AZARA",,"924","PR","245892","263621","18.4076","-65.999","(18.4076, -65.999)"
"98686","SAN JUAN","SABANA LLANA NORTE",,,,"URB","COUNTRY CLUB",,"1035",,"CALLE","FELIX DE AZARA",,"924","PR","245923","263595","18.4074","-65.9987","(18.4074, -65.9987)"
"98626","SAN JUAN","SABANA LLANA NORTE",,,,"PARC"," ",,"506-B",,"CALLE","21",,"924","PR","243454","263924","18.4104","-66.0221","(18.4104, -66.0221)"
"98598","SAN JUAN","SABANA LLANA SUR",,,,"URB","HIGHLAND PARK",,"718",,"CALLE","CACTUS",,"924","PR","243717","261799","18.3912","-66.0196","(18.3912, -66.0196)"
"98583","SAN JUAN","SABANA LLANA SUR",,,,"URB","PARK GARDENS",,"U-12",,"CALLE","HOT SPRINGS",,"926","PR","241999","261457","18.3882","-66.0359","(18.3882, -66.0359)"
"98563","SAN JUAN","SABANA LLANA NORTE",,,,"URB","COUNTRY CLUB",,"1023",,"CALLE","FELIX DE AZARA",,"924","PR","245859","263644","18.4079","-65.9993","(18.4079, -65.9993)"
"108943","CAROLINA","SABANA ABAJO",,,,"URB","COUNTRY CLUB",,"PC-10",,"CALLE","274",,"982","PR","246729","264346","18.4142","-65.9911","(18.4142, -65.9911)"
"108926","CAROLINA","SABANA ABAJO",,,,"URB","VALLE ARRIBA HEIGHT",,"D-4",,"CALLE","CEDRO",,"983","PR","249107","264037","18.4113","-65.9685","(18.4113, -65.9685)"
"108903","CAROLINA","SABANA ABAJO",,,,"URB","VISTAMAR",,"N-761",,"CALLE","ALMERIA",,"983","PR","247613","265844","18.4277","-65.9827","(18.4277, -65.9827)"
"108901","CAROLINA","SABANA ABAJO",,,,"URB","COUNTRY CLUB",,"PC-11",,"CALLE","274",,"982","PR","246745","264351","18.4142","-65.9909","(18.4142, -65.9909)"
"108892","CAROLINA","SABANA ABAJO",,,,"URB","VALLE ARRIBA HEIGHT",,"D-3",,"CALLE","CEDRO",,"983","PR","249131","264035","18.4113","-65.9683","(18.4113, -65.9683)"
"108828","CAROLINA","SABANA ABAJO",,,,"URB","COUNTRY CLUB",,"PC-15",,"CALLE","266",,"982","PR","246711","264303","18.4138","-65.9912","(18.4138, -65.9912)"
"108821","CAROLINA","SABANA ABAJO",,,,"URB","VISTAMAR",,"N-718",,"CALLE","SEGOVIA",,"983","PR","247727","265828","18.4276","-65.9816","(18.4276, -65.9816)"
"108816","CAROLINA","SABANA ABAJO",,,,"URB","VISTAMAR",,"BN-719",,"CALLE","SEGOVIA",,"983","PR","247742","265827","18.4275","-65.9814","(18.4275, -65.9814)"
"108810","CAROLINA","SABANA ABAJO",,,,"URB","VISTAMAR",,"N-720",,"CALLE","SEGOVIA",,"983","PR","247753","265829","18.4276","-65.9813","(18.4276, -65.9813)"
"108807","CAROLINA","SABANA ABAJO",,,,"URB","COUNTRY CLUB",,"PC-17",,"CALLE","266",,"982","PR","246684","264296","18.4137","-65.9915","(18.4137, -65.9915)"
"108791","CAROLINA","SABANA ABAJO",,,,"URB","COUNTRY CLUB",,"PC-19",,"CALLE","266",,"982","PR","246657","264290","18.4137","-65.9917","(18.4137, -65.9917)"
"108771","CAROLINA","SABANA ABAJO",,,,"URB","COUNTRY CLUB",,"PC-20",,"CALLE","266",,"982","PR","246643","264287","18.4136","-65.9919","(18.4136, -65.9919)"
"108752","CAROLINA","SABANA ABAJO",,,,"URB","VISTAMAR",,"BN-725",,"CALLE","SEGOVIA",,"983","PR","247819","265840","18.4277","-65.9807","(18.4277, -65.9807)"
"109283","CAROLINA","CANOVANILLAS",,,,"URB","PARQ ECUESTRE",,"D-36",,"CALLE","COLABORADOR",,"987","PR","253430","259417","18.3695","-65.9278","(18.3695, -65.9278)"
"109278","CAROLINA","SAN ANTON",,,,"URB","PASEO DE LA ALHAMBRA",,"28",,"CALLE","GENERALIFE",,"987","PR","247475","261707","18.3903","-65.9841","(18.3903, -65.9841)"
"109277","CAROLINA","BUENA VISTA",,,,"URB","JARDS DE BORINQUEN",,"U-32",,"CALLE","GRANADA",,"985","PR","250574","262736","18.3996","-65.9547","(18.3996, -65.9547)"
"109273","CAROLINA","BUENA VISTA",,,,"URB","JARDS DE BORINQUEN",,"U-33",,"CALLE","GRANADA",,"985","PR","250585","262750","18.3997","-65.9546","(18.3997, -65.9546)"
"109264","CAROLINA","BUENA VISTA",,,,"URB","JARDS DE BORINQUEN",,"U-36",,"CALLE","GRANADA",,"985","PR","250620","262754","18.3997","-65.9543","(18.3997, -65.9543)"
"109333","CAROLINA","BUENA VISTA",,,,"URB","JARDS DE BORINQUEN",,"U-26",,"CALLE","GRANADA",,"985","PR","250503","262709","18.3993","-65.9554","(18.3993, -65.9554)"
"109407","CAROLINA","BUENA VISTA",,,,"URB","VILLA CAROLINA 3RA SECC",,"131-36",,"CALLE","100",,"985","PR","249558","262945","18.4015","-65.9643","(18.4015, -65.9643)"
"109370","CAROLINA","SAN ANTON",,,,"URB","PASEO DE LA ALHAMBRA",,"33",,"CALLE","GENERALIFE",,"987","PR","247471","261772","18.3909","-65.9841","(18.3909, -65.9841)"
"109352","CAROLINA","BUENA VISTA",,,,"URB","VILLA CAROLINA 3RA SECC",,"131-32",,"CALLE","100",,"985","PR","249612","262946","18.4015","-65.9638","(18.4015, -65.9638)"
"109349","CAROLINA","CANOVANILLAS",,,,"URB","PARQ ECUESTRE",,"D-34",,"CALLE","COLABORADOR",,"987","PR","253433","259444","18.3697","-65.9277","(18.3697, -65.9277)"
"109348","CAROLINA","BUENA VISTA",,,,"URB","JARDS DE BORINQUEN",,"U-24",,"CALLE","GRANADA",,"985","PR","250485","262702","18.3992","-65.9555","(18.3992, -65.9555)"
"459932","CAROLINA","BUENA VISTA",,,,"URB","VILLA CAROLINA",,"144-9",,"CALLE","412",,"985","PR","249894","263691","18.4082","-65.9611","(18.4082, -65.9611)"
"459918","CAROLINA","BUENA VISTA",,,,"URB","VILLA CAROLINA",,"144-7",,"CALLE","412",,"985","PR","249892","263664","18.4079","-65.9611","(18.4079, -65.9611)"
"459837","CAROLINA","BUENA VISTA",,,,"URB","VILLA CAROLINA",,"144-2",,"CALLE","412",,"985","PR","249895","263595","18.4073","-65.9611","(18.4073, -65.9611)"
"459804","CAROLINA","CANOVANILLAS",,,,"SECT"," ",," ",,"CARR","857 INT KM 0.6",,"985","PR","252909","259474","18.37","-65.9327","(18.37, -65.9327)"
"459765","CAROLINA","BUENA VISTA",,,,"URB","VILLA CAROLINA",,"143-21",,"CALLE","410",,"985","PR","249880","263554","18.407","-65.9612","(18.407, -65.9612)"
"459754","CAROLINA","BUENA VISTA",,,,"URB","VILLA CAROLINA",,"143-23",,"CALLE","410",,"985","PR","249854","263556","18.407","-65.9615","(18.407, -65.9615)"
"459706","CAROLINA","BUENA VISTA",,,,"URB","VILLA CAROLINA",,"140-2",,"CALLE","401",,"985","PR","249856","263517","18.4066","-65.9615","(18.4066, -65.9615)"
"347303","CAROLINA","BUENA VISTA",,,,"URB","VILLA CAROLINA 6TA SECC",,"232-11",,"CALLE","610",,"985","PR","249925","264934","18.4194","-65.9608","(18.4194, -65.9608)"
"347565","CAROLINA","CANOVANILLAS",,,,"URB","ALTS DEL PARQ",,"H-6",,"CALLE","YCARO",,"987","PR","253639","258626","18.3623","-65.9258","(18.3623, -65.9258)"
"347328","CAROLINA","BUENA VISTA",,,,"URB","VILLA CAROLINA 6TA SECC",,"232-5",,"CALLE","610",,"985","PR","249921","265020","18.4202","-65.9608","(18.4202, -65.9608)"
"347320","CAROLINA","BUENA VISTA",,,,"URB","VILLA CAROLINA",,"181-39",,"CALLE","443",,"985","PR","250316","263996","18.4109","-65.9571","(18.4109, -65.9571)"
"347318","CAROLINA","BUENA VISTA",,,,"URB","VILLA CAROLINA 6TA SECC",,"232-8",,"CALLE","610",,"985","PR","249923","264978","18.4198","-65.9608","(18.4198, -65.9608)"
"347404","CAROLINA","BUENA VISTA",,,,"URB","VILLA CAROLINA",,"181-36",,"CALLE","443",,"985","PR","250323","263958","18.4106","-65.957","(18.4106, -65.957)"
"347499","CAROLINA","BUENA VISTA",,,,"URB","VILLA CAROLINA 6TA SECC",,"232-3",,"CALLE","610",,"985","PR","249919","265046","18.4204","-65.9608","(18.4204, -65.9608)"
"347488","CAROLINA","BUENA VISTA",,,,"URB","VILLA CAROLINA 6TA SECC",,"232-4",,"CALLE","610",,"985","PR","249920","265033","18.4203","-65.9608","(18.4203, -65.9608)"
"347480","CAROLINA","BUENA VISTA",,,,"URB","VILLA CAROLINA",,"174-1",,"CALLE","443",,"985","PR","250352","263863","18.4097","-65.9568","(18.4097, -65.9568)"
"347696","CAROLINA","BUENA VISTA",,,,"URB","VILLA CAROLINA 6TA SECC",,"230-13",,"CALLE","609",,"985","PR","249873","265098","18.4209","-65.9613","(18.4209, -65.9613)"
"347647","CAROLINA","BUENA VISTA",,,,"URB","VILLA CAROLINA 6TA SECC",,"230-18",,"CALLE","609",,"985","PR","249942","265100","18.4209","-65.9606","(18.4209, -65.9606)"
"347623","CAROLINA","BUENA VISTA",,,,"URB","VILLA CAROLINA",,"174-5",,"CALLE","443",,"985","PR","250364","263809","18.4092","-65.9567","(18.4092, -65.9567)"
"347775","CAROLINA","BUENA VISTA",,,,"URB","VILLA CAROLINA",,"181-29",,"CALLE","435",,"985","PR","250375","263914","18.4102","-65.9566","(18.4102, -65.9566)"
"347796","CAROLINA","BUENA VISTA",,,,"URB","VILLA CAROLINA 6TA SECC",,"230-8",,"CALLE","609",,"985","PR","249836","265058","18.4205","-65.9616","(18.4205, -65.9616)"
"348134","CAROLINA","SABANA ABAJO",,,,"URB","VILLA FONTANA",,"4JS-10",,"CALLE","VIA 49",,"983","PR","248779","262169","18.3945","-65.9717","(18.3945, -65.9717)"
"348103","CAROLINA","BUENA VISTA",,,,"URB","VILLA CAROLINA",,"181-16",,"CALLE","419",,"985","PR","250294","264045","18.4114","-65.9573","(18.4114, -65.9573)"
"348076","CAROLINA","BUENA VISTA",,,,"URB","VILLA CAROLINA",,"181-17",,"CALLE","419",,"985","PR","250307","264050","18.4114","-65.9572","(18.4114, -65.9572)"
"227489","CAROLINA","MARTIN GONZALEZ",,,,"URB","METROPOLIS 3RA SECC",,"2G-42",,"CALLE","37",,"987","PR","247540","258733","18.3635","-65.9835","(18.3635, -65.9835)"
"227487","CAROLINA","MARTIN GONZALEZ",,,,"URB","METROPOLIS 3RA SECC",,"2G-41",,"CALLE","37",,"987","PR","247549","258743","18.3635","-65.9834","(18.3635, -65.9834)"
"227485","CAROLINA","MARTIN GONZALEZ",,,,"URB","METROPOLIS 3RA SECC",,"2G-40",,"CALLE","37",,"987","PR","247561","258749","18.3636","-65.9833","(18.3636, -65.9833)"
"227483","CAROLINA","MARTIN GONZALEZ",,,,"URB","METROPOLIS 3RA SECC",,"2G-39",,"CALLE","37",,"987","PR","247571","258754","18.3636","-65.9832","(18.3636, -65.9832)"
"227479","CAROLINA","MARTIN GONZALEZ",,,,"URB","METROPOLIS 3RA SECC",,"2G-37",,"CALLE","37",,"987","PR","247584","258760","18.3637","-65.9831","(18.3637, -65.9831)"
"227476","CAROLINA","MARTIN GONZALEZ",,,,"URB","METROPOLIS 3RA SECC",,"2G-37",,"CALLE","37",,"987","PR","247596","258764","18.3637","-65.983","(18.3637, -65.983)"
"227465","CAROLINA","MARTIN GONZALEZ",,,,"URB","METROPOLIS 3RA SECC",,"2G-36",,"CALLE","37",,"987","PR","247606","258773","18.3638","-65.9829","(18.3638, -65.9829)"
"227452","CAROLINA","TRUJILLO BAJO",,,,"URB","MANS DE CAROLINA",,"HH-4",,"CALLE","PINTO",,"987","PR","252600","259138","18.367","-65.9356","(18.367, -65.9356)"
"227393","CAROLINA","MARTIN GONZALEZ",,,,"URB","METROPOLIS 3RA SECC",,"2G-30",,"CALLE","37",,"987","PR","247675","258808","18.3641","-65.9822","(18.3641, -65.9822)"
"227577","CAROLINA","CEDRO",,,," "," ",," ",,"CARR","185 KM 12",,"985","PR","255298","251372","18.2968","-65.9103","(18.2968, -65.9103)"
"227719","CAROLINA","MARTIN GONZALEZ",,,,"URB","METROPOLIS 3RA SECC",,"2H-21",,"CALLE","39",,"987","PR","247659","258732","18.3634","-65.9824","(18.3634, -65.9824)"
"227692","CAROLINA","TRUJILLO BAJO",,,,"URB","MANS DE CAROLINA",,"KK-23",,"CALLE","YAUREL",,"987","PR","252428","259112","18.3668","-65.9372","(18.3668, -65.9372)"
"227681","CAROLINA","TRUJILLO BAJO",,,,"URB","MANS DE CAROLINA",,"KK-20",,"CALLE","YAUREL",,"987","PR","252465","259088","18.3665","-65.9369","(18.3665, -65.9369)"
"227678","CAROLINA","TRUJILLO BAJO",,,,"URB","MANS DE CAROLINA",,"KK-19",,"CALLE","YAUREL",,"987","PR","252476","259077","18.3665","-65.9368","(18.3665, -65.9368)"
"227671","CAROLINA","MARTIN GONZALEZ",,,,"URB","METROPOLIS 3RA SECC",,"2H-19",,"CALLE","39",,"987","PR","247646","258758","18.3637","-65.9825","(18.3637, -65.9825)"
"227669","CAROLINA","MARTIN GONZALEZ",,,,"URB","METROPOLIS 3RA SECC",,"2H-18",,"CALLE","40",,"987","PR","247605","258736","18.3635","-65.9829","(18.3635, -65.9829)"
"227667","CAROLINA","MARTIN GONZALEZ",,,,"URB","METROPOLIS 3RA SECC",,"2H-17",,"CALLE","40",,"987","PR","247612","258721","18.3633","-65.9828","(18.3633, -65.9828)"
"227659","CAROLINA","MARTIN GONZALEZ",,,,"URB","METROPOLIS 3RA SECC",,"2H-13",,"CALLE","40",,"987","PR","247625","258674","18.3629","-65.9827","(18.3629, -65.9827)"
"227657","CAROLINA","MARTIN GONZALEZ",,,,"URB","METROPOLIS 3RA SECC",,"2H-12",,"CALLE","40",,"987","PR","247612","258670","18.3629","-65.9828","(18.3629, -65.9828)"
"227640","CAROLINA","MARTIN GONZALEZ",,,,"URB","METROPOLIS 3RA SECC",,"2H-11",,"CALLE","40",,"987","PR","247609","258690","18.3631","-65.9829","(18.3631, -65.9829)"
"227633","CAROLINA","TRUJILLO BAJO",,,,"URB","MANS DE CAROLINA",,"KK-17",,"CALLE","YAUREL",,"987","PR","252497","259064","18.3663","-65.9366","(18.3663, -65.9366)"
"227632","CAROLINA","MARTIN GONZALEZ",,,,"URB","EST DE SAN FERNANDO",,"A-6",,"CALLE","1",,"985","PR","249122","261561","18.389","-65.9685","(18.389, -65.9685)"
"227616","CAROLINA","TRUJILLO BAJO",,,,"URB","MANS DE CAROLINA",,"HH-11",,"CALLE","PINTO",,"987","PR","252543","259055","18.3662","-65.9362","(18.3662, -65.9362)"
"148451","CAROLINA","MARTIN GONZALEZ",,,,"URB","VILLA CAROLINA 1RA SECC",,"E-23",,"CALLE","3",,"985","PR","249665","260930","18.3833","-65.9633","(18.3833, -65.9633)"
"148422","CAROLINA","MARTIN GONZALEZ",,,,"URB","ROLLING HILLS",,"T-380",,"CALLE","MEXICO",,"987","PR","247731","260701","18.3812","-65.9817","(18.3812, -65.9817)"
"148592","CAROLINA","BUENA VISTA",,,,"URB","VILLA CAROLINA 5TA SECC",,"216-5",,"CALLE","505",,"985","PR","249621","264705","18.4174","-65.9637","(18.4174, -65.9637)"
"148472","CAROLINA","MARTIN GONZALEZ",,,,"URB","VILLA CAROLINA 1RA SECC",,"E-25",,"CALLE","3",,"985","PR","249672","260904","18.383","-65.9633","(18.383, -65.9633)"
"148459","CAROLINA","MARTIN GONZALEZ",,,,"URB","VILLA CAROLINA 1RA SECC",,"E-24",,"CALLE","3",,"985","PR","249668","260919","18.3832","-65.9633","(18.3832, -65.9633)"
"148519","CAROLINA","MARTIN GONZALEZ",,,,"URB","ROLLING HILLS",,"T-373",,"CALLE","MEXICO",,"987","PR","247658","260648","18.3807","-65.9823","(18.3807, -65.9823)"
"148517","CAROLINA","MARTIN GONZALEZ",,,,"URB","ROLLING HILLS",,"T-375",,"CALLE","MEXICO",,"987","PR","247680","260660","18.3809","-65.9821","(18.3809, -65.9821)"
"148502","CAROLINA","BUENA VISTA",,,,"URB","VILLA CAROLINA 5TA SECC",,"218-20",,"CALLE","502",,"985","PR","249557","264594","18.4164","-65.9643","(18.4164, -65.9643)"
"148496","CAROLINA","CANOVANILLAS",,,,"SECT"," ",," ",,"CARR","859 KM 4.9",,"985","PR","253345","255983","18.3385","-65.9286","(18.3385, -65.9286)"
"148605","CAROLINA","BUENA VISTA",,,,"URB","VILLA CAROLINA 5TA SECC",,"216-6",,"CALLE","505",,"985","PR","249621","264712","18.4174","-65.9637","(18.4174, -65.9637)"
"148684","CAROLINA","MARTIN GONZALEZ",,,,"URB","VILLA CAROLINA 1RA SECC",,"E-28",,"CALLE","3",,"985","PR","249673","260864","18.3827","-65.9633","(18.3827, -65.9633)"
"148948","CAROLINA","BUENA VISTA",,,,"URB","VILLA CAROLINA 5TA SECC",,"216-16",,"CALLE","501",,"985","PR","249579","264831","18.4185","-65.9641","(18.4185, -65.9641)"
"148272","CAROLINA","MARTIN GONZALEZ",,,,"URB","VILLA CAROLINA 1RA SECC",,"F-14",,"CALLE","3",,"985","PR","249685","260968","18.3836","-65.9632","(18.3836, -65.9632)"
"148251","CAROLINA","MARTIN GONZALEZ",,,,"URB","VILLA CAROLINA 1RA SECC",,"F-11",,"CALLE","3",,"985","PR","249690","260930","18.3833","-65.9631","(18.3833, -65.9631)"
"147042","CAROLINA","SABANA ABAJO",,,,"URB","JARDS DE COUNTRY CLUB",,"BT-40",,"CALLE","125",,"983","PR","248529","265104","18.421","-65.974","(18.421, -65.974)"
"147038","CAROLINA","SABANA ABAJO",,,,"URB","VALLE ARRIBA HEIGHT",,"AH-1",,"CALLE","PINO",,"983","PR","248799","263612","18.4075","-65.9715","(18.4075, -65.9715)"
"147108","CAROLINA","SABANA ABAJO",,,,"URB","VILLA FLORES",,"803",,"CALLE","GRACE",,"982","PR","247471","262646","18.3988","-65.9841","(18.3988, -65.9841)"
"147070","CAROLINA","SABANA ABAJO",,,,"URB","JARDS DE COUNTRY CLUB",,"BT-37",,"CALLE","125",,"983","PR","248521","265139","18.4213","-65.9741","(18.4213, -65.9741)"
"147064","CAROLINA","SABANA ABAJO",,,,"URB","VALLE ARRIBA HEIGHT",,"AJ-8",,"CALLE","YAGRUMO",,"983","PR","248766","263606","18.4075","-65.9718","(18.4075, -65.9718)"
"146998","CAROLINA","SABANA ABAJO",,,,"URB","VALLE ARRIBA HEIGHT",,"A-H3",,"CALLE","PINO",,"983","PR","248806","263655","18.4079","-65.9714","(18.4079, -65.9714)"
"146982","CAROLINA","SABANA ABAJO",,,,"URB","JARDS DE COUNTRY CLUB",,"BT-2",,"CALLE","123",,"983","PR","248494","265071","18.4207","-65.9743","(18.4207, -65.9743)"
"146981","CAROLINA","SABANA ABAJO",,,,"URB","VALLE ARRIBA HEIGHT",,"H-4",,"CALLE","PINO",,"983","PR","248804","263667","18.408","-65.9714","(18.408, -65.9714)"
"146978","CAROLINA","SABANA ABAJO",,,,"URB","VILLA FLORES",,"727",,"CALLE","CALAIS",,"982","PR","247539","262615","18.3985","-65.9834","(18.3985, -65.9834)"
"98553","SAN JUAN","SABANA LLANA NORTE",,,,"PARC"," ",,"503",,"CALLE","21",,"924","PR","243482","263880","18.41","-66.0218","(18.41, -66.0218)"
"98531","SAN JUAN","SABANA LLANA SUR",,,,"URB","PARK GARDENS",,"U-7",,"CALLE","JASPER",,"926","PR","242002","261388","18.3876","-66.0359","(18.3876, -66.0359)"
"98530","SAN JUAN","SABANA LLANA SUR",,,,"URB","HIGHLAND PARK",,"724",,"CALLE","CACTUS",,"924","PR","243765","261795","18.3912","-66.0192","(18.3912, -66.0192)"
"98524","SAN JUAN","SABANA LLANA NORTE",,,,"URB","COUNTRY CLUB",,"1021",,"CALLE","FELIX DE AZARA",,"924","PR","245851","263651","18.4079","-65.9994","(18.4079, -65.9994)"
"98501","SAN JUAN","SABANA LLANA SUR",,,,"URB","HIGHLAND PARK",,"723",,"CALLE","CAFETO",,"924","PR","243746","261754","18.3908","-66.0193","(18.3908, -66.0193)"
"98492","SAN JUAN","SABANA LLANA SUR",,,,"URB","PARK GARDENS",,"U-5",,"CALLE","JASPER",,"926","PR","241985","261416","18.3878","-66.036","(18.3878, -66.036)"
"98486","SAN JUAN","SABANA LLANA SUR",,,,"URB","PARK GARDENS",,"U-4",,"CALLE","JASPER",,"926","PR","241972","261425","18.3879","-66.0361","(18.3879, -66.0361)"
"98481","SAN JUAN","SABANA LLANA SUR",,,,"URB","HIGHLAND PARK",,"717",,"CALLE","CAFETO",,"924","PR","243696","261751","18.3908","-66.0198","(18.3908, -66.0198)"
"98463","SAN JUAN","SABANA LLANA SUR",,,,"URB","HIGHLAND PARK",,"715",,"CALLE","CAFETO",,"924","PR","243681","261741","18.3907","-66.02","(18.3907, -66.02)"
"98442","SAN JUAN","SABANA LLANA SUR",,,,"URB","HIGHLAND PARK",,"711",,"CALLE","CAFETO",,"924","PR","243654","261724","18.3906","-66.0202","(18.3906, -66.0202)"
"98382","SAN JUAN","SABANA LLANA NORTE",,,,"URB","COUNTRY CLUB",,"1013",,"CALLE","FELIX DE AZARA",,"924","PR","245805","263687","18.4082","-65.9998","(18.4082, -65.9998)"
"98347","SAN JUAN","SABANA LLANA SUR",,,,"URB","PARK GARDENS",,"U-19",,"CALLE","JASPER",,"926","PR","241900","261452","18.3881","-66.0368","(18.3881, -66.0368)"
"98338","SAN JUAN","SABANA LLANA SUR",,,,"URB","PARK GARDENS",,"V-11",,"CALLE","JASPER",,"926","PR","241921","261428","18.3879","-66.0366","(18.3879, -66.0366)"
"98317","SAN JUAN","SABANA LLANA SUR",,,,"URB","HIGHLAND PARK",,"703",,"CALLE","CAFETO",,"924","PR","243597","261691","18.3903","-66.0208","(18.3903, -66.0208)"
"98301","SAN JUAN","SABANA LLANA NORTE",,,,"URB","COUNTRY CLUB",,"1007",,"CALLE","FELIX DE AZARA",,"924","PR","245775","263711","18.4085","-66.0001","(18.4085, -66.0001)"
"98141","SAN JUAN","SABANA LLANA SUR",,,,"URB","PARK GARDENS",,"U-23",,"CALLE","JASPER",,"926","PR","241856","261389","18.3876","-66.0372","(18.3876, -66.0372)"
"98271","SAN JUAN","SABANA LLANA NORTE",,,,"URB","COUNTRY CLUB",,"1008",,"CALLE","FELIX DE AZARA",,"924","PR","245770","263685","18.4082","-66.0001","(18.4082, -66.0001)"
"98236","SAN JUAN","SABANA LLANA NORTE",,,,"URB","COUNTRY CLUB",,"1012",,"CALLE","FELIX DE AZARA",,"924","PR","245788","263670","18.4081","-66","(18.4081, -66.0)"
"98182","SAN JUAN","SABANA LLANA NORTE",,,,"URB","COUNTRY CLUB",,"1014",,"CALLE","FELIX DE AZARA",,"924","PR","245803","263660","18.408","-65.9998","(18.408, -65.9998)"
"98163","SAN JUAN","SABANA LLANA NORTE",,,,"URB","COUNTRY CLUB",,"1016",,"CALLE","FELIX DE AZARA",,"924","PR","245816","263649","18.4079","-65.9997","(18.4079, -65.9997)"
"102753","SAN JUAN","SABANA LLANA NORTE",,,,"URB","LAS VIRTUDES",,"728",,"CALLE","CARIDAD",,"924","PR","243675","263936","18.4105","-66.02","(18.4105, -66.02)"
"102737","SAN JUAN","SABANA LLANA NORTE",,,,"URB","LAS VIRTUDES",,"726",,"CALLE","CARIDAD",,"924","PR","243661","263936","18.4105","-66.0201","(18.4105, -66.0201)"
"278348","SAN JUAN","SABANA LLANA NORTE",,,,"URB","COUNTRY CLUB",,"956",,"CALLE","ESPIONCELA",,"924","PR","245107","263332","18.4051","-66.0064","(18.4051, -66.0064)"
"278330","SAN JUAN","SABANA LLANA NORTE",,,,"URB","REPTO SEVILLA",,"947",,"CALLE","VERDI",,"924","PR","243744","262659","18.399","-66.0193","(18.399, -66.0193)"
"278317","SAN JUAN","SABANA LLANA NORTE",,,,"URB","REPTO SEVILLA",,"943",,"CALLE","VERDI",,"924","PR","243741","262689","18.3993","-66.0194","(18.3993, -66.0194)"
"279050","SAN JUAN","SABANA LLANA NORTE",,,,"URB","REPTO SEVILLA",,"871",,"CALLE","RAVEL",,"924","PR","243583","263201","18.4039","-66.0209","(18.4039, -66.0209)"
"278936","SAN JUAN","SABANA LLANA NORTE",,,,"URB","REPTO SEVILLA",,"884",,"CALLE","RAVEL",,"924","PR","243628","263101","18.403","-66.0204","(18.403, -66.0204)"
"278924","SAN JUAN","SABANA LLANA NORTE",,,,"URB","REPTO SEVILLA",,"886",,"CALLE","RAVEL",,"924","PR","243632","263088","18.4029","-66.0204","(18.4029, -66.0204)"
"278865","SAN JUAN","SABANA LLANA NORTE",,,,"URB","REPTO SEVILLA",,"896",,"CALLE","RAVEL",,"924","PR","243646","263015","18.4022","-66.0203","(18.4022, -66.0203)"
"278668","SAN JUAN","SABANA LLANA NORTE",,,,"URB","REPTO SEVILLA",,"938",,"CALLE","VERDI",,"924","PR","243762","262719","18.3995","-66.0192","(18.3995, -66.0192)"
"281392","SAN JUAN","ORIENTE",,,,"URB","VILLA GRANADA",,"909",,"CALLE","ASTURIAS",,"923","PR","242322","263075","18.4028","-66.0328","(18.4028, -66.0328)"
"281327","SAN JUAN","ORIENTE",,,,"URB","VILLA GRANADA",,"485",,"CALLE","MALAGA",,"923","PR","242267","263077","18.4028","-66.0333","(18.4028, -66.0333)"
"281230","SAN JUAN","ORIENTE",,,,"URB","SAN JOSE",,"373",,"CALLE","VILLALBA",,"923","PR","241475","265433","18.4241","-66.0408","(18.4241, -66.0408)"
"281227","SAN JUAN","EL CINCO",,,,"URB","VILLA NEVAREZ",,"1108",,"CALLE","7",,"927","PR","238505","261964","18.3928","-66.0689","(18.3928, -66.0689)"
"281196","SAN JUAN","ORIENTE",,,,"URB","VILLA GRANADA",,"908",,"CALLE","ALCAZAR",,"923","PR","242356","263066","18.4027","-66.0325","(18.4027, -66.0325)"
"281161","SAN JUAN","EL CINCO",,,,"URB","VILLA NEVAREZ",,"1116",,"CALLE","7",,"927","PR","238495","261911","18.3923","-66.069","(18.3923, -66.069)"
"281631","SAN JUAN","ORIENTE",,,,"URB","SAN JOSE",,"324",,"CALLE","ALCAIZ",,"923","PR","241353","265349","18.4234","-66.0419","(18.4234, -66.0419)"
"281604","SAN JUAN","ORIENTE",,,,"URB","SAN JOSE",,"330",,"CALLE","ALCAIZ",,"923","PR","241371","265317","18.4231","-66.0417","(18.4231, -66.0417)"
"281477","SAN JUAN","EL CINCO",,,,"URB","VILLA NEVAREZ",,"333",,"CALLE","4",,"927","PR","238579","261890","18.3922","-66.0682","(18.3922, -66.0682)"
"281476","SAN JUAN","ORIENTE",,,,"URB","VILLA GRANADA",,"913",,"CALLE","ASTURIAS",,"923","PR","242319","263039","18.4025","-66.0328","(18.4025, -66.0328)"
"281447","SAN JUAN","ORIENTE",,,,"URB","SAN JOSE",,"321",,"CALLE","ALMADEN",,"923","PR","241366","265388","18.4237","-66.0418","(18.4237, -66.0418)"
"281442","SAN JUAN","ORIENTE",,,,"URB","SAN JOSE",,"319",,"CALLE","ALMADEN",,"923","PR","241362","265398","18.4238","-66.0418","(18.4238, -66.0418)"
"281431","SAN JUAN","EL CINCO",,,,"URB","VILLA NEVAREZ",,"1105",,"CALLE","7",,"927","PR","238538","261981","18.393","-66.0686","(18.393, -66.0686)"
"281411","SAN JUAN","HATO REY CENTRAL",,,,"URB","HECTOR PINERO",,"167",,"CALLE","ALHAMBRA",,"917","PR","240348","265469","18.4245","-66.0514","(18.4245, -66.0514)"
"81939","CAROLINA","SABANA ABAJO",,,,"URB","JARDS DE COUNTRY CLUB",,"CX-6",,"CALLE","161",,"983","PR","248831","265184","18.4217","-65.9711","(18.4217, -65.9711)"
"81936","CAROLINA","SABANA ABAJO",,,,"URB","JARDS DE COUNTRY CLUB",,"CX-7",,"CALLE","161",,"983","PR","248831","265197","18.4218","-65.9711","(18.4218, -65.9711)"
"81933","CAROLINA","SABANA ABAJO",,,,"URB","JARDS DE COUNTRY CLUB",,"CX-8",,"CALLE","161",,"983","PR","248832","265210","18.4219","-65.9711","(18.4219, -65.9711)"
"81930","CAROLINA","SABANA ABAJO",,,,"URB","JARDS DE COUNTRY CLUB",,"CX-9",,"CALLE","161",,"983","PR","248830","265225","18.4221","-65.9712","(18.4221, -65.9712)"
"81923","CAROLINA","CANGREJO ARRIBA",,,,"URB","LOS ANGELES",,"39",,"CALLE","SAGITARIO",,"979","PR","245164","266203","18.431","-66.0058","(18.431, -66.0058)"
"81920","CAROLINA","SABANA ABAJO",,,,"URB","JARDS DE COUNTRY CLUB",,"CX-11",,"CALLE","161",,"983","PR","248826","265252","18.4223","-65.9712","(18.4223, -65.9712)"
"81917","CAROLINA","SABANA ABAJO",,,,"URB","JARDS DE COUNTRY CLUB",,"CX-12",,"CALLE","161",,"983","PR","248828","265265","18.4224","-65.9712","(18.4224, -65.9712)"
"81908","CAROLINA","SABANA ABAJO",,,,"URB","JARDS DE COUNTRY CLUB",,"CX-14",,"CALLE","161",,"983","PR","248824","265293","18.4227","-65.9712","(18.4227, -65.9712)"
"81878","CAROLINA","SABANA ABAJO",,,,"URB","COUNTRY CLUB",,"JH-24",,"CALLE","245",,"982","PR","247031","263816","18.4094","-65.9882","(18.4094, -65.9882)"
"81865","CAROLINA","SABANA ABAJO",,,,"URB","JARDS DE COUNTRY CLUB",,"CW-18",,"CALLE","161",,"983","PR","248803","265309","18.4228","-65.9714","(18.4228, -65.9714)"
"81856","CAROLINA","SABANA ABAJO",,,,"URB","COUNTRY CLUB",,"JH-23",,"CALLE","245",,"982","PR","247026","263821","18.4094","-65.9883","(18.4094, -65.9883)"
"81840","CAROLINA","SABANA ABAJO",,,,"URB","COUNTRY CLUB",,"JH-22",,"CALLE","245",,"982","PR","247016","263838","18.4096","-65.9884","(18.4096, -65.9884)"
"81829","CAROLINA","SABANA ABAJO",,,,"URB","COUNTRY CLUB",,"JH-21",,"CALLE","245",,"982","PR","247009","263848","18.4097","-65.9884","(18.4097, -65.9884)"
"81590","CAROLINA","SABANA ABAJO",,,,"URB","JARDS DE COUNTRY CLUB",,"CA-19",,"CALLE","126",,"983","PR","248701","265061","18.4206","-65.9724","(18.4206, -65.9724)"
"81580","CAROLINA","SABANA ABAJO",,,,"URB","JARDS DE COUNTRY CLUB",,"CA-20",,"CALLE","126",,"983","PR","248690","265059","18.4206","-65.9725","(18.4206, -65.9725)"
"81569","CAROLINA","SABANA ABAJO",,,,"URB","COUNTRY CLUB",,"JH-3",,"CALLE","246",,"982","PR","247026","263754","18.4088","-65.9883","(18.4088, -65.9883)"
"81561","CAROLINA","SABANA ABAJO",,,,"URB","JARDS DE COUNTRY CLUB",,"CA-23",,"CALLE","126",,"983","PR","248647","265043","18.4204","-65.9729","(18.4204, -65.9729)"
"81555","CAROLINA","SABANA ABAJO",,,,"URB","JARDS DE COUNTRY CLUB",,"CA-24",,"CALLE","126",,"983","PR","248640","265042","18.4204","-65.973","(18.4204, -65.973)"
"81671","CAROLINA","SABANA ABAJO",,,,"URB","JARDS DE COUNTRY CLUB",,"CW-31",,"CALLE","161",,"983","PR","248817","265135","18.4213","-65.9713","(18.4213, -65.9713)"
"81650","CAROLINA","SABANA ABAJO",,,,"URB","JARDS DE COUNTRY CLUB",,"CA-16",,"CALLE","126",,"983","PR","248740","265074","18.4207","-65.972","(18.4207, -65.972)"
"81612","CAROLINA","SABANA ABAJO",,,,"URB","COUNTRY CLUB",,"JH-6",,"CALLE","246",,"982","PR","247002","263791","18.4092","-65.9885","(18.4092, -65.9885)"
"81602","CAROLINA","SABANA ABAJO",,,,"URB","JARDS DE COUNTRY CLUB",,"CA-18",,"CALLE","126",,"983","PR","248711","265065","18.4206","-65.9723","(18.4206, -65.9723)"
"81497","CAROLINA","SABANA ABAJO",,,,"URB","VILLA FONTANA",,"3NS-5",,"CALLE","VIA LOURDES",,"983","PR","248517","262223","18.395","-65.9742","(18.395, -65.9742)"
"348322","CAROLINA","SABANA ABAJO",,,,"URB","COUNTRY CLUB",,"QI-18",,"CALLE","529",,"982","PR","246548","264710","18.4175","-65.9928","(18.4175, -65.9928)"
"348294","CAROLINA","SABANA ABAJO",,,,"URB","COUNTRY CLUB",,"QI-20",,"CALLE","529",,"982","PR","246555","264684","18.4172","-65.9927","(18.4172, -65.9927)"
"348238","CAROLINA","SABANA ABAJO",,,,"URB","VILLA FONTANA",,"4JS-17",,"CALLE","VIA 49",,"983","PR","248733","262078","18.3936","-65.9721","(18.3936, -65.9721)"
"348189","CAROLINA","SABANA ABAJO",,,,"URB","VILLA FONTANA",,"4JS-13",,"CALLE","VIA 49",,"983","PR","248763","262118","18.394","-65.9719","(18.394, -65.9719)"
"348500","CAROLINA","SABANA ABAJO",,,,"URB","VILLA FONTANA",,"4FS-3",,"CALLE","VIA 50",,"983","PR","248708","262133","18.3941","-65.9724","(18.3941, -65.9724)"
"348493","CAROLINA","SABANA ABAJO",,,,"URB","VILLA FONTANA",,"4FS-2",,"CALLE","VIA 50",,"983","PR","248716","262146","18.3943","-65.9723","(18.3943, -65.9723)"
"348457","CAROLINA","SABANA ABAJO",,,,"URB","COUNTRY CLUB",,"QI-10",,"CALLE","529",,"982","PR","246524","264720","18.4176","-65.993","(18.4176, -65.993)"
"348440","CAROLINA","SABANA ABAJO",,,,"URB","COUNTRY CLUB",,"QI-12",,"CALLE","529",,"982","PR","246517","264745","18.4178","-65.9931","(18.4178, -65.9931)"
"348386","CAROLINA","SABANA ABAJO",,,,"URB","VILLA FONTANA",,"4JS-8",,"CALLE","VIA 50",,"983","PR","248742","262153","18.3943","-65.9721","(18.3943, -65.9721)"
"348378","CAROLINA","SABANA ABAJO",,,,"URB","VILLA FONTANA",,"4-JS-6",,"CALLE","VIA 50",,"983","PR","248729","262130","18.3941","-65.9722","(18.3941, -65.9722)"
"348368","CAROLINA","SABANA ABAJO",,,,"URB","VILLA FONTANA",,"4JS-5",,"CALLE","VIA 50",,"983","PR","248721","262119","18.394","-65.9723","(18.394, -65.9723)"
"348337","CAROLINA","SABANA ABAJO",,,,"URB","VILLA FONTANA",,"4JS-2",,"CALLE","VIA 50",,"983","PR","248702","262089","18.3938","-65.9724","(18.3938, -65.9724)"
"347251","CAROLINA","BUENA VISTA",,,,"URB","VILLA CAROLINA 6TA SECC",,"232-12",,"CALLE","610",,"985","PR","249926","264922","18.4193","-65.9608","(18.4193, -65.9608)"
"347234","CAROLINA","BUENA VISTA",,,,"URB","VILLA CAROLINA 6TA SECC",,"232-13",,"CALLE","610",,"985","PR","249928","264904","18.4192","-65.9608","(18.4192, -65.9608)"
"347199","CAROLINA","BUENA VISTA",,,,"URB","VILLA CAROLINA",,"181-44",,"CALLE","443",,"985","PR","250255","264005","18.411","-65.9577","(18.411, -65.9577)"
"347179","CAROLINA","BUENA VISTA",,,,"URB","VILLA CAROLINA 6TA SECC",,"231-24",,"CALLE","610",,"985","PR","249901","264939","18.4195","-65.961","(18.4195, -65.961)"
"347170","CAROLINA","BUENA VISTA",,,,"URB","VILLA CAROLINA 6TA SECC",,"231-23",,"CALLE","610",,"985","PR","249902","264950","18.4196","-65.961","(18.4196, -65.961)"
"345089","CAROLINA","SABANA ABAJO",,,,"URB","VILLA FONTANA",,"4HS-2",,"CALLE","VIA 49",,"983","PR","248792","262188","18.3946","-65.9716","(18.3946, -65.9716)"
"345068","CAROLINA","SABANA ABAJO",,,,"URB","COUNTRY CLUB",,"QK-20",,"CALLE","533",,"982","PR","246651","264764","18.418","-65.9918","(18.418, -65.9918)"
"345066","CAROLINA","SABANA ABAJO",,,,"URB","VILLA FONTANA",,"4KS-9",,"CALLE","VIA 49",,"983","PR","248796","262149","18.3943","-65.9715","(18.3943, -65.9715)"
"345030","CAROLINA","SABANA ABAJO",,,,"URB","COUNTRY CLUB",,"QK-16",,"CALLE","533",,"982","PR","246640","264820","18.4185","-65.9919","(18.4185, -65.9919)"
"345028","CAROLINA","CANOVANILLAS",,,,"URB","CIUDAD JARD",,"18",,"CALLE","GLADIOLA",,"987","PR","253080","259783","18.3728","-65.9311","(18.3728, -65.9311)"
"344290","CAROLINA","SABANA ABAJO",,,,"URB","VILLA FONTANA",,"4PS-1",,"CALLE","VIA 45",,"983","PR","248857","262171","18.3945","-65.971","(18.3945, -65.971)"
"344150","CAROLINA","SABANA ABAJO",,,,"URB","COUNTRY CLUB",,"QN-10",,"CALLE","246",,"982","PR","246738","264770","18.418","-65.991","(18.418, -65.991)"
"146973","CAROLINA","SABANA ABAJO",,,,"URB","JARDS DE COUNTRY CLUB",,"BT-3",,"CALLE","123",,"983","PR","248492","265080","18.4208","-65.9743","(18.4208, -65.9743)"
"148211","CAROLINA","MARTIN GONZALEZ",,,,"URB","ROLLING HILLS",,"T-398",,"CALLE","MEXICO",,"987","PR","247713","260716","18.3814","-65.9818","(18.3814, -65.9818)"
"148155","CAROLINA","MARTIN GONZALEZ",,,,"URB","ROLLING HILLS",,"T-403",,"CALLE","MEXICO",,"987","PR","247658","260668","18.3809","-65.9823","(18.3809, -65.9823)"
"148147","CAROLINA","MARTIN GONZALEZ",,,,"URB","ROLLING HILLS",,"T-404",,"CALLE","MEXICO",,"987","PR","247640","260663","18.3809","-65.9825","(18.3809, -65.9825)"
"148141","CAROLINA","MARTIN GONZALEZ",,,,"URB","VILLA CAROLINA 1RA SECC",,"F-2",,"CALLE","1",,"985","PR","249763","260870","18.3827","-65.9624","(18.3827, -65.9624)"
"148403","CAROLINA","MARTIN GONZALEZ",,,,"URB","ROLLING HILLS",,"T-383",,"CALLE","MEXICO",,"987","PR","247760","260729","18.3815","-65.9814","(18.3815, -65.9814)"
"148386","CAROLINA","MARTIN GONZALEZ",,,,"URB","VILLA CAROLINA 1RA SECC",,"E-19",,"CALLE","3",,"985","PR","249660","260981","18.3837","-65.9634","(18.3837, -65.9634)"
"148385","CAROLINA","MARTIN GONZALEZ",,,,"URB","ROLLING HILLS",,"T-385",,"CALLE","MEXICO",,"987","PR","247779","260744","18.3816","-65.9812","(18.3816, -65.9812)"
"148377","CAROLINA","MARTIN GONZALEZ",,,,"URB","VILLA CAROLINA 1RA SECC",,"E-18",,"CALLE","3",,"985","PR","249659","260994","18.3838","-65.9634","(18.3838, -65.9634)"
"148360","CAROLINA","MARTIN GONZALEZ",,,,"URB","ROLLING HILLS",,"T-387",,"CALLE","MEXICO",,"987","PR","247799","260760","18.3818","-65.981","(18.3818, -65.981)"
"147122","CAROLINA","SABANA ABAJO",,,,"URB","JARDS DE COUNTRY CLUB",,"BT-31",,"CALLE","125",,"983","PR","248520","265206","18.4219","-65.9741","(18.4219, -65.9741)"
"150044","CAROLINA","SABANA ABAJO",,,,"URB","VALLE ARRIBA HEIGHT",,"CY-2",,"CALLE","146",,"983","PR","248658","263840","18.4096","-65.9728","(18.4096, -65.9728)"
"150020","CAROLINA","MARTIN GONZALEZ",,,,"URB","QUINTAS DE CAMPECHE",,"B-1",,"CALLE","2",,"987","PR","248534","259777","18.3729","-65.9741","(18.3729, -65.9741)"
"150082","CAROLINA","SABANA ABAJO",,,,"URB","VALLE ARRIBA HEIGHT",,"CY-9",,"CALLE","146",,"983","PR","248701","263809","18.4093","-65.9724","(18.4093, -65.9724)"
"149889","CAROLINA","SABANA ABAJO",,,,"URB","VALLE ARRIBA HEIGHT",,"AM-1",,"CALLE","GUAMA",,"983","PR","248766","263793","18.4091","-65.9718","(18.4091, -65.9718)"
"149797","CAROLINA","SABANA ABAJO",,,,"URB","EL COMANDANTE",,"606",,"CALLE","MONTENEGRO",,"982","PR","247222","262669","18.399","-65.9864","(18.399, -65.9864)"
"149774","CAROLINA","CANOVANILLAS",,,,"URB","LOS COLOBOS PARK",,"FF-22",,"CALLE","LOS ALMENDROS",,"987","PR","253970","258894","18.3648","-65.9227","(18.3648, -65.9227)"
"149827","CAROLINA","SABANA ABAJO",,,,"URB","VALLE ARRIBA HEIGHT",,"AN-4",,"CALLE","GUAMA",,"983","PR","248699","263772","18.409","-65.9724","(18.409, -65.9724)"
"149578","CAROLINA","SABANA ABAJO",,,,"URB","EL COMANDANTE",,"592",,"CALLE","CAPRI",,"982","PR","247333","262567","18.3981","-65.9854","(18.3981, -65.9854)"
"149645","CAROLINA","SABANA ABAJO",,,,"URB","VALLE ARRIBA HEIGHT",,"AN-11",,"CALLE","NOGAL",,"983","PR","248662","263732","18.4086","-65.9728","(18.4086, -65.9728)"
"149456","CAROLINA","SABANA ABAJO",,,,"URB","EL COMANDANTE",,"700",,"CALLE","GRACE",,"982","PR","247452","262639","18.3987","-65.9842","(18.3987, -65.9842)"
"149404","CAROLINA","SABANA ABAJO",,,,"URB","VALLE ARRIBA HEIGHT",,"AK-13",,"CALLE","NARANJO",,"983","PR","248664","263674","18.4081","-65.9728","(18.4081, -65.9728)"
"149306","CAROLINA","SABANA ABAJO",,,,"URB","VALLE ARRIBA HEIGHT",,"AK-10",,"CALLE","NARANJO",,"983","PR","248714","263669","18.408","-65.9723","(18.408, -65.9723)"
"102709","SAN JUAN","SABANA LLANA SUR",,,,"URB","HIGHLAND PARK",,"744",,"CALLE","CIPRES",,"924","PR","243890","261579","18.3892","-66.018","(18.3892, -66.018)"
"102675","SAN JUAN","SABANA LLANA SUR",,,,"URB","HIGHLAND PARK",,"743",,"CALLE","CIPRES",,"924","PR","243878","261626","18.3897","-66.0181","(18.3897, -66.0181)"
"102641","SAN JUAN","SABANA LLANA NORTE",,,,"URB","LAS VIRTUDES",,"754",,"CALLE","FRANQUEZA",,"924","PR","243658","263975","18.4109","-66.0201","(18.4109, -66.0201)"
"102627","SAN JUAN","SABANA LLANA NORTE",,,,"URB","LAS VIRTUDES",,"752",,"CALLE","FRANQUEZA",,"924","PR","243660","263987","18.411","-66.0201","(18.411, -66.0201)"
"102618","SAN JUAN","SABANA LLANA NORTE",,,,"URB","COUNTRY CLUB",,"1044",,"CALLE","FORBES",,"924","PR","246032","263628","18.4077","-65.9977","(18.4077, -65.9977)"
"102607","SAN JUAN","SABANA LLANA NORTE",,,,"URB","LAS VIRTUDES",,"748",,"CALLE","FRANQUEZA",,"924","PR","243662","264012","18.4112","-66.0201","(18.4112, -66.0201)"
"102590","SAN JUAN","SABANA LLANA NORTE",,,,"URB","COUNTRY CLUB",,"1046",,"CALLE","FORBES",,"924","PR","246042","263618","18.4076","-65.9976","(18.4076, -65.9976)"
"102526","SAN JUAN","SABANA LLANA NORTE",,,,"URB","LAS VIRTUDES",,"726",,"CALLE","BONDAD",,"924","PR","243665","264087","18.4119","-66.0201","(18.4119, -66.0201)"
"102514","SAN JUAN","SABANA LLANA NORTE",,,,"URB","LAS VIRTUDES",,"722",,"CALLE","BONDAD",,"924","PR","243629","264089","18.4119","-66.0204","(18.4119, -66.0204)"
"102495","SAN JUAN","SABANA LLANA NORTE",,,,"URB","LAS VIRTUDES",,"745",,"CALLE","SIMON MADERA",,"924","PR","243619","264042","18.4115","-66.0205","(18.4115, -66.0205)"
"102454","SAN JUAN","SABANA LLANA SUR",,,,"URB","PARK GARDENS",,"R-13",,"CALLE","COLONIAL",,"926","PR","242254","261589","18.3894","-66.0335","(18.3894, -66.0335)"
"102447","SAN JUAN","SABANA LLANA NORTE",,,,"URB","COUNTRY CLUB",,"1043",,"CALLE","ANA DE CAUZOS",,"924","PR","246001","263611","18.4076","-65.998","(18.4076, -65.998)"
"102440","SAN JUAN","SABANA LLANA SUR",,,,"URB","PARK GARDENS",,"R-11",,"CALLE","COLONIAL",,"926","PR","242273","261564","18.3891","-66.0333","(18.3891, -66.0333)"
"102427","SAN JUAN","SABANA LLANA NORTE",,,,"URB","LAS VIRTUDES",,"753",,"CALLE","SIMON MADERA",,"924","PR","243619","263986","18.411","-66.0205","(18.411, -66.0205)"
"102415","SAN JUAN","SABANA LLANA NORTE",,,,"URB","LAS VIRTUDES",,"755",,"CALLE","SIMON MADERA",,"924","PR","243618","263973","18.4109","-66.0205","(18.4109, -66.0205)"
"102414","SAN JUAN","SABANA LLANA SUR",,,,"URB","HIGHLAND PARK",,"723",,"CALLE","ANON",,"924","PR","243692","261902","18.3922","-66.0199","(18.3922, -66.0199)"
"102407","SAN JUAN","SABANA LLANA NORTE",,,,"URB","LAS VIRTUDES",,"757",,"CALLE","SIMON MADERA",,"924","PR","243620","263960","18.4108","-66.0205","(18.4108, -66.0205)"
"102371","SAN JUAN","SABANA LLANA SUR",,,,"URB","PARK GARDENS",,"R-8",,"CALLE","COLONIAL",,"926","PR","242290","261518","18.3887","-66.0331","(18.3887, -66.0331)"
"102223","SAN JUAN","SABANA LLANA NORTE",,,,"URB","COUNTRY CLUB",,"1016",,"CALLE","ANA DE CAUZOS",,"924","PR","245852","263694","18.4083","-65.9994","(18.4083, -65.9994)"
"102221","SAN JUAN","SABANA LLANA SUR",,,,"URB","PARK GARDENS",,"N-21",,"CALLE","DISNEYLANDIA",,"926","PR","242192","261564","18.3891","-66.0341","(18.3891, -66.0341)"
"102468","SAN JUAN","SABANA LLANA NORTE",,,,"URB","COUNTRY CLUB",,"1047",,"CALLE","ANA DE CAUZOS",,"924","PR","246021","263594","18.4074","-65.9978","(18.4074, -65.9978)"
"109402","CAROLINA","CANOVANILLAS",,,,"URB","PARQ ECUESTRE",,"D-32",,"CALLE","COLABORADOR",,"987","PR","253440","259469","18.37","-65.9277","(18.37, -65.9277)"
"109397","CAROLINA","BUENA VISTA",,,,"URB","JOSE SEVERO QUINONES",,"F-220",,"CALLE","8",,"985","PR","250576","261180","18.3855","-65.9547","(18.3855, -65.9547)"
"109395","CAROLINA","SAN ANTON",,,,"URB","PASEO DE LA ALHAMBRA",,"34",,"CALLE","GENERALIFE",,"987","PR","247464","261741","18.3906","-65.9842","(18.3906, -65.9842)"
"109445","CAROLINA","BUENA VISTA",,,,"URB","JOSE SEVERO QUINONES",,"F-216",,"CALLE","8",,"985","PR","250569","261225","18.3859","-65.9548","(18.3859, -65.9548)"
"109431","CAROLINA","CANOVANILLAS",,,,"URB","PARQ ECUESTRE",,"D-30",,"CALLE","COLABORADOR",,"987","PR","253446","259492","18.3702","-65.9276","(18.3702, -65.9276)"
"109428","CAROLINA","BUENA VISTA",,,,"URB","VILLA CAROLINA 3RA SECC",,"131-37",,"CALLE","100",,"985","PR","249544","262946","18.4015","-65.9644","(18.4015, -65.9644)"
"109421","CAROLINA","SAN ANTON",,,,"URB","PASEO DE LA ALHAMBRA",,"35",,"CALLE","GENERALIFE",,"987","PR","247459","261722","18.3905","-65.9842","(18.3905, -65.9842)"
"109410","CAROLINA","BUENA VISTA",,,,"URB","JOSE SEVERO QUINONES",,"F-218",,"CALLE","8",,"985","PR","250567","261208","18.3857","-65.9548","(18.3857, -65.9548)"
"109473","CAROLINA","SAN ANTON",,,,"URB","PASEO DE LA ALHAMBRA",,"39",,"CALLE","GENERALIFE",,"987","PR","247406","261639","18.3897","-65.9847","(18.3897, -65.9847)"
"109458","CAROLINA","BUENA VISTA",,,,"URB","VILLA CAROLINA 3RA SECC",,"131-38",,"CALLE","100",,"985","PR","249531","262946","18.4015","-65.9646","(18.4015, -65.9646)"
"109457","CAROLINA","BUENA VISTA",,,,"URB","JOSE SEVERO QUINONES",,"F-215",,"CALLE","8",,"985","PR","250563","261236","18.386","-65.9548","(18.386, -65.9548)"
